{"type": "Topology", "transform": {"scale": [8.252169373635497e-06, 8.99375612110788e-06], "translate": [126.14743999567767, 33.112565257798195]}, "objects": {"collection": {"type": "GeometryCollection", "geometries": [{"type": "MultiPolygon", "arcs": [[[0]], [[1]], [[2]], [[3]], [[4]], [[5]], [[6]], [[7]], [[8]], [[9]], [[10]], [[11]], [[12]], [[13]], [[14]], [[15]], [[16]], [[17]], [[18]], [[19]], [[20]], [[21]], [[22]], [[23]], [[24]]], "properties": {"name": "\uc81c\uc8fc\uc2dc", "base_year": "2018", "name_eng": "Jeju-si", "code": "39010"}}, {"type": "MultiPolygon", "arcs": [[[25]], [[26]], [[27]], [[28]], [[29]], [[30]], [[31]], [[32]], [[33]], [[34]]], "properties": {"name": "\uc11c\uadc0\ud3ec\uc2dc", "base_year": "2018", "name_eng": "Seogwipo-si", "code": "39020"}}]}}, "arcs": [[[0, 21926], [36, 2], [-36, -2]], [[9867, 33308], [367, -512], [-683, -368], [-413, 819], [728, 61], [1, 0]], [[9337, 33947], [-1, 0], [1, 0]], [[91408, 44776], [6, -5], [-6, 5]], [[46560, 45445], [68, 53], [-68, -53]], [[91491, 45627], [3, 0], [-3, 0]], [[98766, 45230], [-443, -733], [1677, 208], [-912, -169], [747, -1610], [-508, -876], [-2910, 471], [-265, 1290], [1214, 1231], [-342, 601], [776, 320], [965, -732], [1, -1]], [[46628, 45498], [1068, 1270], [-780, -1082], [-288, -188]], [[70580, 49832], [-2, 14], [2, -14]], [[91408, 44776], [-261, -619], [1213, -4], [459, -715], [-338, -1574], [-1055, -729], [-2106, -206], [-7158, -3059], [-404, -718], [-4067, -594], [-3305, -2212], [-2409, -133], [-1161, 718], [-3291, -654], [-4270, -2275], [-4684, -811], [-931, -974], [-5857, -1368], [-2550, 183], [-2932, -1327], [-4735, -754], [-933, 525], [-4504, -88], [-1037, -454], [-537, -1521], [-6867, 642], [-1025, -639], [-3300, 273], [-2140, -1978], [-3177, -431], [-2092, -2491], [-4129, -1249], [-45, -1705], [-1801, 1302], [-4578, 1520], [-39, -520], [-3306, -1009], [-413, 903], [777, 681], [-478, 862], [597, 1119], [-833, 1940], [1268, 953], [-399, 302], [1342, 100], [382, 1357], [2672, 1098], [2211, 2402], [1385, -57], [1878, 1283], [244, 885], [788, 43], [-693, 714], [1193, 106], [-269, 713], [-1002, -693], [1445, 754], [-135, 1462], [1214, -197], [706, 802], [2507, 543], [1597, 2516], [3062, -307], [5775, 2481], [1807, -664], [3195, 1397], [2975, 153], [244, 792], [3616, 738], [1304, 1094], [4568, -385], [1329, 605], [-142, 742], [1426, -594], [-414, -398], [1421, 764], [2820, -229], [1513, 1366], [4484, -188], [1229, 2178], [416, -732], [584, 418], [1721, -1110], [1313, 1074], [1372, -450], [4922, 1368], [1002, -666], [892, 100], [-633, 463], [2054, -315], [993, 1000], [1121, -540], [1098, 423], [1741, -1070], [3571, 456], [131, -1805], [1466, -1060], [2494, -966], [1223, 641], [2591, -425], [1583, -692], [-569, -551], [70, -49]], [[19293, 87827], [2, 2], [-2, -2]], [[23871, 87857], [10, 6], [-10, -6]], [[21069, 89296], [694, -224], [-420, -502], [-275, 727], [1, -1]], [[59357, 89924], [-9, 0], [9, 0]], [[19854, 91872], [9, 1], [-9, -1]], [[23520, 93535], [49, -809], [-2132, -658], [781, -1097], [-976, -99], [-2275, 2585], [4672, 157], [-119, -79]], [[28453, 95023], [55, 27], [-55, -27]], [[16296, 95450], [2196, -925], [-661, -136], [891, -314], [-28, -689], [-1242, 378], [-1158, 1688], [2, -2]], [[19472, 95693], [64, 2], [-64, -2]], [[24702, 96767], [-1, 0], [1, 0]], [[17759, 96677], [10, 3], [-10, -3]], [[21403, 97023], [-840, 452], [843, -450], [-3, -2]], [[12592, 97470], [3, 4], [-3, -4]], [[29570, 98180], [-2, 1], [2, -1]], [[23156, 99922], [1721, -493], [-523, -297], [-2254, 703], [924, 165], [132, -78]], [[14600, 1304], [-133, -1304], [133, 1305], [0, -1]], [[14922, 7055], [1112, -951], [-917, -632], [-1183, 750], [844, 750], [144, 83]], [[20226, 10951], [-3, 2], [3, -2]], [[44668, 11987], [-4, 3], [4, -3]], [[61648, 12313], [-433, 318], [767, -117], [-334, -201]], [[50893, 12523], [113, 14], [-113, -14]], [[54835, 13240], [-424, -316], [424, 318], [0, -2]], [[92597, 40783], [9, 2], [16, 1], [-25, -3]], [[92622, 40786], [2, 0], [-2, 0]], [[92597, 40783], [181, -744], [1426, -70], [-184, -1835], [1538, 2544], [66, -1583], [1176, -887], [-1773, 406], [-1195, -1815], [1788, -1595], [-864, -733], [-756, 426], [91, 874], [-944, -38], [227, -743], [-1846, -2816], [451, -1160], [-2783, -885], [-1476, -1261], [-354, -2022], [-1433, -1774], [-1518, -581], [528, -1472], [-1532, -1190], [-3394, -786], [-3628, 548], [-4246, -3231], [-1147, 436], [-6752, -1622], [-2351, 762], [309, -559], [-2242, -324], [-247, -992], [-4885, -2504], [-2674, 1150], [-1091, -204], [-158, -1150], [-793, 1148], [397, -918], [-1630, 728], [-3621, -39], [-1265, -1171], [-2323, 235], [-2237, -1061], [-1913, 2024], [-3369, -666], [-2506, 1042], [-5078, -1737], [-596, 913], [-4121, -598], [933, 339], [-935, 666], [-3604, -2010], [-937, -1928], [551, -922], [-587, -216], [-598, 599], [-2513, -446], [-131, 1435], [-816, -227], [-2769, 3056], [-6224, 2766], [-1641, 2544], [2822, 1748], [4578, -1520], [1801, -1302], [45, 1705], [4129, 1249], [2092, 2491], [3177, 431], [2140, 1978], [3300, -273], [1025, 639], [6867, -642], [537, 1521], [1037, 454], [4504, 88], [933, -525], [5367, 920], [2300, 1161], [4314, 75], [4314, 1189], [710, 895], [4684, 811], [3999, 2209], [3562, 720], [1161, -718], [2409, 133], [3305, 2212], [4067, 594], [404, 718], [7158, 3059], [3189, -154], [88, 8]]]}