{"type": "Topology", "transform": {"scale": [5.48720000000003e-06, 7.207000000000008e-06], "translate": [128.35148, 35.60654]}, "objects": {"collection": {"type": "GeometryCollection", "geometries": [{"type": "MultiPolygon", "arcs": [[[0]]], "properties": {"name": "\uc911\uad6c", "code": "22010"}}, {"type": "MultiPolygon", "arcs": [[[1]]], "properties": {"name": "\ub3d9\uad6c", "code": "22020"}}, {"type": "MultiPolygon", "arcs": [[[2]]], "properties": {"name": "\uc11c\uad6c", "code": "22030"}}, {"type": "MultiPolygon", "arcs": [[[3]]], "properties": {"name": "\ub0a8\uad6c", "code": "22040"}}, {"type": "MultiPolygon", "arcs": [[[4]]], "properties": {"name": "\ubd81\uad6c", "code": "22050"}}, {"type": "MultiPolygon", "arcs": [[[5]]], "properties": {"name": "\uc218\uc131\uad6c", "code": "22060"}}, {"type": "MultiPolygon", "arcs": [[[6]]], "properties": {"name": "\ub2ec\uc11c\uad6c", "code": "22070"}}, {"type": "MultiPolygon", "arcs": [[[7]], [[8]]], "properties": {"name": "\ub2ec\uc131\uad70", "code": "22310"}}, {"type": "MultiPolygon", "arcs": [[[9]]], "properties": {"name": "\uad70\uc704\uad70", "code": "27720"}}]}}, "arcs": [[[44394, 37366], [0, -72], [-16, -4], [454, 11], [710, -107], [374, -84], [78, -17], [99, -11], [73, -1], [7, 0], [206, 5], [84, 8], [34, 3], [122, 13], [8, 1], [204, 45], [69, 15], [326, 75], [31, -11], [325, -135], [122, -214], [54, -97], [144, -376], [61, -115], [-181, -383], [-13, -18], [-12, -21], [-44, -57], [-71, -86], [-38, -30], [-55, -22], [-179, -67], [-155, -49], [-40, -19], [-64, -32], [-58, -55], [-29, -45], [-24, -86], [-129, -50], [-82, -136], [-15, -50], [-20, -112], [-7, -47], [0, -121], [5, -56], [13, -134], [4, -36], [3, -24], [21, -84], [12, -16], [-1008, 46], [-133, 4], [-277, 13], [-446, 22], [-374, 123], [-231, 21], [-16, 2], [-1254, 26], [-649, -43], [-250, -15], [-1532, 517], [-15, 154], [-35, 197], [-1, 3], [-50, 243], [-11, 53], [-1, 15], [-11, 71], [175, 107], [51, 27], [122, 66], [158, 81], [26, 13], [107, 53], [62, 37], [144, 89], [79, 62], [47, 39], [2, 3], [20, 29], [71, 82], [-38, 343], [-35, -30], [-15, -11], [-27, -12], [-22, -10], [-13, -4], [-271, -55], [-98, -6], [-215, 169], [-8, 43], [-9, 53], [0, 10], [2, 5], [13, 25], [171, 265], [2, 2], [2, 1], [7, 10], [22, 11], [2, 1], [3, 2], [9, 2], [26, 6], [275, -46], [-124, 509], [412, -62], [744, -115], [774, -114], [-5, -28], [144, -22], [136, -17], [649, -98], [222, -35], [84, -28]], [[62793, 56755], [139, -333], [835, -322], [554, -107], [366, -46], [155, -6], [135, -4], [698, -72], [736, -91], [359, -52], [550, -152], [82, -45], [57, -61], [186, -19], [674, -344], [95, -59], [0, 0], [169, -138], [146, -210], [326, -380], [268, -63], [31, -19], [106, -68], [217, -204], [33, -50], [38, -62], [91, -214], [29, -17], [-128, -159], [-182, -156], [-9, -4], [-11, -4], [-180, -72], [-33, -40], [-53, -61], [-73, -260], [-40, -298], [232, -224], [125, -65], [48, -25], [0, 0], [402, -123], [237, -147], [61, -118], [45, -158], [137, -228], [144, -99], [268, -138], [224, -75], [286, -56], [120, -27], [290, -89], [91, -74], [46, -60], [22, -27], [-148, -507], [-208, -372], [-169, -552], [-62, -362], [-15, -18], [-22, -25], [-56, -51], [-110, -61], [-138, -34], [-148, -61], [-255, -126], [-62, -60], [-40, -40], [-14, -14], [-42, -43], [-15, -23], [337, -159], [157, -206], [322, -515], [-25, -75], [-9, -176], [264, -397], [18, -35], [53, -100], [-9, -26], [-42, -110], [-525, -530], [-215, -234], [195, -83], [-249, -252], [-226, -276], [40, -269], [-17, -84], [-116, -132], [-181, 0], [172, -204], [198, -160], [35, -28], [78, -54], [135, -97], [186, -243], [260, -342], [2, -6], [17, -48], [33, -107], [218, -125], [285, -107], [528, -101], [71, -56], [363, -96], [82, -2], [160, -5], [478, -199], [9, -3], [51, -25], [16, -8], [11, -5], [199, -194], [100, -129], [87, -129], [321, -479], [113, -204], [-89, -29], [-253, -82], [-163, -124], [-54, -64], [-20, -102], [-11, -51], [84, -517], [49, -282], [14, -92], [26, -122], [18, -46], [37, -84], [439, -620], [202, -464], [-60, -556], [-62, -138], [-100, -147], [-232, -288], [-211, -178], [124, -266], [426, -321], [-202, -201], [-137, -251], [188, -299], [-9, -233], [0, -14], [-4, -52], [0, -32], [-98, -46], [0, 0], [-166, -60], [-71, -23], [-42, -14], [-33, -13], [-33, -11], [-105, -40], [-55, -19], [-22, -9], [-4, -1], [-76, -29], [0, 0], [-106, -53], [-45, -28], [-6, -4], [-5, -5], [-37, -35], [-313, -316], [-99, -103], [-62, -83], [-247, -276], [-24, -20], [-31, -10], [-489, -120], [-169, -42], [-155, -35], [-51, -9], [-64, -13], [-40, -15], [-16, -7], [-729, -390], [-184, -105], [-172, -68], [-51, -21], [-69, -27], [-140, -13], [-40, -3], [-24, -3], [-78, 7], [-135, 10], [-230, 22], [-107, 47], [-121, 53], [-12, 5], [-42, 20], [-1250, 627], [-185, 121], [57, 29], [-328, 277], [-1230, 108], [-414, 20], [-667, -6], [-53, -16], [-146, -59], [-812, -298], [-389, -75], [-752, 25], [-314, 113], [-627, 25], [-648, 20], [-706, 20], [-40, -4], [-12, -2], [-106, -5], [-26, 0], [-94, 19], [-26, 7], [-618, 168], [-89, 43], [-126, 76], [-73, 59], [-67, 68], [-7, 83], [47, 93], [-64, 455], [-136, 184], [-155, 228], [-24, 55], [-82, 113], [-31, 33], [-315, 300], [-492, 78], [-40, -84], [-101, -29], [-65, -18], [-842, -64], [-11, 2], [-223, 30], [-206, 24], [-191, 39], [-297, 93], [-264, 123], [-259, 297], [-66, -30], [-479, -80], [-118, 6], [-19, 1], [-78, 13], [-35, 7], [-38, 10], [-25, 9], [-50, 18], [-40, 20], [-116, 66], [-122, 64], [-88, 43], [-65, 29], [-15, 4], [-84, 24], [-44, 7], [-32, 0], [-418, -72], [-678, -192], [-23, 25], [-972, -435], [-158, -61], [-301, -64], [-361, -78], [-259, -135], [-544, -466], [-84, -69], [-40, -33], [-40, -32], [-493, 29], [-5, 1], [-1573, 117], [-84, 5], [-574, 43], [-32, 3], [-61, 115], [-144, 376], [-54, 97], [-122, 214], [-325, 135], [-31, 11], [-463, 173], [-227, 100], [32, 89], [33, 12], [31, 11], [155, 55], [104, 36], [97, 33], [185, 119], [263, 218], [36, 103], [447, 454], [31, 4], [0, 0], [96, 26], [30, 17], [21, 44], [28, 68], [20, 69], [34, 59], [28, 40], [53, 69], [34, 35], [79, 75], [12, 12], [529, 295], [415, 206], [522, -179], [534, -231], [674, 506], [16, 126], [-217, 192], [-313, 311], [-346, 907], [7, 39], [13, 69], [71, 134], [151, 204], [157, 2], [284, 6], [160, 7], [90, 51], [82, 849], [16, 260], [2, 122], [-49, 542], [-26, 68], [-18, 53], [-18, 113], [-11, 148], [-7, 130], [0, 45], [-4, 179], [-13, 65], [-56, 97], [-39, 54], [-380, 292], [-93, 5], [-108, 4], [-2, 0], [-98, -9], [73, 22], [43, 14], [68, 57], [2, 1], [-2, 108], [-55, 114], [-80, 43], [-228, 236], [-237, 245], [-51, 367], [192, 96], [104, 70], [29, 204], [-33, 608], [-89, 47], [-46, 24], [-137, 40], [-109, 11], [-49, -7], [-133, -21], [-31, 20], [-29, 312], [52, 534], [154, 326], [176, 142], [192, 100], [42, 21], [3, 4], [26, 205], [0, 13], [-275, 351], [-6, 5], [-148, 74], [-91, 29], [-240, 101], [-69, 174], [113, 126], [89, 159], [-53, 64], [-4, 3], [-468, 434], [-268, 124], [-58, 39], [-53, 43], [18, 199], [29, 31], [84, 93], [146, 143], [9, 12], [2, 4], [-22, 98], [-95, 169], [-60, 72], [-33, 15], [-233, 95], [-660, 485], [-60, 135], [-104, 109], [-60, 39], [-31, 21], [-75, 49], [-391, 234], [-81, 46], [-577, 244], [-234, 70], [-273, 29], [-18, 1], [501, 469], [284, 265], [706, 631], [47, 42], [330, 219], [157, 60], [224, 140], [78, 161], [91, 208], [69, 197], [299, 188], [337, -55], [248, 2], [314, 50], [29, 44], [51, 104], [77, 28], [109, 12], [189, 14], [817, -101], [381, 149], [386, 112], [109, 8], [332, 17], [108, -4], [184, 12], [209, 46], [139, 130], [-2, 3], [115, -15], [277, -17], [273, 34], [66, -10], [413, -128], [274, -102], [87, -59], [246, -104], [126, -46], [379, 106], [133, 128], [202, 52], [296, 68], [295, 2], [448, 4], [0, 0], [647, 29], [230, 55], [18, 18], [215, 209], [168, 70], [342, 86], [846, 13], [600, -15], [390, 165], [91, 52], [1168, -45], [1416, 188], [242, 45], [80, -83]], [[38544, 39272], [941, -116], [65, 3], [983, -119], [32, 3], [124, -16], [215, -29], [49, -15], [587, -183], [75, -25], [366, -124], [-335, -828], [-412, 62], [124, -509], [-275, 46], [-26, -6], [-9, -2], [-3, -2], [-2, -1], [-22, -11], [-7, -10], [-2, -1], [-2, -2], [-171, -265], [-13, -25], [-2, -5], [0, -10], [9, -53], [8, -43], [215, -169], [98, 6], [271, 55], [13, 4], [22, 10], [27, 12], [15, 11], [35, 30], [38, -343], [-71, -82], [-20, -29], [-2, -3], [-47, -39], [-79, -62], [-144, -89], [-62, -37], [-107, -53], [-26, -13], [-158, -81], [-122, -66], [-51, -27], [-175, -107], [11, -71], [1, -15], [11, -53], [50, -243], [1, -3], [-1161, -230], [-189, -31], [-1507, -346], [-202, -53], [-155, -40], [-1540, -451], [-8, 21], [-545, 224], [-267, -40], [-349, 81], [-209, 138], [-104, 189], [-1219, 4], [91, 362], [-166, 31], [-275, -3], [-27, 0], [-92, 1], [-65, 2], [-199, 3], [-102, 2], [-198, 3], [-41, 21], [-5, 3], [-149, 179], [-8, 15], [221, 187], [-57, 42], [-468, 314], [-259, 33], [-47, 4], [-224, -7], [-507, 289], [195, 213], [142, 188], [31, 47], [-146, 522], [-31, 70], [-29, 56], [-49, 87], [-26, 38], [-149, 213], [-111, 78], [-38, 15], [-287, 354], [-9, 13], [49, 102], [37, 28], [151, 90], [713, 154], [592, 92], [53, 28], [124, 66], [106, 171], [379, -283], [1000, -88], [57, 9], [40, 5], [43, 7], [267, 88], [41, 44], [50, 56], [98, 109], [27, 35], [174, 226], [30, 67], [15, 55], [6, 31], [1, 14], [4, 23], [29, 42], [224, 162], [135, 97], [26, 20], [317, 83], [193, 51], [20, 6], [257, 34], [217, 30], [1002, 309], [248, -247], [-36, -18], [-141, -101], [-89, -81], [5, -5], [378, -314], [43, -36], [19, -15], [23, -20], [37, -19], [14, -8], [6, -3], [3, -2], [13, -5], [4, -2], [13, -5], [14, -4], [28, -9], [20, -4], [27, -7], [31, -4], [237, -28], [889, -99], [235, -25]], [[40635, 35178], [1532, -517], [250, 15], [649, 43], [1254, -26], [16, -2], [231, -21], [374, -123], [446, -22], [277, -13], [133, -4], [1008, -46], [70, -90], [10, -37], [15, -53], [2, -46], [-6, -121], [-102, -449], [-31, -615], [-83, -240], [-17, -66], [0, -86], [6, -62], [-10, -68], [-20, -133], [-23, -66], [-26, -34], [-25, -23], [-20, 0], [-81, -3], [-91, -400], [-23, -187], [62, -332], [16, -56], [117, -253], [129, -318], [13, -120], [-150, 7], [-129, 4], [-117, -4], [-98, -49], [-64, -215], [-64, -229], [-23, -135], [-627, -961], [-155, -126], [-303, -68], [-187, -39], [-115, -21], [-403, -108], [-361, -253], [-151, -277], [-672, -222], [-662, -67], [-62, 24], [-86, 251], [-211, 291], [-102, 106], [-315, -39], [-102, 37], [-361, 289], [-301, 299], [-900, 438], [56, 172], [-18, 191], [-87, 107], [-210, 208], [-137, 87], [-238, -199], [-706, 100], [-56, 16], [-153, 167], [-183, 256], [-20, 30], [-51, 79], [-7, 16], [37, 6], [-30, 68], [-118, 165], [-390, 402], [-97, 66], [-22, 12], [-355, 132], [406, 449], [-40, -2], [624, 613], [124, 122], [69, 69], [20, 16], [7, 4], [274, 166], [36, 23], [51, 30], [7, 4], [172, 102], [1082, 505], [153, 72], [274, 123], [41, 36], [154, 1228]], [[48471, 51442], [233, -95], [33, -15], [60, -72], [95, -169], [22, -98], [-2, -4], [-9, -12], [-146, -143], [-84, -93], [-29, -31], [-18, -199], [53, -43], [58, -39], [268, -124], [468, -434], [4, -3], [53, -64], [-89, -159], [-113, -126], [69, -174], [240, -101], [91, -29], [148, -74], [6, -5], [275, -351], [0, -13], [-26, -205], [-3, -4], [-42, -21], [-192, -100], [-176, -142], [-154, -326], [-52, -534], [29, -312], [31, -20], [133, 21], [49, 7], [109, -11], [137, -40], [46, -24], [89, -47], [33, -608], [-29, -204], [-104, -70], [-192, -96], [51, -367], [237, -245], [228, -236], [80, -43], [55, -114], [2, -108], [-2, -1], [-68, -57], [-43, -14], [-73, -22], [98, 9], [2, 0], [108, -4], [93, -5], [380, -292], [39, -54], [56, -97], [13, -65], [4, -179], [0, -45], [7, -130], [11, -148], [18, -113], [18, -53], [26, -68], [49, -542], [-2, -122], [-16, -260], [-82, -849], [-90, -51], [-160, -7], [-284, -6], [-157, -2], [-151, -204], [-71, -134], [-13, -69], [-7, -39], [346, -907], [313, -311], [217, -192], [-16, -126], [-674, -506], [-534, 231], [-522, 179], [-415, -206], [-529, -295], [-12, -12], [-79, -75], [-34, -35], [-53, -69], [-28, -40], [-34, -59], [-20, -69], [-28, -68], [-21, -44], [-30, -17], [-96, -26], [0, 0], [-31, -4], [-447, -454], [-36, -103], [-263, -218], [-185, -119], [-97, -33], [-104, -36], [-155, -55], [-31, -11], [-33, -12], [-32, -89], [227, -100], [463, -173], [-326, -75], [-69, -15], [-204, -45], [-8, -1], [-122, -13], [-34, -3], [-84, -8], [-206, -5], [-7, 0], [-73, 1], [-99, 11], [-78, 17], [-374, 84], [-710, 107], [-454, -11], [16, 4], [0, 72], [-84, 28], [-222, 35], [-649, 98], [-136, 17], [-144, 22], [5, 28], [-774, 114], [-744, 115], [335, 828], [-366, 124], [-75, 25], [-587, 183], [-49, 15], [-215, 29], [-124, 16], [-32, -3], [-983, 119], [-65, -3], [-941, 116], [-235, 25], [-889, 99], [-237, 28], [-31, 4], [-27, 7], [-20, 4], [-28, 9], [-14, 4], [-13, 5], [-4, 2], [-13, 5], [-3, 2], [-6, 3], [-14, 8], [-37, 19], [-23, 20], [-19, 15], [-43, 36], [-378, 314], [-5, 5], [89, 81], [141, 101], [36, 18], [-248, 247], [-1002, -309], [-217, -30], [-257, -34], [-20, -6], [-193, -51], [-317, -83], [-26, -20], [-135, -97], [-224, -162], [-29, -42], [-4, -23], [-1, -14], [-6, -31], [-15, -55], [-30, -67], [-174, -226], [-27, -35], [-98, -109], [-50, -56], [-41, -44], [-267, -88], [-43, -7], [-40, -5], [-57, -9], [-1000, 88], [-379, 283], [-62, 15], [-205, 67], [-98, 33], [-195, 76], [-53, 23], [-352, 129], [-351, 113], [-1066, 224], [-51, 4], [-66, 7], [-109, 4], [-585, -1], [-119, -9], [-80, -7], [-144, -41], [-388, -206], [22, 34], [164, 692], [22, 515], [-19, 116], [-21, 61], [-26, 66], [244, 501], [135, 167], [443, 413], [100, 2], [93, 56], [416, 162], [113, 3], [105, -64], [44, -11], [20, 0], [345, 117], [122, 159], [309, 230], [349, 182], [209, 85], [151, 139], [0, 165], [-18, 69], [40, 47], [423, 335], [202, 100], [172, 66], [180, 64], [151, -7], [97, 376], [16, 131], [24, 86], [16, 44], [51, 90], [15, 25], [66, 79], [49, 61], [393, 389], [168, 344], [-20, 96], [13, 94], [9, 42], [133, 206], [-62, 465], [-91, 67], [-168, 444], [121, 78], [-39, 312], [-29, 118], [-117, 48], [-78, 128], [-5, 12], [82, 320], [40, 117], [34, 56], [73, 129], [49, 86], [77, 178], [53, 179], [3, 23], [-242, 347], [-120, 53], [-53, 1], [-111, 3], [-188, 37], [-60, 49], [-11, 11], [-179, 501], [-40, 258], [-180, 412], [-104, 149], [-199, 548], [297, 494], [93, 190], [447, 25], [437, -138], [664, -287], [678, -212], [331, -101], [122, -66], [46, -45], [-29, -141], [14, -36], [365, -409], [106, -176], [32, -196], [-14, -166], [60, -93], [348, -251], [363, -195], [503, -233], [127, 325], [350, 794], [64, 363], [13, 39], [127, 68], [264, 72], [328, 18], [245, -48], [556, 56], [0, 0], [176, 110], [0, 14], [-2, 151], [1307, 471], [1043, 16], [488, -53], [361, -106], [53, 14], [816, 222], [396, 36], [524, 222], [-20, 349], [582, 165], [415, 71], [394, 60], [421, 57], [93, 266], [18, -1], [273, -29], [234, -70], [577, -244], [81, -46], [391, -234], [75, -49], [31, -21], [60, -39], [104, -109], [60, -135], [660, -485]], [[55258, 37437], [25, -9], [38, -10], [35, -7], [78, -13], [19, -1], [118, -6], [479, 80], [66, 30], [259, -297], [264, -123], [297, -93], [191, -39], [206, -24], [223, -30], [11, -2], [842, 64], [65, 18], [101, 29], [40, 84], [492, -78], [315, -300], [31, -33], [82, -113], [24, -55], [155, -228], [136, -184], [64, -455], [-47, -93], [7, -83], [67, -68], [73, -59], [126, -76], [89, -43], [618, -168], [26, -7], [94, -19], [26, 0], [106, 5], [12, 2], [40, 4], [706, -20], [648, -20], [627, -25], [314, -113], [752, -25], [389, 75], [812, 298], [146, 59], [53, 16], [667, 6], [414, -20], [1230, -108], [328, -277], [-57, -29], [-107, 16], [-40, 13], [-80, 8], [0, 0], [-37, -3], [-200, -15], [-11, -4], [-204, -124], [158, -208], [179, -66], [80, -23], [46, -25], [184, -113], [0, 0], [5, -6], [38, -341], [159, -458], [62, -111], [18, -99], [-40, -267], [-4, -20], [-78, -266], [-91, -78], [-259, -241], [-53, -107], [-3, -136], [3, -9], [6, -9], [22, -28], [93, -105], [82, -120], [-6, -16], [-16, -32], [-13, -23], [-151, -51], [-399, -126], [-35, -7], [-16, 1], [-2, 0], [-26, 28], [-18, 24], [-66, 79], [-16, 8], [-2, 1], [-106, 46], [-34, 2], [-84, 4], [-106, -28], [-211, -135], [-713, -430], [-453, -267], [-62, -45], [-70, -60], [-34, -30], [-64, -64], [-2, -8], [-2, -10], [-2, -17], [-1, -8], [-95, -43], [-164, -126], [0, 0], [-49, -46], [-4, -26], [-9, -418], [9, -33], [9, -35], [71, -178], [99, -69], [200, -92], [263, -147], [195, -158], [69, -57], [54, -44], [37, -92], [7, -94], [-2, -110], [4, -11], [129, -366], [181, -459], [135, -86], [171, -261], [-122, -29], [-1205, -326], [-14, -6], [-432, -240], [-4, -4], [-7, -14], [-310, -340], [-109, -22], [-285, -65], [-226, -99], [-11, -5], [-353, -224], [-26, -26], [-14, -18], [-11, -56], [-4, -66], [-3, -43], [-15, -13], [-77, -41], [-426, -98], [-171, 32], [-181, 100], [-105, 96], [-73, 110], [-228, 1], [-119, -29], [-255, -124], [-29, -44], [-13, -44], [-12, -88], [-13, -32], [-82, -107], [-40, -40], [-82, -51], [-265, -53], [-52, -10], [-137, -1], [-869, -298], [-2, -3], [-210, 94], [-490, 310], [-374, 104], [-311, 191], [-392, 14], [-660, 110], [-40, 37], [-82, 72], [-723, 145], [-358, 69], [-242, 17], [-115, 2], [-709, 7], [-581, 95], [-179, 77], [-111, 110], [-109, 308], [-319, 15], [-532, -64], [-350, -34], [-365, -15], [-326, 22], [-115, 77], [-470, 96], [-581, 22], [-221, -7], [-302, -26], [-117, -37], [0, 0], [-341, -89], [-58, 40], [-184, 133], [-195, 143], [-40, 17], [-33, 14], [-98, 25], [-84, 15], [-410, 73], [-627, -97], [-594, -219], [-1382, 157], [-749, 136], [-220, 47], [-199, 37], [-166, -12], [-156, -18], [-560, -13], [-80, 103], [-867, 317], [-159, 36], [151, 277], [361, 253], [403, 108], [115, 21], [187, 39], [303, 68], [155, 126], [627, 961], [23, 135], [64, 229], [64, 215], [98, 49], [117, 4], [129, -4], [150, -7], [-13, 120], [-129, 318], [-117, 253], [-16, 56], [-62, 332], [23, 187], [91, 400], [81, 3], [20, 0], [25, 23], [26, 34], [23, 66], [20, 133], [10, 68], [-6, 62], [0, 86], [17, 66], [83, 240], [31, 615], [102, 449], [6, 121], [-2, 46], [-15, 53], [-10, 37], [-70, 90], [-12, 16], [-21, 84], [-3, 24], [-4, 36], [-13, 134], [-5, 56], [0, 121], [7, 47], [20, 112], [15, 50], [82, 136], [129, 50], [24, 86], [29, 45], [58, 55], [64, 32], [40, 19], [155, 49], [179, 67], [55, 22], [38, 30], [71, 86], [44, 57], [12, 21], [13, 18], [181, 383], [32, -3], [574, -43], [84, -5], [1573, -117], [5, -1], [493, -29], [40, 32], [40, 33], [84, 69], [544, 466], [259, 135], [361, 78], [301, 64], [158, 61], [972, 435], [23, -25], [678, 192], [418, 72], [32, 0], [44, -7], [84, -24], [15, -4], [65, -29], [88, -43], [122, -64], [116, -66], [40, -20], [50, -18]], [[23917, 28997], [8, 58], [31, 254], [3, 33], [8, 127], [12, 220], [2, 88], [-3, 51], [-15, 208], [-18, 97], [-17, 89], [-58, 229], [-80, 151], [-9, 18], [-93, 213], [-69, 191], [-793, 211], [-264, 69], [-164, 45], [-41, 9], [-176, 89], [-24, 11], [-51, 27], [-42, 22], [-703, 673], [34, 158], [93, 311], [42, 118], [113, 236], [97, 204], [45, 147], [28, 136], [113, 580], [56, 322], [55, 163], [124, 367], [133, 0], [506, 462], [39, 62], [501, 577], [42, 31], [359, 263], [237, -77], [138, 12], [108, 13], [111, 15], [184, 14], [25, 0], [106, -2], [78, -20], [24, -7], [79, -34], [7, -2], [472, -199], [550, -218], [272, -2], [630, -74], [15, -3], [270, -54], [124, -33], [282, 139], [477, 172], [338, 50], [215, -13], [76, 42], [26, 32], [20, 26], [120, 153], [26, 126], [23, 85], [13, 38], [518, -202], [641, -51], [607, 233], [507, -289], [224, 7], [47, -4], [259, -33], [468, -314], [57, -42], [-221, -187], [8, -15], [149, -179], [5, -3], [41, -21], [198, -3], [102, -2], [199, -3], [65, -2], [92, -1], [27, 0], [275, 3], [166, -31], [-91, -362], [1219, -4], [104, -189], [209, -138], [349, -81], [267, 40], [545, -224], [8, -21], [1540, 451], [155, 40], [202, 53], [1507, 346], [189, 31], [1161, 230], [35, -197], [15, -154], [-154, -1228], [-41, -36], [-274, -123], [-153, -72], [-1082, -505], [-172, -102], [-7, -4], [-51, -30], [-36, -23], [-274, -166], [-7, -4], [-20, -16], [-69, -69], [-124, -122], [-624, -613], [40, 2], [-406, -449], [355, -132], [22, -12], [97, -66], [390, -402], [118, -165], [30, -68], [-37, -6], [7, -16], [51, -79], [20, -30], [183, -256], [153, -167], [56, -16], [706, -100], [238, 199], [137, -87], [210, -208], [87, -107], [18, -191], [-56, -172], [900, -438], [301, -299], [361, -289], [102, -37], [315, 39], [102, -106], [211, -291], [86, -251], [62, -24], [662, 67], [-212, -368], [-69, -74], [-140, -223], [60, -130], [111, -139], [-9, -39], [-22, -103], [-188, -134], [-787, -127], [-113, -97], [-190, -107], [-129, -54], [-383, -36], [-271, 15], [-321, 68], [-354, 67], [-346, 54], [-386, -290], [-48, -37], [-3, -2], [237, -398], [85, -280], [108, -526], [-20, -420], [7, -59], [97, -129], [78, -97], [13, -189], [-919, -739], [-34, -17], [-245, -82], [-123, 35], [-84, 24], [-119, 5], [-426, -43], [-195, -44], [-217, -93], [-211, -6], [-307, -5], [-38, 40], [-42, 150], [-120, 447], [-241, 245], [-348, 58], [-224, 86], [-71, 60], [-315, 335], [-24, 31], [-25, 36], [-21, 45], [-76, 173], [-266, 161], [-212, 57], [-255, 107], [-93, 79], [-7, 106], [-7, 129], [-219, -218], [-399, -186], [-162, -25], [-186, -4], [-527, -10], [-455, 100], [-343, 107], [-126, 327], [-94, 297], [-48, 40], [-242, 3], [-582, 126], [-761, 474], [-84, 58], [-60, 40], [-86, 64], [-135, 133], [-217, 329], [-127, 258], [-42, 300], [-172, -6], [-158, -16], [-71, -21], [-20, -6], [-60, -18], [-91, -3], [-154, 64], [0, 0], [-9, 6], [-3, 1], [-15, 11], [17, 17], [-186, -20], [-110, -9], [-84, -9], [-92, 64], [113, 215], [140, 60], [195, 49], [142, 37], [29, 8], [381, 145], [-137, 169], [-238, 93], [-48, 17], [-155, 48], [-125, 33], [-62, 7], [-451, 250], [-103, 79], [-633, 267], [-58, 25], [-113, 41], [-18, 7], [-15, 4], [-56, 18], [-108, 34], [-113, 29], [-297, 54], [-1524, 232], [-632, -277], [-496, -238], [-206, -111]], [[27553, 29179], [633, -267], [103, -79], [451, -250], [62, -7], [125, -33], [155, -48], [48, -17], [238, -93], [137, -169], [-381, -145], [-29, -8], [-142, -37], [-195, -49], [-140, -60], [-113, -215], [92, -64], [84, 9], [110, 9], [186, 20], [-17, -17], [15, -11], [3, -1], [9, -6], [0, 0], [154, -64], [91, 3], [60, 18], [20, 6], [71, 21], [158, 16], [172, 6], [42, -300], [127, -258], [217, -329], [135, -133], [86, -64], [60, -40], [84, -58], [761, -474], [582, -126], [242, -3], [48, -40], [94, -297], [126, -327], [343, -107], [455, -100], [527, 10], [186, 4], [162, 25], [399, 186], [219, 218], [7, -129], [7, -106], [93, -79], [255, -107], [212, -57], [266, -161], [76, -173], [21, -45], [25, -36], [24, -31], [315, -335], [71, -60], [224, -86], [348, -58], [241, -245], [120, -447], [42, -150], [38, -40], [307, 5], [211, 6], [217, 93], [195, 44], [426, 43], [119, -5], [84, -24], [123, -35], [245, 82], [34, 17], [919, 739], [-13, 189], [-78, 97], [-97, 129], [-7, 59], [20, 420], [-108, 526], [-85, 280], [-237, 398], [3, 2], [48, 37], [386, 290], [346, -54], [354, -67], [321, -68], [271, -15], [383, 36], [129, 54], [190, 107], [113, 97], [787, 127], [188, 134], [22, 103], [9, 39], [-111, 139], [-60, 130], [140, 223], [69, 74], [212, 368], [672, 222], [159, -36], [867, -317], [80, -103], [560, 13], [156, 18], [166, 12], [199, -37], [220, -47], [749, -136], [1382, -157], [594, 219], [627, 97], [410, -73], [84, -15], [98, -25], [33, -14], [40, -17], [195, -143], [184, -133], [58, -40], [341, 89], [0, 0], [117, 37], [302, 26], [221, 7], [581, -22], [470, -96], [115, -77], [326, -22], [365, 15], [350, 34], [532, 64], [319, -15], [109, -308], [111, -110], [179, -77], [581, -95], [709, -7], [115, -2], [242, -17], [358, -69], [723, -145], [82, -72], [40, -37], [660, -110], [392, -14], [311, -191], [374, -104], [490, -310], [210, -94], [-201, -593], [0, -116], [11, -65], [19, -82], [47, -113], [7, -11], [204, -288], [177, -197], [179, -185], [104, -26], [43, -4], [51, 2], [81, -86], [111, -266], [20, -233], [-22, -86], [-4, -10], [-14, -37], [-93, -131], [-66, -96], [7, -174], [40, -174], [21, -26], [69, -39], [38, -18], [2, 1], [11, 7], [273, -22], [77, -60], [63, -63], [350, -395], [22, -47], [8, -125], [0, -43], [202, -480], [113, -54], [182, -104], [111, -86], [37, -33], [38, -57], [49, -157], [-310, -900], [-29, -39], [-62, -25], [-95, -38], [-60, -252], [53, -172], [170, -251], [-283, -189], [-361, -221], [-155, -71], [-27, -58], [-9, -230], [219, -153], [202, -118], [102, -119], [9, -283], [-153, -267], [-36, -62], [-73, -58], [-73, -43], [-432, -225], [-186, -71], [-162, -48], [-161, -84], [-339, -208], [-10, -37], [5, -81], [27, -209], [31, -70], [17, -48], [3, -15], [-3, -66], [-51, -47], [-665, -72], [-239, 13], [-263, 15], [-319, 11], [-317, -29], [-288, -65], [-14, -20], [-139, -208], [-47, -4], [-796, 57], [-507, 170], [-600, -151], [-659, -215], [-179, -204], [-42, -61], [-55, -94], [-300, -193], [-1127, -332], [-98, -290], [-95, -170], [-495, -163], [-587, -111], [-368, -57], [-206, 0], [-73, 46], [-306, 28], [-749, 65], [-79, -17], [-694, -270], [-399, -190], [-91, -146], [-769, 76], [1, 231], [-195, 98], [-85, 36], [-146, 75], [-643, 530], [-15, 45], [6, 441], [14, 115], [60, 54], [244, 139], [192, 114], [38, 61], [9, 114], [-138, 267], [-64, 84], [-106, 97], [-215, 172], [-248, 53], [-7, 1], [-497, 330], [-4, 63], [35, 122], [211, 158], [155, 109], [166, 111], [140, 31], [138, 64], [70, 97], [-24, 86], [-42, 51], [-62, 60], [-89, 96], [69, 209], [-42, 410], [-266, 226], [-589, 54], [-18, 1], [-291, 11], [-250, -127], [-184, -74], [-443, -114], [-306, -15], [-295, 0], [-285, 25], [-402, 57], [-77, 0], [-175, -18], [-75, -96], [51, -116], [-355, -401], [-149, -57], [-317, -104], [-84, 34], [-727, 388], [-77, 101], [-16, 21], [-122, 134], [-139, 140], [-144, 129], [-346, 48], [-740, -259], [-483, -174], [-379, -136], [-162, -6], [-516, 146], [-64, 80], [-184, 110], [-343, -26], [-167, -86], [-55, -37], [-36, -102], [-62, -179], [-270, -447], [-98, -128], [-237, -112], [-190, -11], [-109, -24], [-463, -112], [-468, -164], [-112, -43], [-869, -401], [-173, -103], [-208, -224], [-251, -232], [-117, -21], [-135, -23], [-140, -21], [-658, -133], [-915, -213], [-339, -230], [-137, -146], [-72, -37], [-232, -42], [-206, -62], [115, -134], [38, -43], [48, -27], [62, -36], [125, -110], [97, -114], [138, -334], [216, -265], [253, -253], [-232, -354], [-138, -567], [428, -250], [88, -151], [-99, -198], [-64, -111], [-185, -195], [-267, -311], [19, -334], [69, -294], [-355, -43], [-350, 19], [-589, -156], [-530, -156], [-660, -205], [-366, -310], [-6, -36], [-242, -211], [-254, -50], [-431, -59], [-288, 11], [-126, -51], [-91, -70], [-77, -73], [-54, -63], [-6, -21], [-16, -59], [67, -115], [108, -98], [107, -97], [13, -39], [24, -101], [-6, -498], [-204, -240], [15, -237], [-30, -489], [-27, -114], [-115, -314], [-60, -442], [-3, -265], [-2, -22], [268, -125], [156, -134], [268, -238], [13, -30], [5, -92], [-5, -47], [-144, -325], [-13, -11], [-95, -84], [-82, -60], [-287, -200], [-188, -123], [-97, -41], [-102, -26], [-54, -14], [-192, -28], [-191, -5], [-104, 4], [-171, 21], [-294, 15], [-718, 2], [-16, -12], [-26, -27], [-1055, -346], [-237, -51], [-975, -120], [-56, -6], [-71, 0], [-28, 4], [-49, 9], [-102, 25], [-64, 129], [-54, 131], [0, 40], [0, 14], [-2, 58], [-17, 102], [-7, 37], [-78, 107], [-121, 71], [-176, 41], [-225, -1], [-49, -7], [-93, -21], [-53, -15], [-98, -65], [-235, -161], [-600, -250], [-69, -22], [-224, 0], [-583, 16], [-95, 41], [-56, 23], [-392, 169], [-82, 38], [-454, 262], [-93, -11], [-51, -8], [-139, -29], [-67, -24], [-166, -60], [-7, -4], [-4, -5], [-3, -5], [-2, -13], [14, -42], [-1, -22], [-17, -45], [-13, -22], [-155, -150], [-597, -70], [-135, 9], [-379, 100], [-368, 4], [-183, 77], [-36, 11], [-38, 8], [-24, 3], [-24, 1], [-38, -4], [-20, -18], [-109, -219], [-489, -182], [-218, -107], [-150, -87], [35, -122], [12, -39], [-5, -39], [-155, -272], [-109, -22], [-49, -8], [-133, -7], [-41, 12], [-140, 49], [-29, -7], [-16, -4], [-99, -75], [-93, -123], [-800, -728], [-671, -126], [-493, 250], [-75, 37], [-29, 10], [-97, 23], [-286, -29], [-31, -4], [-31, -10], [-13, -5], [-36, -25], [-44, -35], [-65, -58], [-33, -34], [-39, -45], [-140, -175], [-377, -176], [-532, -156], [-86, -151], [-248, -232], [-167, -93], [-1119, -284], [-361, 251], [-133, 100], [-4, 4], [-106, 46], [-11, 1], [-102, -14], [-663, -192], [-518, -159], [-123, -90], [-106, 53], [-922, -296], [-199, -129], [-120, -94], [-115, -86], [-279, -8], [-235, -3], [-91, -22], [-4, 0], [-84, -43], [-278, -422], [-4, -3], [-835, 39], [-135, 22], [-791, 204], [-218, 117], [-33, 16], [-20, 25], [-18, 89], [109, 90], [109, 90], [194, 134], [342, 59], [157, 28], [412, 74], [1817, 593], [87, 68], [86, 66], [58, 45], [667, 560], [111, 111], [81, 81], [165, 167], [97, 125], [109, 141], [884, 690], [11, 36], [20, 62], [79, 259], [18, 61], [-15, 83], [-27, 141], [-17, 85], [-31, 146], [-258, 906], [-121, 140], [-267, 312], [-928, 580], [-181, 96], [-677, 312], [-850, 389], [-1587, 861], [-139, 78], [-122, 71], [-145, 84], [-1857, 1242], [-228, 219], [-108, 103], [-100, 97], [-270, 267], [-40, 38], [-47, 49], [-142, 147], [-20, 25], [-28, 36], [-38, 53], [-140, 191], [-122, 218], [-53, 95], [-77, 140], [-164, 322], [-42, 81], [-25, 49], [-153, 379], [-31, 75], [-13, 43], [-31, 100], [-91, 311], [-13, 273], [46, 509], [12, 128], [91, 65], [554, 394], [257, 101], [210, 67], [179, 22], [526, -65], [587, -110], [1292, -324], [496, -159], [386, -124], [226, -53], [450, -101], [381, -60], [469, -18], [275, -10], [80, -3], [873, -50], [917, -100], [1654, -349], [1105, -258], [426, 19], [159, 7], [674, 50], [246, 53], [321, 69], [82, 28], [51, 19], [34, 13], [13, 5], [410, 207], [1219, 785], [117, 91], [51, 37], [11, 10], [11, 10], [36, 38], [108, 117], [111, 305], [42, 176], [6, 131], [1, 126], [6, 329], [-46, 208], [-142, 699], [-25, 88], [-15, 48], [-47, 89], [-31, 57], [-124, 172], [-130, 143], [-235, 115], [-197, 96], [-187, 94], [-826, 448], [-73, 52], [-144, 103], [-71, 52], [-120, 85], [-525, 208], [-488, 211], [-633, 250], [-2449, 864], [-397, 119], [-124, 38], [-51, 22], [-511, 223], [-184, 89], [-178, 88], [-157, 147], [-93, 126], [-392, 452], [-295, 245], [-355, 285], [-17, 12], [-71, 58], [-45, 50], [-26, 46], [-4, 56], [19, 80], [18, 72], [168, 211], [601, 704], [354, 458], [60, 63], [78, 80], [86, 88], [131, 129], [98, 98], [84, 60], [104, 72], [171, 118], [108, 74], [56, 37], [108, 72], [40, 28], [98, 72], [102, 76], [126, 135], [89, 122], [41, 53], [63, 102], [30, 49], [54, 118], [18, 42], [15, 62], [18, 83], [235, 458], [150, 208], [206, 283], [667, 881], [333, 392], [443, 19], [35, 242], [67, 52], [139, 109], [62, 47], [41, 32], [101, 0], [118, 0], [388, -2], [4, 418], [0, 37], [66, 0], [479, -1], [275, 0], [53, 15], [44, 15], [0, 106], [2, 284], [0, 34], [41, 0], [3625, -9], [-2, -212], [-1, -239], [18, -2], [1578, -5], [2220, -19], [1560, 10], [105, 19], [177, 50], [55, 15], [255, 85], [-162, 255], [62, 21], [23, 8], [186, 98], [631, 326], [29, 15], [354, 271], [153, 117], [51, 39], [0, 0], [7, 6], [98, 75], [212, -68], [3, 0], [206, 111], [496, 238], [632, 277], [1524, -232], [297, -54], [113, -29], [108, -34], [56, -18], [15, -4], [18, -7], [113, -41], [58, -25]], [[22664, 45640], [105, -143], [8, -50], [18, -154], [14, -127], [-85, -533], [-148, -248], [-173, -186], [-146, -165], [-64, -95], [10, -191], [9, -88], [73, -177], [38, -347], [-60, -125], [-161, -289], [-31, -23], [-89, -70], [-210, -148], [-406, -258], [-151, -21], [-232, -69], [-120, -95], [-102, -127], [84, -96], [160, -110], [110, -95], [1, -6], [46, -151], [-7, -314], [34, -390], [115, -104], [97, -46], [34, -18], [305, -156], [226, -191], [233, -140], [239, -97], [122, -47], [74, 31], [197, 94], [119, 97], [195, 106], [126, -30], [623, -195], [246, -95], [100, -25], [71, 164], [44, 49], [146, 82], [351, 151], [24, 10], [88, 19], [85, 12], [179, -16], [129, -21], [254, -173], [275, -418], [218, -351], [299, -217], [476, 95], [31, 5], [40, -9], [44, -43], [96, -159], [26, -86], [2, -39], [0, -62], [11, -87], [11, 1], [118, 25], [56, 12], [24, 6], [79, 22], [60, 20], [133, 82], [164, 106], [38, 25], [91, 75], [-78, 61], [122, 258], [388, 206], [144, 41], [80, 7], [119, 9], [585, 1], [109, -4], [66, -7], [51, -4], [1066, -224], [351, -113], [352, -129], [53, -23], [195, -76], [98, -33], [205, -67], [62, -15], [-106, -171], [-124, -66], [-53, -28], [-592, -92], [-713, -154], [-151, -90], [-37, -28], [-49, -102], [9, -13], [287, -354], [38, -15], [111, -78], [149, -213], [26, -38], [49, -87], [29, -56], [31, -70], [146, -522], [-31, -47], [-142, -188], [-195, -213], [-607, -233], [-641, 51], [-518, 202], [-13, -38], [-23, -85], [-26, -126], [-120, -153], [-20, -26], [-26, -32], [-76, -42], [-215, 13], [-338, -50], [-477, -172], [-282, -139], [-124, 33], [-270, 54], [-15, 3], [-630, 74], [-272, 2], [-550, 218], [-472, 199], [-7, 2], [-79, 34], [-24, 7], [-78, 20], [-106, 2], [-25, 0], [-184, -14], [-111, -15], [-108, -13], [-138, -12], [-237, 77], [-359, -263], [-42, -31], [-501, -577], [-39, -62], [-506, -462], [-133, 0], [-124, -367], [-55, -163], [-56, -322], [-113, -580], [-28, -136], [-45, -147], [-97, -204], [-113, -236], [-42, -118], [-93, -311], [-23, -7], [-392, 25], [-164, 38], [-973, 223], [-276, 108], [-156, 61], [-467, 185], [-117, 41], [-872, 306], [-963, 174], [-366, 14], [-343, 13], [-402, 15], [-445, 15], [-273, 54], [-225, 45], [-371, 72], [-1606, 104], [-623, 33], [-438, 127], [-145, 41], [-915, 18], [-2601, 17], [-1305, 0], [-353, 55], [-192, -152], [-552, 211], [-7, 90], [-4, 91], [2, 590], [4, 350], [20, 227], [113, 432], [129, 209], [79, 114], [72, 81], [64, 47], [77, 55], [18, 14], [71, 61], [29, 25], [201, 201], [32, 39], [75, 124], [99, 211], [29, 65], [200, 597], [747, 1169], [226, 346], [75, 91], [68, 64], [41, 32], [33, 29], [68, 56], [31, 41], [62, 82], [155, 371], [9, 25], [29, 105], [-27, 355], [0, 146], [523, 62], [113, 14], [306, 6], [543, 28], [328, 341], [60, 171], [60, 137], [17, 35], [3, 5], [86, 120], [667, 652], [180, 152], [305, 188], [191, 333], [86, 236], [-6, 61], [-5, 126], [107, 302], [315, 107], [57, -5], [149, -18], [378, 119], [56, 44], [142, 214], [31, 58], [-11, 257], [42, 155], [252, -95], [40, -16], [24, -4], [165, 17], [11, 10], [20, 25], [2, 5], [0, 6], [-13, 22], [-14, 12], [-15, 10], [-7, 4], [13, 21], [5, 8], [13, 16], [73, 83], [111, 67], [426, 176], [339, 62], [19, -18], [14, -1], [1046, 73], [195, 106], [57, 34], [47, 92], [7, 10], [19, 36], [34, 68], [71, 129], [82, 37], [150, 10], [492, -18], [596, -50], [162, 11], [200, 24], [72, 36], [247, 120], [126, 63], [184, 315], [-33, 93], [-25, 71], [2, 5], [65, 310], [59, 112], [227, -44], [121, -93], [186, -55], [129, -27], [377, -17], [166, -68], [263, -137], [220, -178], [816, -22], [354, -38], [474, -123], [341, -118], [180, -79], [97, -67]], [[24067, 97308], [157, -48], [51, 5], [182, 24], [93, 59], [281, -2], [182, -81], [67, -33], [55, -42], [175, -134], [331, -203], [731, -148], [378, -14], [360, 55], [358, -4], [878, -18], [386, -205], [221, -154], [69, -46], [9, -6], [443, 28], [201, 44], [287, 89], [394, 14], [111, -126], [57, -36], [116, -71], [649, -90], [250, 40], [75, 11], [169, -91], [476, -572], [151, -196], [113, 7], [319, 86], [157, 50], [140, 40], [428, 102], [44, -38], [40, -98], [257, -53], [162, -17], [891, -191], [399, -142], [-9, -19], [-34, -172], [73, -65], [300, -97], [29, -35], [55, -64], [379, -617], [18, -392], [341, -886], [28, -11], [140, -55], [171, -31], [705, -37], [236, 84], [56, 45], [44, 21], [87, 35], [60, 21], [571, 40], [198, -51], [113, -43], [48, -18], [120, -79], [122, -31], [20, -4], [319, 29], [102, 13], [164, 20], [235, 61], [84, 35], [2, 1], [266, 160], [75, 49], [73, 68], [27, 126], [2, 18], [2, 4], [300, 210], [414, -21], [91, -7], [1662, -197], [184, -85], [19, -58], [337, -21], [430, -6], [191, 62], [79, 26], [200, -94], [151, -186], [15, -23], [180, -308], [40, -80], [-40, -65], [-16, -72], [40, -59], [9, -4], [2, 0], [2, -1], [313, -111], [150, -24], [282, -36], [288, -18], [317, 44], [80, 32], [223, 91], [390, 11], [306, -74], [539, -135], [264, -179], [729, -54], [110, 10], [2, 0], [754, -148], [133, -43], [86, -35], [16, -6], [106, -50], [220, -106], [252, -131], [149, -79], [91, -75], [206, -97], [616, -126], [130, -13], [162, -1], [91, -4], [678, -447], [71, -54], [64, -54], [-7, -600], [-153, -168], [-221, -20], [-4, 0], [39, -555], [14, -20], [155, -35], [51, -50], [6, -5], [260, -311], [-275, -46], [-168, -211], [46, -90], [49, -126], [2, -10], [-547, -129], [-36, -3], [-97, -1], [-475, -236], [215, -313], [164, -153], [216, -229], [46, -76], [97, -650], [-2, -62], [-18, -51], [-113, -75], [-8, -6], [-355, -141], [-283, -68], [0, 0], [308, -114], [305, -120], [-82, -421], [-170, -322], [-62, -47], [-129, -99], [0, 0], [-326, -76], [-6, -2], [-36, -90], [47, -43], [264, -232], [143, -77], [54, -122], [-9, -99], [57, -165], [98, -262], [525, -146], [211, -58], [450, 445], [440, 407], [796, 610], [4, 0], [49, -4], [11, -1], [18, -6], [235, -68], [290, -57], [182, 6], [470, 169], [48, 99], [-2, 11], [206, 138], [505, 173], [93, -20], [118, -26], [47, -14], [241, -78], [-4, -8], [-16, -31], [11, -150], [399, -9], [149, -251], [123, -236], [329, -541], [263, -303], [24, -17], [435, -152], [20, 0], [13, 8], [5, 2], [57, 55], [124, 223], [40, 110], [104, 128], [175, 108], [1217, 287], [372, 8], [804, -151], [67, -46], [11, -15], [9, -15], [58, -72], [254, -70], [258, 49], [84, 61], [44, 40], [144, 79], [206, 17], [372, -165], [200, -153], [84, -127], [-5, -57], [21, -18], [323, -170], [40, -20], [-284, -152], [-370, -453], [-2, -10], [-2, -78], [-3, -151], [12, -85], [6, -1], [7, -2], [445, -117], [54, -13], [163, 13], [242, -14], [97, -14], [391, -251], [826, -96], [658, 75], [3, 1], [237, 125], [655, 39], [280, -28], [2, -4], [89, -194], [0, -83], [341, 4], [408, 144], [279, 190], [142, 33], [352, 0], [182, -131], [144, -116], [46, -23], [528, 83], [119, 39], [352, 144], [349, -57], [283, -52], [361, -106], [3, -1], [232, -89], [244, -151], [177, -200], [200, -144], [141, -71], [213, 66], [455, 143], [146, 161], [19, 99], [5, 36], [-64, 72], [-36, 38], [297, 385], [198, 160], [277, -25], [143, -26], [180, 4], [366, 52], [106, -234], [51, -56], [135, -76], [189, -69], [135, -46], [250, -4], [109, -3], [4, -1], [439, -325], [15, -56], [118, -73], [498, -301], [133, -63], [311, 127], [132, 52], [73, 17], [375, 8], [1139, -104], [762, -84], [441, -61], [359, -111], [266, -85], [175, -56], [275, -52], [144, -28], [375, 15], [9, 13], [272, 352], [84, 158], [75, 201], [366, 191], [31, 16], [87, 47], [150, 214], [158, 228], [106, 295], [-162, 140], [-7, 4], [-104, 52], [-119, 166], [6, 2], [309, 64], [339, 102], [-187, 375], [-18, 15], [475, 46], [212, -4], [552, 32], [450, 26], [86, 26], [65, 36], [252, 154], [3, 5], [106, 98], [190, 140], [240, 138], [806, 313], [410, 113], [3, 1], [243, 46], [503, -42], [248, 15], [178, -163], [88, -85], [60, -68], [319, -162], [209, -3], [654, 79], [859, 57], [1119, -305], [896, -347], [491, -262], [173, -161], [178, -79], [181, -41], [235, 52], [392, -95], [895, -154], [461, -51], [344, -419], [193, -275], [35, -48], [2, -2], [280, -140], [26, -14], [182, 2], [31, 1], [199, 15], [448, 6], [204, -22], [226, -39], [7, -4], [-109, -192], [-36, -129], [-6, -110], [40, -216], [-33, -178], [-195, -104], [-100, -204], [2, -1], [490, -247], [53, -158], [77, -282], [165, -175], [496, -143], [383, -102], [69, -35], [140, -161], [46, -307], [-20, -81], [-46, -252], [2, -1], [137, -100], [153, -42], [295, -180], [155, -96], [-47, -416], [-55, -110], [191, -255], [241, -211], [246, -186], [370, -323], [-640, -284], [-220, -71], [-585, -629], [-407, -1115], [26, -147], [149, -247], [108, -129], [-315, -132], [-1805, 1], [-182, 2], [-443, 11], [-406, 29], [-120, 37], [-59, 18], [-541, 182], [-42, 17], [-42, 9], [-348, 70], [-558, -124], [-3, -1], [-388, 73], [-190, 49], [-536, -22], [-40, -13], [-122, -125], [-250, -260], [6, -49], [0, 0], [0, -3], [0, -1], [-11, -13], [-24, -15], [-519, -323], [-261, -131], [-20, -4], [-202, -36], [-44, -86], [-20, -61], [-25, -80], [29, -259], [206, -306], [109, -51], [124, -216], [89, -277], [2, -186], [-11, -4], [-20, -7], [-167, -56], [-212, -273], [95, -216], [87, -161], [48, -86], [-37, -81], [-7, -17], [-98, -145], [-133, -189], [-75, -25], [-476, -134], [-330, -46], [-195, -52], [-211, -208], [-509, -201], [-289, -3], [-305, -43], [-1, -2], [-99, -188], [-116, -286], [32, -126], [24, -103], [-75, -130], [-514, -548], [-29, -22], [-173, -129], [0, 0], [-9, 4], [-162, 65], [-241, 44], [-91, -8], [-146, -53], [-847, -206], [-388, -57], [-55, -27], [-494, -273], [-184, -194], [-224, -501], [-117, -137], [-503, -75], [-384, -221], [-2, -6], [-37, -112], [-1, -1], [-121, -39], [-428, -88], [-113, -19], [-169, -4], [-161, -6], [-167, -8], [-79, -8], [-98, -71], [-201, -146], [-142, -76], [-649, -90], [-5, 4], [-140, 122], [-292, 100], [-166, 15], [-670, -40], [-188, -17], [-7, -1], [-192, -57], [-306, 354], [-22, 50], [-49, 62], [-385, 161], [-85, 35], [-851, 309], [-660, 339], [-67, 7], [-370, 16], [-726, 138], [-129, 48], [-217, 207], [-246, 210], [-241, 49], [-184, 17], [-916, -429], [-166, -101], [-181, -157], [-7, -5], [-523, -478], [-184, -201], [-503, 142], [-118, 37], [11, 10], [277, 275], [165, 237], [13, 345], [-34, 96], [-217, 65], [-30, 134], [31, 115], [50, 73], [7, 10], [-11, 103], [-7, 41], [-4, 20], [-866, 688], [-211, 141], [-104, 31], [-40, -264], [-38, -216], [-110, -477], [-69, -49], [-639, -329], [-254, -51], [-113, -20], [-432, -197], [28, -40], [18, -55], [-150, -199], [-306, -183], [-545, -178], [-269, -40], [-30, 9], [-408, 72], [-36, -6], [-104, -36], [-279, -126], [-9, -6], [-100, -90], [-157, -143], [-9, -10], [-6, -6], [181, -203], [313, -161], [345, -110], [126, -197], [202, -367], [16, -246], [-229, -147], [-263, -171], [22, -127], [16, -96], [-377, -355], [-202, -138], [-162, -32], [-254, -22], [-3, 4], [-75, 84], [-862, 198], [-200, 24], [-208, 16], [-51, -37], [-173, -318], [-212, -620], [-3, -176], [-276, -270], [-421, -505], [-58, -93], [-29, -22], [-233, -133], [-146, -54], [-97, -10], [0, 0], [-11, -4], [-167, -182], [-104, -220], [-55, -127], [78, -312], [84, -232], [8, -12], [87, -162], [31, -57], [62, -182], [-20, -136], [-5, -26], [-99, -421], [-282, -384], [-296, -265], [-162, -118], [-78, -43], [-46, -17], [-104, -37], [-56, -21], [-191, -150], [-106, -97], [-68, -160], [148, -87], [231, -358], [185, -314], [32, -91], [15, -43], [-55, -268], [-43, -197], [-66, -111], [-268, -382], [-51, -55], [-253, -260], [-79, -80], [-43, -26], [-51, -32], [-126, -39], [7, -7], [255, -276], [-242, -45], [-1416, -188], [-1168, 45], [-91, -52], [-390, -165], [-600, 15], [-846, -13], [-342, -86], [-168, -70], [-215, -209], [-18, -18], [-230, -55], [-647, -29], [0, 0], [-448, -4], [-295, -2], [-296, -68], [-202, -52], [-133, -128], [-379, -106], [-126, 46], [-246, 104], [-87, 59], [-274, 102], [-413, 128], [-66, 10], [-273, -34], [-277, 17], [-115, 15], [-270, 325], [-359, 332], [-65, 226], [-265, 144], [-165, 87], [-549, 209], [-499, 177], [-190, 32], [-240, 43], [-329, 203], [-364, 102], [-11, 9], [-222, 152], [64, 111], [9, 16], [-28, 119], [-65, 146], [7, 635], [239, 717], [18, 50], [310, 249], [244, 220], [364, 486], [33, 86], [-84, 132], [-25, 134], [169, 284], [122, 187], [79, 232], [-24, 355], [-14, 48], [-24, 61], [-58, 70], [-15, 64], [-57, 312], [15, 75], [13, 27], [209, 39], [133, 118], [281, 353], [151, 446], [-200, 114], [-432, 164], [-86, 186], [11, 198], [70, 114], [205, 154], [215, 253], [-14, 112], [-4, 25], [-7, 50], [-188, 121], [-333, 173], [-439, 192], [-135, 45], [-130, -187], [-125, -159], [-92, -42], [-209, -58], [-204, -30], [-542, -23], [-699, 33], [-984, -83], [-955, -125], [-642, -37], [-424, -63], [-55, -40], [-46, -81], [-74, -302], [-39, -221], [48, -220], [113, -256], [-571, -563], [-401, -4], [-204, 8], [-758, 110], [-399, 415], [-241, 173], [-568, -164], [-18, -33], [-31, -112], [3, -54], [-200, -199], [-294, -147], [-73, -15], [-134, -8], [-108, 4], [-5, 0], [-472, -200], [-68, -63], [-62, -61], [-62, -63], [-109, -71], [-239, -114], [-106, -35], [-18, -5], [-56, 66], [-26, 75], [-5, 382], [-394, 522], [-209, 266], [-323, 289], [-4, 133], [6, 154], [262, 746], [268, 492], [226, 409], [38, 125], [146, 541], [-264, 978], [-4, 4], [-60, 74], [-18, 23], [-253, 211], [-152, 59], [-54, 0], [-133, -2], [-91, 17], [-41, 33], [-32, 35], [-31, 114], [9, 97], [16, 18], [197, 132], [111, 163], [57, 182], [52, 792], [-282, 157], [-151, 51], [-2, 143], [45, 206], [22, 18], [99, 86], [2, 3], [1, 7], [44, 195], [-47, 113], [-17, 37], [-107, 118], [-197, 169], [-71, 50], [-368, 103], [-99, -68], [-67, -11], [-122, -7], [-567, 295], [-749, 1074], [-399, 224], [2, 165], [85, 108], [181, 190], [7, 7], [86, 75], [149, 133], [279, 444], [-275, 143], [-108, 11], [-104, 10], [-178, -4], [-120, 18], [-30, 18], [-31, 32], [84, 293], [172, 340], [-113, 521], [-93, 330], [-345, 335], [-397, 66], [-286, 42], [-55, 90], [-158, 383], [-141, 264], [-156, 162], [0, 0], [-4, 3], [64, 87], [308, 277], [424, 319], [77, 12], [0, 0], [231, -111], [60, -30], [33, -14], [122, -52], [181, -48], [31, 0], [339, 15], [200, 29], [170, 46], [184, 247], [53, 114], [52, 111], [-1, 255], [-11, 119], [-17, 143], [40, 121], [30, 78], [109, 166], [372, 354], [-61, 31], [-91, 44], [-375, 49], [-416, 1], [-313, -10], [-200, -33], [-17, 89], [-2, 132], [-16, 88], [-139, 111], [-530, 436], [-616, 654], [-129, 131], [-396, 383], [-249, 238], [-133, 113], [0, 0], [-17, 6], [-481, 165], [-44, 14], [-452, 137], [-466, 61], [-410, 202], [-26, 25], [-129, 124], [-190, 70], [-293, 90], [-168, -67], [-91, -31], [-60, -13], [-326, -35], [-204, 9], [-398, -95], [-42, -80], [-3, -11], [-35, -128], [-44, -205], [-5, -9], [-4, -9], [-182, -322], [-157, -272], [-36, -28], [-6, -1], [-246, -56], [-220, -268], [-161, -216], [-123, -115], [-358, -240], [-317, -67], [-443, -29], [0, 0], [-151, 97], [-58, 71], [-15, 168], [20, 182], [19, 191], [-22, 65], [-534, 770], [-440, -4], [-185, 68], [-130, 124], [-62, 59], [-91, 167], [-124, 237], [95, 404], [11, 51], [51, 311], [-151, 407], [-203, 407], [-103, 88], [-378, 143], [-286, 134], [-34, 121], [85, 103], [79, 72], [71, 104], [69, 218], [-2, 87], [-42, 67], [-747, 554], [-190, 38], [-184, 16], [-248, -99], [-18, -11], [-76, -24], [-70, 21], [-41, 15], [-181, 71], [0, 99], [38, 61], [135, 69], [157, 71], [93, 26], [80, 29], [71, 41], [439, 320], [86, 79], [9, 9], [4, 7], [45, 94], [-7, 87], [-18, 49], [-126, 221], [-122, -21], [-11, 8], [-31, 14], [-250, 61], [-586, 86], [-203, 11], [-392, -194], [-98, -108], [2, -127], [-760, -341], [-109, 0], [-210, -1], [-317, 47], [-4, 4], [-54, 43], [-73, 60], [-150, -59], [-526, -244], [-299, -195], [-161, -55], [-220, 50], [-294, -52], [-854, -270], [-84, -136], [-80, -48], [-337, -174], [-155, -23], [-635, -90], [-76, 4], [-113, 7], [-44, 23], [-67, 35], [-73, -7], [-120, -21], [-443, -329], [-88, -68], [-344, 299], [-221, 311], [-40, 159], [6, 182], [20, 262], [-119, 132], [-25, 25], [-71, 68], [-370, 440], [-40, 226], [-6, 12], [-13, 25], [-43, 78], [-290, 138], [-408, 135], [-505, 37], [-4, -2], [-100, -54], [-252, -3], [-21, 9], [-279, 108], [-90, 171], [48, 295], [-348, 333], [-731, 430], [-35, 257], [-3, 32], [0, 0], [65, 175], [15, 26], [168, 321], [251, 49], [-15, 184], [-5, 55], [-153, 233], [-374, 136], [-96, 56], [-42, 43], [-44, 72], [-2, 3], [463, 68], [212, 131], [129, 81], [179, 298], [-97, 314], [-53, 287], [4, 25], [71, 182], [260, 291], [254, 164], [320, 240], [99, 85], [44, 184], [-13, 108], [-188, 178], [-244, 158], [-468, 239], [-416, 71], [-138, 34], [-842, 332], [-59, 26], [-379, 390], [-175, 197], [-7, 11], [40, 46], [91, 100], [439, 326], [61, 93], [-31, 68], [-95, 64], [-31, 90], [-40, 114], [240, 330], [432, 368], [228, 77], [375, -16], [154, -63], [3, -1], [1314, 29], [372, 235], [350, 283], [0, 2], [3, 53], [2, 63], [2, 27], [2, 53], [4, 44], [1, 2], [8, 4], [25, 17], [88, 50], [147, 65], [221, 43], [138, -45], [53, -26], [97, -104], [208, -15], [216, 108], [6, 8], [69, 110], [22, 706], [-6, 113], [-38, 208], [-84, 61], [-56, 34], [104, 89], [33, 18], [255, 132], [328, 29], [144, 70], [109, 54], [315, 213], [219, 329], [133, 267], [837, 625], [408, 6], [286, -49], [0, 0], [-2, -30], [-7, -68], [11, -108], [56, -53], [1249, -312], [581, -88], [319, -29], [188, -18], [444, -123], [57, -66], [362, -462], [19, -389], [-4, -87], [-26, -131], [-12, -77], [98, -41], [62, -27], [642, -84], [82, -3], [156, -4], [42, 0], [319, -176], [485, -267]]]}