{"type": "Topology", "transform": {"scale": [4.934641861268574e-06, 3.962429682619586e-06], "translate": [128.97119034737432, 35.32810671977465]}, "objects": {"collection": {"type": "GeometryCollection", "geometries": [{"type": "MultiPolygon", "arcs": [[[0]]], "properties": {"name": "\uc911\uad6c", "base_year": "2018", "name_eng": "Jung-gu", "code": "26010"}}, {"type": "MultiPolygon", "arcs": [[[1]]], "properties": {"name": "\ub0a8\uad6c", "base_year": "2018", "name_eng": "Nam-gu", "code": "26020"}}, {"type": "MultiPolygon", "arcs": [[[2]], [[3]]], "properties": {"name": "\ub3d9\uad6c", "base_year": "2018", "name_eng": "Dong-gu", "code": "26030"}}, {"type": "MultiPolygon", "arcs": [[[4]]], "properties": {"name": "\ubd81\uad6c", "base_year": "2018", "name_eng": "Buk-gu", "code": "26040"}}, {"type": "MultiPolygon", "arcs": [[[5]], [[6]]], "properties": {"name": "\uc6b8\uc8fc\uad70", "base_year": "2018", "name_eng": "Ulju-gun", "code": "26310"}}]}}, "arcs": [[[73539, 67064], [2910, 363], [1062, -8236], [-749, -3313], [-8823, 848], [-2145, -2013], [-5165, 2187], [-2328, 2009], [-1248, 7250], [8473, -3565], [-829, 4321], [3877, -1066], [4350, 2545], [473, -1262], [142, -68]], [[59831, 57528], [5963, -2815], [2145, 2013], [8087, -803], [6140, -2954], [-853, -3629], [522, -1526], [2191, -291], [319, -3668], [-4904, 580], [890, -1578], [2376, 492], [2388, -5427], [-136, 1954], [-959, -318], [-2204, -5672], [-2392, -499], [1148, -1556], [-2872, 1251], [-5590, 7576], [-5274, 1486], [-5394, 8608], [-7649, 1758], [5927, 5197], [131, -179]], [[86898, 34922], [974, 405], [-974, -405]], [[97853, 60911], [928, -2933], [-1039, -7511], [-2992, 128], [84, -2206], [2184, 1254], [-456, -4001], [-2937, 578], [-238, -1487], [2302, 130], [-2500, -2527], [2816, -945], [-2767, -3504], [-1236, 1711], [-3854, -3272], [460, 5353], [-2570, 2016], [259, 2764], [-1906, 3835], [4204, -2864], [404, 2023], [-1856, 1349], [2453, 7419], [8257, 2690], [0, 0]], [[79042, 88507], [2314, -2418], [5530, -420], [10101, -4163], [-1658, -1616], [-29, -3619], [4471, -6530], [229, -4557], [-2238, -1518], [-142, -2215], [-6657, -1980], [-2527, -3216], [-1293, -5453], [1856, -1349], [-404, -2023], [-6854, 5926], [-5357, 2453], [1127, 3382], [-1062, 8236], [-4957, 848], [-2918, -2426], [-3877, 1066], [1972, 5303], [-1251, 1601], [456, 6090], [1625, 3095], [4772, 462], [1270, 2757], [5363, 2303], [138, -19]], [[82299, 24845], [735, 4717], [-730, -4717], [-5, 0]], [[38158, 97857], [3439, -51], [980, 2052], [3399, -2340], [1832, 1743], [5452, -4428], [4629, -801], [1163, -2416], [-1436, -7741], [8467, -4512], [-665, -5544], [1251, -1601], [-1997, -5032], [854, -4592], [-8473, 3565], [1248, -7250], [1368, -1167], [-5896, -5232], [7649, -1758], [5394, -8608], [1333, 521], [5735, -3699], [2860, -8649], [2005, -82], [-924, -2435], [3751, 2223], [-1468, -2529], [1448, -1467], [-4224, -1065], [2314, -557], [-61, -2433], [-1552, -471], [1287, -1714], [-1751, -1025], [309, -2157], [-1798, -1013], [-411, -2974], [3248, -3437], [-118, -2038], [-3035, -1162], [-1972, 1054], [-5589, -7035], [-5393, 3146], [222, 6247], [-3386, 5506], [-9522, -2066], [-3519, 2227], [3628, 5023], [-3833, 4155], [-644, 3720], [-6350, -1708], [-8892, 7905], [-2724, 4449], [-619, 3885], [-10667, 4544], [647, 4491], [-9108, -2285], [-665, 1488], [-2637, -247], [887, 2996], [-1948, 2928], [-1708, -1320], [-1622, 2445], [-350, 1070], [4990, 1914], [5459, 5900], [54, 5597], [-3881, 2086], [3453, 3376], [3255, -662], [2013, 4557], [6880, -1833], [-2626, 3923], [-150, 3167], [2697, 6197], [11412, 4280], [1068, 2899], [3515, -2105], [19, -38]]]}