{"type": "Topology", "transform": {"scale": [1.643001249487256e-05, 1.3749286916224435e-05], "translate": [127.57607074605717, 34.53467694665487]}, "objects": {"collection": {"type": "GeometryCollection", "geometries": [{"type": "MultiPolygon", "arcs": [[[0]]], "properties": {"name": "\uc9c4\uc8fc\uc2dc", "base_year": "2018", "name_eng": "Jinju-si", "code": "38030"}}, {"type": "MultiPolygon", "arcs": [[[1]], [[2]], [[3]], [[4]], [[5]], [[6]], [[7]], [[8]], [[9]], [[10]], [[11]], [[12]], [[13]], [[14]], [[15]], [[16]], [[17]], [[18]], [[19]], [[20]], [[21]], [[22]], [[23]], [[24]], [[25]], [[26]], [[27]], [[28]], [[29]], [[30]], [[31]], [[32]], [[33]], [[34]], [[35]], [[36]], [[37]], [[38]], [[39]], [[40]], [[41]], [[42]], [[43]], [[44]], [[45]], [[46]], [[47]], [[48]], [[49]], [[50]], [[51]], [[52]], [[53]], [[54]], [[55]], [[56]], [[57]], [[58]], [[59]], [[60]], [[61]], [[62]], [[63]], [[64]], [[65]], [[66]], [[67]], [[68]], [[69]], [[70]], [[71]], [[72]], [[73]], [[74]], [[75]], [[76]], [[77]], [[78]], [[79]], [[80]], [[81]], [[82]], [[83]], [[84]]], "properties": {"name": "\ud1b5\uc601\uc2dc", "base_year": "2018", "name_eng": "Tongyeong-si", "code": "38050"}}, {"type": "MultiPolygon", "arcs": [[[85]], [[86]], [[87]], [[88]], [[89]], [[90]], [[91]], [[92]], [[93]], [[94]], [[95]], [[96]], [[97]], [[98]], [[99]], [[100]], [[101]], [[102]]], "properties": {"name": "\uc0ac\ucc9c\uc2dc", "base_year": "2018", "name_eng": "Sacheon-si", "code": "38060"}}, {"type": "MultiPolygon", "arcs": [[[103]]], "properties": {"name": "\uae40\ud574\uc2dc", "base_year": "2018", "name_eng": "Gimhae-si", "code": "38070"}}, {"type": "MultiPolygon", "arcs": [[[104]]], "properties": {"name": "\ubc00\uc591\uc2dc", "base_year": "2018", "name_eng": "Miryang-si", "code": "38080"}}, {"type": "MultiPolygon", "arcs": [[[105]], [[106]], [[107]], [[108]], [[109]], [[110]], [[111]], [[112]], [[113]], [[114]], [[115]], [[116]], [[117]], [[118]], [[119]], [[120]], [[121]], [[122]], [[123]], [[124]], [[125]], [[126]], [[127]], [[128]]], "properties": {"name": "\uac70\uc81c\uc2dc", "base_year": "2018", "name_eng": "Geoje-si", "code": "38090"}}, {"type": "MultiPolygon", "arcs": [[[129]]], "properties": {"name": "\uc591\uc0b0\uc2dc", "base_year": "2018", "name_eng": "Yangsan-si", "code": "38100"}}, {"type": "MultiPolygon", "arcs": [[[130]]], "properties": {"name": "\ucc3d\uc6d0\uc2dc\uc758\ucc3d\uad6c", "base_year": "2018", "name_eng": "Uichanggu", "code": "38111"}}, {"type": "MultiPolygon", "arcs": [[[131]]], "properties": {"name": "\ucc3d\uc6d0\uc2dc\uc131\uc0b0\uad6c", "base_year": "2018", "name_eng": "Seongsangu", "code": "38112"}}, {"type": "MultiPolygon", "arcs": [[[132]], [[133]], [[134]], [[135]], [[136]], [[137]], [[138]], [[139]], [[140]], [[141]], [[142]], [[143]], [[144]], [[145]], [[146]], [[147]]], "properties": {"name": "\ucc3d\uc6d0\uc2dc\ub9c8\uc0b0\ud569\ud3ec\uad6c", "base_year": "2018", "name_eng": "Masanhappogu", "code": "38113"}}, {"type": "MultiPolygon", "arcs": [[[148]]], "properties": {"name": "\ucc3d\uc6d0\uc2dc\ub9c8\uc0b0\ud68c\uc6d0\uad6c", "base_year": "2018", "name_eng": "Masanhoewongu", "code": "38114"}}, {"type": "MultiPolygon", "arcs": [[[149]], [[150]], [[151]], [[152]], [[153]], [[154]], [[155]], [[156]], [[157]], [[158]], [[159]]], "properties": {"name": "\ucc3d\uc6d0\uc2dc\uc9c4\ud574\uad6c", "base_year": "2018", "name_eng": "Jinhaegu", "code": "38115"}}, {"type": "MultiPolygon", "arcs": [[[160]]], "properties": {"name": "\uc758\ub839\uad70", "base_year": "2018", "name_eng": "Uiryeong-gun", "code": "38310"}}, {"type": "MultiPolygon", "arcs": [[[161]]], "properties": {"name": "\ud568\uc548\uad70", "base_year": "2018", "name_eng": "Haman-gun", "code": "38320"}}, {"type": "MultiPolygon", "arcs": [[[162]]], "properties": {"name": "\ucc3d\ub155\uad70", "base_year": "2018", "name_eng": "Changnyeong-gun", "code": "38330"}}, {"type": "MultiPolygon", "arcs": [[[163]], [[164]], [[165]], [[166]], [[167]], [[168]], [[169]], [[170]], [[171]], [[172]], [[173]], [[174]], [[175]]], "properties": {"name": "\uace0\uc131\uad70", "base_year": "2018", "name_eng": "Goseong-gun", "code": "38340"}}, {"type": "MultiPolygon", "arcs": [[[176]], [[177]], [[178]], [[179]], [[180]], [[181]], [[182]], [[183]], [[184]], [[185]], [[186]], [[187]], [[188]], [[189]], [[190]], [[191]], [[192]], [[193]], [[194]], [[195]], [[196]]], "properties": {"name": "\ub0a8\ud574\uad70", "base_year": "2018", "name_eng": "Namhae-gun", "code": "38350"}}, {"type": "MultiPolygon", "arcs": [[[197]], [[198]], [[199]], [[200]], [[201]], [[202]], [[203]], [[204]], [[205]], [[206]], [[207]], [[208]]], "properties": {"name": "\ud558\ub3d9\uad70", "base_year": "2018", "name_eng": "Hadong-gun", "code": "38360"}}, {"type": "MultiPolygon", "arcs": [[[209]]], "properties": {"name": "\uc0b0\uccad\uad70", "base_year": "2018", "name_eng": "Sancheong-gun", "code": "38370"}}, {"type": "MultiPolygon", "arcs": [[[210]]], "properties": {"name": "\ud568\uc591\uad70", "base_year": "2018", "name_eng": "Hamyang-gun", "code": "38380"}}, {"type": "MultiPolygon", "arcs": [[[211]]], "properties": {"name": "\uac70\ucc3d\uad70", "base_year": "2018", "name_eng": "Geochang-gun", "code": "38390"}}, {"type": "MultiPolygon", "arcs": [[[212]]], "properties": {"name": "\ud569\ucc9c\uad70", "base_year": "2018", "name_eng": "Hapcheon-gun", "code": "38400"}}]}}, "arcs": [[[35333, 59273], [1355, -2065], [-379, -527], [109, -1546], [1297, -1972], [-113, -667], [464, -204], [628, 845], [1608, -845], [3368, -15], [308, -259], [-296, -661], [768, -520], [64, -883], [747, -59], [547, -1005], [1733, -9], [671, -1127], [-587, -3227], [296, -424], [-921, -1016], [-1229, -225], [-728, 405], [-595, -334], [-1985, 543], [-1611, -300], [-1190, -1046], [-980, 52], [-1454, -1839], [196, -926], [1219, -245], [-1622, -1625], [-724, 75], [-1439, 1686], [1250, 631], [166, 837], [-1623, 1444], [-1639, -62], [-1641, -967], [-195, 1274], [-2293, 940], [-462, -786], [-908, 161], [-1552, -627], [-247, 2991], [-1814, 240], [-326, -448], [-327, 374], [-1181, -368], [-48, 1097], [-2616, 2130], [-304, 2223], [1190, -255], [117, 1182], [584, 877], [1622, -777], [1169, 354], [412, 1710], [719, 262], [54, 966], [587, -69], [1174, 1247], [1718, 118], [543, 579], [383, 1518], [1331, 253], [2139, -510], [2323, 1511], [170, -85]], [[70317, 357], [100, -357], [-101, 357], [1, 0]], [[52866, 459], [-628, -62], [659, 605], [264, -193], [-294, -347], [-1, -3]], [[46827, 2091], [162, -376], [-335, 16], [164, 366], [9, -6]], [[46856, 2236], [10, 1], [-10, -1]], [[37185, 2758], [93, -681], [-561, -389], [449, 1074], [19, -4]], [[47124, 2844], [1, 1], [-1, -1]], [[45218, 6157], [-165, 323], [594, -264], [-427, -59], [-2, 0]], [[44500, 6319], [63, -454], [-567, 210], [186, 512], [318, -265], [0, -3]], [[59541, 6999], [-260, -918], [-328, 661], [588, 259], [0, -2]], [[54512, 7813], [-402, 95], [385, -49], [17, -46]], [[40225, 8430], [658, 78], [1698, -904], [-648, -353], [592, -703], [590, 1005], [900, 87], [-779, -992], [148, -386], [-804, -102], [-704, 604], [-1517, -1212], [-504, 425], [718, 208], [-463, 607], [148, 498], [-583, -270], [-269, 479], [706, 197], [-454, 605], [561, 130], [6, -1]], [[47329, 8482], [1644, -800], [-234, -402], [-991, 625], [-688, -256], [-322, 679], [532, 172], [59, -18]], [[60204, 7123], [-196, 264], [944, 1059], [470, -523], [-827, -732], [-391, -68]], [[41558, 9204], [-3, 1], [3, -1]], [[60780, 9021], [-63, -390], [53, 395], [10, -5]], [[46566, 9268], [655, -382], [-396, -74], [-265, 458], [6, -2]], [[45074, 9005], [-84, 355], [84, -355], [0, 0]], [[41446, 9531], [-817, 96], [818, -94], [-1, -2]], [[41897, 9529], [213, 44], [-213, -44]], [[44379, 9565], [-139, 330], [200, -279], [-61, -51]], [[42744, 10045], [1, 1], [-1, -1]], [[39352, 10225], [-18, 7], [18, -7]], [[39204, 10612], [-2, 1], [2, -1]], [[41190, 10565], [-58, -726], [-1398, 217], [1457, 510], [-1, -1]], [[42093, 10480], [-22, 17], [22, -17]], [[61267, 10640], [-513, 193], [222, 367], [310, -488], [-19, -72]], [[43290, 11198], [-3, 1], [3, -1]], [[50048, 11598], [-311, 159], [323, -140], [-12, -19]], [[59192, 11757], [-344, 345], [350, -342], [-6, -3]], [[59771, 12421], [-5, 2], [5, -2]], [[36790, 12750], [1281, -520], [50, -836], [-467, -403], [101, 406], [-814, -15], [-885, 740], [530, 721], [204, -93]], [[49780, 12512], [202, 347], [-198, -346], [-4, -1]], [[59979, 12528], [-497, 828], [644, -811], [-147, -17]], [[51808, 13452], [-19, 1057], [20, -1056], [-1, -1]], [[58430, 14462], [-332, -452], [-643, 81], [974, 371], [1, 0]], [[53935, 12293], [-889, 359], [736, 625], [-316, 732], [566, 621], [477, -475], [-670, -781], [408, -724], [-306, -355], [-6, -2]], [[50190, 14873], [327, -708], [-800, 453], [440, 301], [33, -46]], [[49286, 14956], [-12, 2], [12, -2]], [[56152, 15312], [950, -613], [-302, -317], [-457, 438], [-343, -497], [-1848, 698], [1943, 440], [57, -149]], [[50813, 15463], [435, -105], [-842, -289], [-315, 337], [290, 364], [415, -304], [17, -3]], [[50557, 15833], [3, 0], [-3, 0]], [[50137, 16097], [12, -396], [-495, 256], [416, 133], [67, 7]], [[51630, 16097], [-456, -854], [455, 854], [1, 0]], [[58049, 16322], [1, 0], [-1, 0]], [[44231, 16225], [352, -146], [-671, -417], [315, -319], [-686, 272], [-321, 699], [494, 307], [414, -385], [103, -11]], [[49641, 16653], [5, 2], [-5, -2]], [[58049, 16322], [1768, 46], [-316, -455], [426, -228], [-551, -165], [-2281, 809], [-251, 474], [693, 58], [771, -146], [-270, -393], [11, 0]], [[48854, 17715], [28, 2], [-28, -2]], [[53894, 17686], [22, 12], [-22, -12]], [[48266, 18149], [308, -110], [-139, -480], [-979, 117], [790, 604], [20, -131]], [[47732, 18167], [4, 0], [-4, 0]], [[57461, 18717], [-430, 426], [453, -407], [-23, -19]], [[56379, 19436], [514, -107], [-425, -961], [-571, 452], [473, 618], [9, -2]], [[41404, 19682], [0, 1], [0, -1]], [[53565, 20000], [30, 14], [-30, -14]], [[47559, 20286], [10, -7], [-10, 7]], [[56187, 20101], [-507, 142], [510, -139], [-3, -3]], [[47644, 20287], [197, 4], [-197, -4]], [[53758, 20403], [-5, 5], [5, -5]], [[55090, 20438], [-98, -532], [481, 233], [-158, -352], [414, -446], [104, -1325], [708, 149], [323, -496], [-118, -792], [-1071, -671], [-1420, 250], [318, 1093], [-802, 767], [132, 1340], [398, -288], [-120, -971], [427, 1143], [689, -380], [-383, 580], [-564, -88], [-208, 594], [230, 347], [725, -154], [-7, -1]], [[36615, 20670], [5, 3], [-5, -3]], [[47559, 20286], [-669, 333], [744, 105], [-151, -390], [76, -48]], [[34025, 21806], [522, -245], [-103, -418], [-763, 46], [-289, 487], [417, 255], [216, -125]], [[45261, 21756], [2, 4], [-2, -4]], [[35489, 21841], [1, 0], [-1, 0]], [[40282, 22047], [1714, -1662], [-685, -500], [-1011, 213], [433, -704], [-194, -465], [-325, 462], [-790, 13], [20, 476], [-836, -31], [342, 425], [-1009, 384], [80, 472], [786, -297], [-414, 442], [661, 860], [1226, -80], [2, -8]], [[47400, 22123], [77, -514], [1350, -168], [424, -1160], [-77, 1164], [535, -459], [1737, 906], [825, -755], [354, 201], [95, -1782], [-385, -75], [-146, 471], [-145, -487], [547, -555], [-344, -384], [-907, 222], [987, -929], [-695, -649], [-38, -635], [-1056, 30], [71, 397], [-633, -148], [-26, 1034], [-665, -11], [333, 465], [-465, 769], [-523, -592], [-693, 564], [523, 473], [365, -319], [67, 1198], [-1341, 756], [-1363, -538], [-317, 838], [451, -162], [-229, 513], [420, -453], [-134, 1051], [387, -816], [242, 787], [390, -247], [2, -1]], [[47466, 23126], [-2, 1], [2, -1]], [[48257, 22952], [-118, 277], [120, -276], [-2, -1]], [[46734, 23072], [16, 6], [-16, -6]], [[38005, 23633], [1942, -1089], [-1717, -196], [-726, -1088], [-636, 14], [98, 672], [-911, 342], [-51, 764], [1977, 598], [24, -17]], [[47121, 24167], [-375, -208], [363, 215], [12, -7]], [[54299, 23938], [-59, 359], [69, -348], [-10, -11]], [[46146, 24472], [-13, 3], [13, -3]], [[51581, 25817], [11, 493], [-6, -491], [-5, -2]], [[55306, 27636], [5, 0], [-5, 0]], [[54370, 28022], [569, -800], [-544, -308], [-364, 426], [339, 682], [0, 0]], [[45570, 28250], [-389, 25], [391, -19], [-2, -6]], [[45820, 28153], [266, 456], [-157, -422], [-109, -34]], [[52364, 28356], [11, 0], [-11, 0]], [[55448, 28682], [36, 715], [227, -498], [-261, -216], [-2, -1]], [[52240, 29795], [-2, 1], [2, -1]], [[55570, 30620], [-300, -81], [-126, 657], [278, 329], [144, -904], [4, -1]], [[52100, 32126], [716, -576], [-898, -838], [70, -855], [-325, -316], [677, -679], [-460, -230], [15, -1034], [-668, -286], [491, -463], [-452, -888], [175, -1342], [689, 300], [-31, 804], [820, 11], [-405, 328], [764, 716], [-670, 763], [743, 103], [481, -713], [-402, -309], [1312, -770], [-421, -191], [-132, -1188], [-681, 749], [78, -1211], [-587, 55], [325, -1383], [-1130, -138], [391, -313], [-319, -160], [-622, 460], [37, -358], [-1611, -309], [-194, -433], [-732, 442], [268, 516], [-669, -166], [-445, 711], [1151, 930], [1798, -246], [80, 440], [-2056, 197], [327, 395], [-595, -33], [245, 622], [-541, 685], [156, -572], [-611, 147], [336, -1150], [-1118, 118], [85, 662], [-506, 531], [-49, -1047], [-463, 669], [-752, -465], [9, 755], [-705, -469], [-1173, 1516], [668, 588], [2548, -237], [251, 1011], [-518, 153], [280, 154], [-924, -160], [590, 575], [90, 797], [2092, 490], [1189, 1726], [918, -259], [800, 616], [200, 52]], [[30924, 26337], [0, 0], [0, 0]], [[29465, 26700], [-237, -71], [237, 72], [0, -1]], [[30800, 27215], [0, 0], [0, 0]], [[30460, 27186], [337, -733], [-399, -477], [339, -172], [-588, -83], [288, 1003], [-275, 490], [297, -27], [1, -1]], [[28578, 28366], [1, 0], [-1, 0]], [[28062, 27937], [-127, 628], [412, -415], [-283, -213], [-2, 0]], [[27582, 28517], [58, 5], [-58, -5]], [[27704, 29042], [-92, 347], [226, -331], [-134, -16]], [[27608, 29642], [19, 304], [-18, -304], [-1, 0]], [[22685, 31029], [30, 39], [-30, -39]], [[24033, 31206], [-16, 19], [16, -19]], [[23662, 31019], [-23, 24], [23, -24]], [[25673, 32183], [-235, -298], [121, 342], [114, -44]], [[21870, 32332], [-6, 2], [6, -2]], [[23890, 33018], [168, -333], [-330, -165], [462, -92], [419, -854], [362, -150], [61, 448], [449, -302], [-754, -397], [-1231, 609], [343, 1291], [51, -55]], [[27127, 36074], [39, -17], [-39, 17]], [[26135, 36474], [58, 50], [-58, -50]], [[27127, 36074], [-981, 198], [841, 535], [-583, 667], [257, -748], [-1642, 502], [-672, -983], [1218, 343], [-107, -417], [892, -719], [-67, -693], [639, -185], [-222, -1337], [-440, 307], [31, -989], [-156, 427], [-341, -334], [-122, 906], [-161, -840], [-413, 241], [-4, -794], [-345, -76], [-602, 1252], [-502, 135], [-479, -756], [-578, -65], [336, -581], [-1085, 431], [294, 257], [-492, 519], [553, 870], [-1095, 729], [-135, 654], [623, 1880], [-2266, 2729], [534, 77], [-25, 556], [453, 208], [-606, 675], [678, 964], [-1526, 713], [-393, 1105], [379, 334], [814, 472], [1906, -871], [1712, 938], [327, -374], [326, 448], [1814, -240], [247, -2991], [1552, 627], [908, -161], [462, 786], [2293, -940], [195, -1274], [1641, 967], [1639, 62], [1623, -1444], [-166, -837], [-1250, -631], [1439, -1686], [724, -75], [-261, -902], [-1185, -1350], [-156, -1001], [741, -1562], [-1244, 490], [-904, -798], [-120, -1436], [-626, -1600], [-505, -355], [324, -832], [-1105, 199], [-205, -345], [-149, 435], [-758, -683], [291, 667], [-513, 167], [-327, -422], [-1103, 385], [-1591, 2122], [1283, 968], [-748, 1906], [715, 1414], [-449, 618], [-212, -660], [-258, 585], [413, 565], [-164, 1851], [1328, 1626], [-1626, -124], [402, -361], [-526, -226], [137, -481], [-545, -450], [311, -508], [-620, -1349], [61, -26]], [[78115, 62612], [606, -275], [617, -1697], [2009, -305], [2010, -1924], [1350, -632], [795, -2162], [2066, -2098], [-975, -2360], [-553, -466], [-2782, -243], [-1453, -866], [-658, 474], [-58, -449], [-1788, -492], [-525, -614], [689, -1408], [-33, -753], [-535, 31], [550, -795], [-424, -202], [54, -538], [-616, 510], [421, 323], [-287, 371], [-2426, -882], [-704, 332], [-1814, -222], [-1400, 849], [-1349, -118], [586, 2497], [-1377, 397], [-333, 542], [227, 1848], [-910, 1700], [-536, 2506], [-634, 557], [1392, 384], [-213, 340], [391, 753], [1285, -614], [702, 1639], [160, -387], [668, 810], [1338, 422], [1244, 1816], [2837, 1208], [386, 193]], [[83696, 79675], [589, -1060], [1325, -500], [1223, 840], [1072, -365], [260, -1114], [-349, -1171], [-1510, -1223], [-1393, -487], [592, -1013], [513, 380], [577, -950], [-560, -1594], [-752, -658], [-1140, -153], [553, -1127], [-272, -398], [272, -1254], [-1066, -946], [-1923, -181], [-735, -862], [978, -1485], [-1925, -362], [-37, -766], [-660, -429], [72, -842], [-363, -309], [-922, 966], [-3223, -1401], [-1244, -1816], [-669, -354], [-1937, 131], [-3282, 2131], [-2351, -193], [-69, 773], [-673, -41], [668, 945], [-139, 2379], [-673, 300], [-614, 1250], [-677, -426], [-2294, 991], [-370, 2377], [384, 1013], [511, 13], [366, 669], [-882, 1574], [919, 221], [-476, 2860], [3154, 361], [1205, 959], [2003, -249], [856, -1196], [1260, 258], [2019, -1008], [1726, -59], [1042, 1619], [1886, 597], [675, -563], [1658, 2082], [421, 1180], [793, -375], [1408, 822], [1927, -640], [273, -121]], [[63414, 10874], [-2, 2], [2, -2]], [[63636, 10789], [5, 0], [-5, 0]], [[67389, 14163], [102, 481], [-102, -481], [0, 0]], [[69401, 16935], [1, 0], [-1, 0]], [[69151, 16928], [-111, 331], [131, -325], [-20, -6]], [[58305, 18424], [-16, 0], [16, 0]], [[69313, 18542], [88, -630], [-151, 625], [63, 5]], [[58862, 20235], [-922, -739], [-93, 656], [499, 790], [722, 54], [-196, -748], [-10, -13]], [[71713, 21240], [-62, -695], [-375, -143], [367, 834], [70, 4]], [[55915, 21292], [15, 338], [-14, -338], [-1, 0]], [[54497, 21696], [502, -649], [-357, -235], [-660, 470], [51, 495], [453, -81], [11, 0]], [[53926, 22064], [-409, -69], [418, 104], [-9, -35]], [[55330, 26163], [-267, 141], [311, -85], [-44, -56]], [[60181, 27442], [3, 0], [-3, 0]], [[70110, 31672], [501, -155], [-393, -229], [-110, 384], [2, 0]], [[57606, 32020], [839, -680], [-915, -708], [782, -1040], [-496, -120], [273, -689], [-340, -184], [-797, 1126], [450, 617], [-433, 928], [626, 751], [11, -1]], [[64203, 31775], [96, 30], [-96, -30]], [[63967, 34471], [-129, 37], [129, -37]], [[64765, 34965], [36, 407], [-35, -407], [-1, 0]], [[65576, 34649], [-566, -2345], [-949, -225], [118, 352], [-538, 207], [-344, -695], [-450, 138], [240, 715], [848, 544], [-653, 155], [97, 313], [1034, -57], [-204, 721], [347, 448], [408, -184], [311, 737], [313, -815], [-12, -9]], [[70807, 35362], [263, -459], [-535, 240], [272, 219], [0, 0]], [[66569, 35735], [0, 1], [0, -1]], [[69435, 36762], [-3, 3], [3, -3]], [[66805, 18325], [-950, -902], [-773, 283], [-459, -1035], [894, -1570], [988, 230], [747, -390], [-298, -811], [-276, 736], [-1089, 58], [-140, -420], [-1353, -206], [-109, 414], [-443, -477], [1322, -1128], [-221, -528], [-755, 441], [-943, -863], [-1244, 493], [-792, -440], [129, 903], [553, 164], [-201, 394], [1379, 667], [-1931, 546], [244, 1667], [1300, 125], [-577, 487], [378, 464], [-1367, 114], [-703, -902], [-509, 24], [-154, 688], [965, 762], [-743, 213], [-821, -1026], [98, 694], [-364, 192], [2770, 754], [27, 1437], [660, 732], [-1027, 1129], [531, -175], [89, 451], [-959, 532], [-640, -829], [71, -730], [-2413, -27], [224, -223], [-399, -192], [435, -389], [-493, 127], [216, -480], [-795, -554], [-594, 1085], [234, 837], [-1377, 352], [-579, 2319], [1173, 2074], [632, 136], [-330, 328], [594, -124], [-397, 416], [954, -97], [714, 1011], [2518, -1828], [453, 224], [-252, 535], [579, 290], [-284, 348], [684, -194], [166, -674], [321, 51], [-59, 522], [116, -803], [132, 821], [116, -785], [381, 271], [-68, -675], [252, 361], [452, -826], [361, 66], [-417, 1580], [-540, 76], [186, 619], [-1535, 1430], [122, 697], [520, -127], [96, 1126], [492, 269], [264, -312], [-333, -565], [1663, 236], [7, 419], [1026, -700], [55, 1604], [570, 151], [-345, 535], [805, -41], [-468, 687], [724, 72], [172, -749], [441, 105], [-507, 680], [524, 164], [1, 410], [-874, 60], [480, 1740], [573, 161], [-366, 490], [909, -748], [320, 469], [819, -390], [464, -897], [-127, -677], [-964, -273], [274, -724], [-831, -34], [488, -358], [-253, -1300], [1201, -638], [-95, -470], [738, -846], [-53, -630], [-388, 295], [-299, -374], [545, -1544], [-237, -410], [-583, 93], [423, -739], [-1258, -674], [-110, -913], [402, 552], [-232, -830], [604, 471], [137, -914], [970, 1381], [-374, 494], [1237, -709], [764, 681], [-849, -1150], [322, -743], [-631, -445], [-593, 202], [690, -1568], [-611, -131], [-455, 592], [-960, -762], [496, -780], [652, 726], [334, -758], [-473, -274], [208, -738], [934, -1118], [168, -856], [-1848, 595], [353, 414], [-353, 839], [-854, -480], [208, -575], [-514, -62], [107, 771], [-1156, 475], [-430, -260], [0, -1248], [462, -491], [-5, -1]], [[89909, 72079], [-39, -817], [3203, -1310], [186, -1120], [2120, -2576], [1489, -1007], [1787, 515], [194, -1072], [1151, -1197], [-1505, -1763], [294, -543], [-353, -1072], [-1049, -716], [-1584, 912], [-1944, 371], [999, -1279], [-1584, -3409], [-1230, -143], [-857, -862], [-968, 296], [-662, -1500], [-2070, -33], [-1985, 1863], [-805, 2172], [-1340, 622], [-2010, 1924], [-2202, 522], [183, 1940], [660, 429], [32, 759], [775, 390], [591, -385], [636, 462], [-1054, 1199], [223, 533], [516, 517], [1923, 181], [1066, 946], [-272, 1254], [272, 398], [-590, 655], [244, 755], [937, -129], [1050, 1494], [792, 71], [326, -434], [2609, 664], [-153, -475], [-2, -2]], [[64411, 60651], [3349, 652], [3282, -2131], [1268, -199], [-1339, -1016], [-191, -1046], [-1285, 614], [-391, -753], [202, -350], [-1371, -168], [624, -763], [536, -2506], [896, -1828], [-1885, -394], [-203, -898], [-1130, 826], [359, 623], [-822, 420], [-969, -445], [1421, -599], [-836, -166], [-512, -722], [-1453, -168], [-919, 378], [239, 953], [-1870, 2114], [401, 638], [-538, 406], [-603, 1561], [568, 585], [-1060, 1395], [326, 611], [-662, 1220], [1090, 963], [-49, 1082], [1033, 790], [496, 124], [1855, -1694], [143, -109]], [[67061, 51365], [-288, -674], [1130, -826], [203, 898], [1895, 292], [-223, -1618], [1757, -1214], [-788, -2992], [-4545, 1772], [-1555, -313], [-1728, -1866], [53, 824], [-566, 36], [-533, 850], [-202, 1812], [1191, 919], [2552, 537], [512, 722], [709, -9], [-1216, 887], [911, 333], [429, -344], [302, -26]], [[60544, 37997], [21, 408], [260, -45], [-185, -335], [-96, -28]], [[64587, 38585], [-350, -290], [347, 343], [3, -53]], [[60657, 38549], [7, 1], [-7, -1]], [[60879, 38580], [2, 0], [-2, 0]], [[59520, 38917], [875, -1094], [-768, -69], [-832, 1101], [723, 63], [2, -1]], [[56020, 38898], [14, 8], [-14, -8]], [[59862, 39133], [0, 0], [0, 0]], [[55638, 39437], [-112, 520], [388, -229], [-234, -287], [-42, -4]], [[58854, 39559], [187, 524], [-187, -524], [0, 0]], [[53865, 40363], [1, 2], [37, 35], [-38, -37]], [[55865, 40622], [-420, -166], [419, 170], [1, -4]], [[57054, 40854], [-8, -1], [8, 1]], [[57455, 40874], [-189, -594], [-147, 531], [333, 64], [3, -1]], [[61267, 46941], [-85, 15], [85, -15]], [[60779, 47271], [-499, -148], [493, 176], [6, -28]], [[53865, 40363], [1107, -818], [-326, -201], [-339, 437], [-417, -725], [-1344, 48], [-741, -1256], [-277, 207], [266, 2077], [-972, 450], [-690, -160], [-11, -501], [-824, 1412], [-858, 594], [-1327, 50], [216, 478], [-337, 903], [931, 746], [-297, 423], [528, 3446], [418, -88], [992, 1029], [638, -173], [383, -785], [-83, -1049], [1734, -1125], [590, 439], [84, 756], [1225, 610], [1404, -648], [1891, -174], [1309, 974], [-300, 1348], [297, 236], [2980, 522], [-356, -1096], [-1194, -1484], [1601, -1937], [-393, -185], [430, -256], [-372, -388], [734, -308], [-623, -862], [-499, 667], [-417, -506], [623, -379], [1081, 333], [-80, -561], [-787, -294], [824, -77], [188, -1256], [1548, -1363], [-1372, -190], [-164, -423], [1962, -428], [-2032, -914], [-1702, -184], [1415, 1157], [-598, 224], [-378, -596], [-1118, 202], [104, 1095], [1156, 647], [-2237, 124], [95, 540], [-398, 77], [447, 424], [-724, 34], [51, 940], [-1210, -1653], [-2039, 766], [69, -496], [-886, -255], [-728, 580], [-459, -137], [-254, -468], [828, -609], [14, 13]], [[60694, 53549], [780, 84], [-40, -592], [1847, -2076], [-239, -953], [919, -378], [-2392, -536], [166, 647], [-343, 275], [-487, -555], [-1985, -37], [-482, -341], [300, -1348], [-1214, -923], [-2208, 235], [-357, 467], [696, 1216], [-993, 1278], [17, 1361], [1008, 2390], [2577, -560], [1438, 793], [939, -409], [53, -38]], [[66587, 38227], [-10, -319], [-392, 261], [398, 61], [4, -3]], [[72769, 38381], [417, -275], [-420, 264], [3, 11]], [[72769, 38381], [1, 9], [-1, -9]], [[69047, 38665], [-1, 1], [1, -1]], [[68313, 39493], [-672, -146], [671, 171], [1, -25]], [[69000, 39860], [-7, 3], [7, -3]], [[69778, 39947], [3, 403], [23, -396], [-26, -7]], [[69646, 40588], [-21, 19], [21, -19]], [[65534, 41515], [566, -12], [-451, -287], [348, 36], [25, -560], [-906, 375], [-116, 273], [529, 175], [5, 0]], [[65424, 42471], [-10, 12], [10, -12]], [[72750, 38415], [-603, -137], [299, 431], [-175, 779], [-761, 338], [-563, -311], [274, 540], [-367, -177], [-264, 593], [474, 636], [-896, -720], [-252, 521], [-643, -132], [-47, 837], [-632, -73], [-425, -629], [-463, 398], [-160, 318], [914, 697], [-456, 1189], [180, 399], [-217, -253], [-301, 478], [189, 444], [-1223, -375], [421, -1178], [-699, -566], [-448, 1342], [-880, -97], [-140, 714], [305, 369], [-1278, -156], [-451, -908], [606, -241], [-572, 37], [-204, 488], [-541, -151], [481, 507], [-313, 458], [1167, 1300], [1553, 830], [929, 32], [3848, -1692], [331, -63], [155, 770], [1349, 118], [1857, -845], [1320, -1784], [1166, -281], [527, -1426], [-510, -535], [-689, 5], [-545, -808], [533, 255], [330, -313], [-1046, -508], [0, -393], [-1633, 10], [-134, 554], [455, 632], [769, 310], [-869, 6], [72, 1074], [-1048, -1032], [-567, 452], [160, -551], [1133, -3], [-301, -1120], [-373, 60], [-122, -1437], [14, -26]], [[44013, 71368], [3998, -1146], [516, 272], [-189, 855], [3013, -1610], [73, -1170], [-2315, -1186], [-499, -1133], [823, -1432], [2129, -725], [425, -708], [440, -974], [-1075, -1047], [547, -916], [-861, -542], [-1834, 26], [-180, -497], [907, -1175], [-380, -216], [-2118, 480], [-1039, 1419], [-1330, 183], [-286, -719], [374, -1833], [-1230, -795], [-440, -964], [621, -1464], [-1110, -463], [-619, -1363], [-2072, -233], [-1608, 845], [-704, -857], [-1555, 2791], [-126, 1610], [379, 527], [-1355, 2065], [-2493, -1426], [-1433, 1330], [599, 1362], [-1174, 189], [1001, -106], [811, 1028], [927, -729], [67, 1119], [1088, -124], [2634, 946], [-285, 1467], [910, 951], [463, 2030], [517, 114], [-889, 1179], [2203, 1220], [1463, 185], [279, 921], [1921, 451], [71, -12]], [[58656, 61462], [2228, 78], [49, -1082], [-1090, -963], [662, -1220], [-326, -611], [1060, -1395], [-568, -585], [603, -1561], [538, -406], [-849, -304], [-1261, 583], [-1438, -793], [-2577, 560], [-1008, -2390], [-17, -1361], [962, -1120], [-93, -565], [-572, -809], [-2050, -541], [-84, -756], [-590, -439], [-1734, 1125], [83, 1049], [-383, 785], [-638, 173], [-992, -1029], [-1288, 1198], [-1475, -193], [-547, 1005], [-815, 166], [4, 776], [-768, 520], [252, 711], [-1452, 496], [511, 1324], [1168, 533], [-679, 1394], [440, 964], [1230, 795], [-374, 1833], [286, 719], [1330, -183], [1039, -1419], [2118, -480], [380, 216], [-907, 1175], [94, 374], [1920, 97], [842, 493], [-528, 965], [705, 919], [2967, -717], [1312, 1411], [628, 69], [1692, -1584], [0, 0]], [[57866, 82978], [647, -1149], [-33, -2614], [1329, -657], [126, -841], [1971, -1366], [-516, -343], [-66, -954], [542, -1906], [-918, -186], [871, -1672], [-356, -606], [-511, -13], [-384, -1013], [370, -2377], [2294, -991], [677, 426], [614, -1250], [673, -300], [139, -2379], [-668, -945], [673, 41], [69, -773], [-996, -460], [-2000, 1804], [-1831, -1007], [-1926, 15], [-1692, 1584], [-628, -69], [-1312, -1411], [-1477, 79], [-1088, 694], [-897, 1754], [-2129, 725], [-747, 1006], [-2, 1006], [425, 553], [1774, 622], [565, 1146], [-539, 1068], [-2385, 1171], [-1333, 1498], [476, 3234], [-417, 1918], [804, 416], [1023, -498], [1488, 580], [979, 775], [562, -85], [871, 1048], [3605, 62], [304, 467], [-192, 1976], [1240, 749], [39, -422], [-107, -130]], [[40697, 25031], [-2, 1], [2, -1]], [[41097, 25153], [39, 36], [-39, -36]], [[36663, 25960], [185, -514], [-299, 125], [111, 392], [3, -3]], [[41134, 25920], [4, 432], [-2, -432], [-2, 0]], [[41804, 27698], [0, 1], [0, -1]], [[38381, 28190], [-1, 0], [1, 0]], [[44796, 28124], [-197, 268], [199, -268], [-2, 0]], [[39424, 28283], [-360, 200], [164, 406], [395, 90], [-149, -615], [-50, -81]], [[41777, 28634], [-56, 400], [57, -399], [-1, -1]], [[41058, 28995], [11, 4], [-11, -4]], [[40297, 29161], [0, 0], [0, 0]], [[45623, 29586], [1, 0], [-1, 0]], [[42505, 43456], [1943, -523], [595, 334], [728, -405], [1229, 225], [328, -632], [-216, -478], [1327, -50], [858, -594], [824, -1412], [11, 501], [690, 160], [972, -450], [-238, -2192], [-477, -84], [-202, 488], [-1756, -1159], [-1099, 164], [1043, -893], [-778, -331], [347, -534], [-525, -160], [95, -386], [1268, 32], [14, 1136], [-334, 220], [4067, 1161], [-486, 630], [123, 425], [495, 378], [464, -590], [524, 906], [800, -733], [-422, -775], [427, -179], [-173, -398], [-1238, 14], [895, -913], [174, 549], [583, -273], [-302, -693], [1134, -539], [92, -568], [-568, -601], [-441, 461], [-397, -1375], [-852, 366], [384, -554], [-231, -158], [-3609, 438], [132, -766], [1511, 111], [534, -857], [-1096, 201], [-576, -643], [-884, 280], [-1223, -1747], [-2733, -834], [266, 936], [-407, -263], [-80, 874], [-912, 354], [148, -1254], [-1254, -620], [340, -1200], [-405, -184], [124, -309], [-673, -208], [-491, 457], [99, -843], [-605, -348], [191, 738], [-613, 172], [116, 446], [-625, 848], [669, 1], [-59, 653], [-1186, 148], [-162, -397], [67, 547], [-1209, -157], [-232, 389], [-311, -538], [-429, 228], [-96, -471], [-173, 359], [-572, -252], [429, -385], [-292, 68], [272, -547], [-444, -977], [344, -1297], [-880, -18], [-44, 894], [-181, -805], [-511, 821], [67, -781], [-638, 536], [64, -425], [-632, 880], [-663, -285], [169, -391], [-459, 226], [-462, -1063], [-769, 1202], [-1081, -334], [492, 183], [-624, 851], [553, 159], [-395, 184], [1115, 171], [-455, 903], [505, 355], [626, 1600], [120, 1436], [904, 798], [1244, -490], [-752, 1619], [294, 1473], [663, 304], [1318, 2380], [960, 664], [-1248, 281], [-6, 1509], [489, -115], [40, 643], [764, 692], [980, -52], [1190, 1046], [1611, 300], [42, -20]], [[29507, 10687], [-49, 47], [49, -47]], [[29134, 11331], [-2, 1], [2, -1]], [[28623, 10640], [-58, 735], [309, -598], [-251, -137]], [[27900, 11317], [160, 184], [-160, -184]], [[27930, 11730], [1, 0], [-1, 0]], [[27130, 11682], [200, 70], [-200, -70]], [[28929, 12020], [351, -355], [-605, 5], [253, 351], [1, -1]], [[29638, 12018], [-306, -138], [305, 139], [1, -1]], [[25551, 12259], [72, 1], [-72, -1]], [[28955, 13640], [-4, 0], [4, 0]], [[22152, 14329], [143, -603], [-404, 544], [261, 59]], [[29723, 14898], [10, 0], [-10, 0]], [[30164, 15683], [64, 500], [-16, -491], [-48, -9]], [[15795, 16520], [-1, 1], [1, -1]], [[27496, 22424], [-1, 0], [1, 0]], [[19950, 23711], [27, 2], [-27, -2]], [[14963, 25455], [-101, -16], [101, 16]], [[14905, 27540], [-5, 42], [5, -42]], [[21814, 27596], [-10, 7], [10, -7]], [[27795, 28027], [-1075, -2005], [-310, -1823], [871, -115], [-152, 1150], [835, 1152], [192, -400], [552, 364], [-430, -594], [423, 107], [-7, -588], [669, 102], [512, -674], [-138, -949], [-688, -628], [566, 187], [-119, -758], [959, -78], [632, -1142], [-555, 10], [-328, 545], [-444, -373], [-624, 585], [-540, -194], [-1325, 829], [-2, -582], [-298, 290], [-116, -392], [-969, -140], [-1951, 538], [-442, 1907], [931, 692], [1551, 2630], [1705, 478], [115, -131]], [[19950, 23711], [811, -1833], [1428, -563], [183, -1283], [608, -370], [737, 262], [-445, 368], [1208, 483], [-86, 382], [782, 489], [2489, 147], [659, -836], [573, 237], [961, -576], [-228, -1335], [-466, 154], [-263, -407], [543, -52], [-655, -1065], [448, -2566], [-1324, -1184], [7, -578], [1559, -864], [-396, 166], [-683, -386], [100, -311], [-887, 456], [-644, -430], [425, 1148], [-657, 417], [-481, -227], [-16, -721], [-500, 434], [-393, -217], [-210, 459], [-331, -155], [43, -658], [-1666, 18], [-234, 471], [356, 134], [-572, 617], [303, 354], [-428, -28], [-205, 1175], [631, 1872], [-335, 356], [-2733, -856], [506, -2144], [-1287, -1056], [-2058, 446], [296, 383], [-625, 253], [81, 796], [-1016, 166], [261, 1260], [1024, 648], [-534, -58], [281, 518], [-555, -255], [146, 411], [-639, 514], [-207, 1405], [-1205, 1668], [-337, 1411], [617, 1545], [646, 89], [-174, 501], [456, 733], [-556, 104], [438, 101], [-331, 515], [994, -327], [-21, 625], [171, -372], [1071, -16], [-642, 1052], [470, 445], [-308, 407], [710, 268], [294, 778], [1438, 365], [874, -600], [1020, 140], [-283, -507], [603, -664], [-428, 185], [334, -861], [-451, -1068], [222, -650], [-1468, -557], [85, -1700], [71, 5]], [[15751, 28436], [-383, 3], [383, -3], [0, 0]], [[16092, 28313], [0, 0], [0, 0]], [[15906, 28981], [0, 0], [0, 0]], [[15536, 29443], [-9, 3], [9, -3]], [[15536, 29443], [216, -764], [-303, -42], [114, 796], [-27, 10]], [[12625, 29356], [-461, 160], [463, -152], [-2, -8]], [[19832, 31224], [0, 0], [0, 0]], [[20865, 31624], [-5, 6], [5, -6]], [[20746, 31645], [0, 0], [0, 0]], [[20962, 32085], [-123, 21], [123, -21]], [[21132, 32387], [-169, 433], [172, -432], [-3, -1]], [[3774, 57509], [1225, 247], [394, -592], [1277, 82], [280, -2779], [886, -1359], [2352, -847], [657, -1349], [1327, -1106], [4089, 590], [1546, 2353], [421, -198], [-66, -456], [1070, 11], [-258, -2373], [428, -1564], [2703, -2257], [-39, -970], [-531, -570], [-1906, 871], [-1193, -806], [393, -1105], [1526, -713], [-678, -964], [606, -675], [-453, -208], [25, -556], [-534, -77], [2293, -2824], [-442, -429], [-104, -2671], [-471, -911], [548, -249], [-386, -43], [101, -521], [-685, 118], [183, -903], [-547, 105], [-254, -1130], [-656, -358], [-113, 335], [-186, -494], [-2063, -181], [-420, 1161], [-61, -432], [-348, 119], [221, -668], [-938, 455], [408, -557], [-833, 71], [212, -492], [-977, -533], [172, -759], [-342, -101], [334, 90], [-139, 574], [-488, -112], [-329, 874], [-506, 82], [-696, 1694], [-651, -22], [1256, 1630], [410, 1581], [-1138, 2871], [-1510, 768], [-420, 919], [-1232, 718], [-1265, 1594], [-405, 2167], [-1786, 1730], [-667, 104], [-1840, 2219], [182, 2454], [-506, 1234], [148, 639], [-310, 847], [-880, 443], [-1195, 2760], [1747, 894], [631, 899], [1242, -319], [154, -70]], [[17649, 75670], [533, -573], [-332, -561], [493, -658], [47, -1642], [1444, 517], [1428, -1425], [2097, 188], [166, -1306], [730, -369], [430, -3157], [3020, -2563], [1394, 31], [1093, -1964], [1044, -619], [-550, -798], [1320, -232], [-599, -1362], [1378, -1248], [-2084, 428], [-1331, -253], [-383, -1518], [-543, -579], [-1718, -118], [-1174, -1247], [-587, 69], [-54, -966], [-719, -262], [-412, -1710], [-1169, -354], [-1675, 749], [-692, -2067], [-1095, 178], [147, 1779], [-1134, 37], [66, 456], [-390, 206], [-1577, -2361], [-2659, -605], [-1902, 297], [-1512, 2173], [-2352, 847], [-886, 1359], [-90, 2593], [720, -228], [1089, 1330], [776, 226], [448, 2542], [850, 786], [-256, 1012], [614, 402], [52, 915], [1262, 1387], [-411, 756], [914, 24], [-326, 1074], [1892, 778], [-528, 1372], [664, 93], [395, 660], [32, 1230], [-392, 640], [2872, 3693], [122, -82]], [[7245, 88972], [887, -773], [398, -1179], [1064, -835], [879, 833], [780, -22], [190, -716], [1065, -1016], [844, -201], [484, -1331], [1796, -1163], [113, -757], [1625, -9], [459, 836], [480, -110], [63, -2068], [-844, -2399], [-1757, -1808], [16, -424], [912, 43], [363, -616], [-2407, -3198], [392, -640], [-32, -1230], [-395, -660], [-664, -93], [528, -1372], [-1892, -778], [326, -1074], [-914, -24], [411, -756], [-1262, -1387], [-52, -915], [-614, -402], [256, -1012], [-850, -786], [-448, -2542], [-776, -226], [-1153, -1353], [-952, 502], [-1171, -147], [-394, 592], [-1744, -99], [-536, 374], [157, 699], [-799, 1727], [941, 800], [650, 1621], [1469, 1108], [286, 1543], [542, 732], [-1758, 248], [-518, 744], [-4, 1371], [1004, 630], [-166, 801], [-1499, 1996], [179, 775], [-972, -25], [-1696, 1329], [683, 1438], [920, 743], [-228, 801], [339, 970], [1358, 744], [-927, 2012], [1239, 1940], [81, 1460], [1166, 1238], [297, 4286], [605, 148], [1038, -865], [139, -73]], [[18689, 99728], [101, -928], [531, -459], [1626, 467], [782, -2125], [-444, -609], [1002, -79], [544, 517], [1387, -697], [473, 485], [928, -1577], [900, -590], [1096, 488], [1331, -419], [1104, 823], [1275, -769], [-368, -956], [-955, -822], [-942, -30], [-1128, -1433], [1016, -767], [-442, -1740], [480, -374], [569, -1653], [681, -369], [87, -1270], [1272, -759], [-141, -460], [-704, -44], [-563, -809], [-353, 724], [-971, -309], [-375, -1255], [-1410, -617], [-189, -677], [-1048, -673], [-239, -798], [251, -879], [-1005, -160], [-195, -3134], [-1634, -1464], [329, -2007], [-2086, -193], [-1428, 1425], [-1444, -517], [-448, 3466], [-870, -455], [-373, 626], [-912, -43], [-16, 424], [1135, 975], [1067, 1789], [-41, 938], [440, 505], [-63, 2068], [-480, 110], [-459, -836], [-1625, 9], [-113, 757], [-1796, 1163], [-484, 1331], [-844, 201], [-1065, 1016], [-190, 716], [-780, 22], [-879, -833], [-1064, 835], [-873, 1782], [-1366, 935], [1269, 1500], [1163, 596], [1525, 3426], [810, -557], [675, 113], [2161, 1482], [583, -369], [769, 1071], [924, -153], [726, 1098], [-178, 634], [535, 1195], [1553, 227], [-117, -272]], [[31804, 94259], [1488, -599], [-70, -1378], [423, -1025], [1837, -416], [363, -1468], [1477, -853], [537, -1153], [409, -3781], [-1258, -282], [-303, -516], [-943, 2], [-213, -1316], [1556, 195], [943, -1007], [1735, -310], [838, 1163], [1146, -925], [1043, 697], [1021, -115], [111, 399], [1581, -699], [1579, -46], [891, -2372], [-789, -676], [461, -1656], [-476, -3234], [1731, -1688], [-634, 101], [239, -807], [-516, -272], [-4397, 1251], [-147, -368], [-1446, -176], [-693, -1144], [-1049, 38], [-1719, -801], [-541, -605], [946, -993], [-517, -114], [-463, -2030], [-910, -951], [285, -1467], [-2634, -946], [-1088, 124], [-67, -1119], [-927, 729], [-811, -1028], [-1136, 136], [539, 811], [-1044, 619], [-1162, 2036], [-1325, -103], [-3020, 2563], [-430, 3157], [-730, 369], [-529, 3234], [1657, 1548], [195, 3134], [1005, 160], [-251, 879], [439, 1072], [848, 399], [189, 677], [1410, 617], [375, 1255], [971, 309], [353, -724], [563, 809], [704, 44], [141, 460], [-1272, 759], [-87, 1270], [-681, 369], [-569, 1653], [-480, 374], [442, 1740], [-1015, 795], [1127, 1405], [942, 30], [955, 822], [368, 956], [454, 34], [25, -31]]]}