{"type": "Topology", "transform": {"scale": [2.095671970844677e-05, 1.0866780898453996e-05], "translate": [125.54407628399349, 35.97826412396278]}, "objects": {"collection": {"type": "GeometryCollection", "geometries": [{"type": "MultiPolygon", "arcs": [[[0]]], "properties": {"name": "\ucc9c\uc548\uc2dc\ub3d9\ub0a8\uad6c", "base_year": "2018", "name_eng": "Cheonansidongnamgu", "code": "34011"}}, {"type": "MultiPolygon", "arcs": [[[1]]], "properties": {"name": "\ucc9c\uc548\uc2dc\uc11c\ubd81\uad6c", "base_year": "2018", "name_eng": "Cheonansiseobukgu", "code": "34012"}}, {"type": "MultiPolygon", "arcs": [[[2]]], "properties": {"name": "\uacf5\uc8fc\uc2dc", "base_year": "2018", "name_eng": "Gongju-si", "code": "34020"}}, {"type": "MultiPolygon", "arcs": [[[3]], [[4]], [[5]], [[6]], [[7]], [[8]], [[9]], [[10]], [[11]], [[12]], [[13]], [[14]], [[15]], [[16]], [[17]], [[18]], [[19]], [[20]], [[21]], [[22]], [[23]], [[24]], [[25]], [[26]], [[27]], [[28]], [[29]], [[30]], [[31]], [[32]], [[33]], [[34]], [[35]], [[36]], [[37]], [[38]], [[39]], [[40]], [[41]], [[42]], [[43]], [[44]], [[45]], [[46]], [[47], [48]]], "properties": {"name": "\ubcf4\ub839\uc2dc", "base_year": "2018", "name_eng": "Boryeong-si", "code": "34030"}}, {"type": "MultiPolygon", "arcs": [[[49]]], "properties": {"name": "\uc544\uc0b0\uc2dc", "base_year": "2018", "name_eng": "Asan-si", "code": "34040"}}, {"type": "MultiPolygon", "arcs": [[[50]], [[51]], [[52]], [[53]], [[54]], [[55]], [[56]], [[57]], [[58]], [[59]], [[60]], [[61]], [[62]], [[63]], [[64]]], "properties": {"name": "\uc11c\uc0b0\uc2dc", "base_year": "2018", "name_eng": "Seosan-si", "code": "34050"}}, {"type": "MultiPolygon", "arcs": [[[65]]], "properties": {"name": "\ub17c\uc0b0\uc2dc", "base_year": "2018", "name_eng": "Nonsan-si", "code": "34060"}}, {"type": "MultiPolygon", "arcs": [[[66]]], "properties": {"name": "\uacc4\ub8e1\uc2dc", "base_year": "2018", "name_eng": "Gyeryongsi", "code": "34070"}}, {"type": "MultiPolygon", "arcs": [[[67]], [[68]], [[69]], [[70]], [[71]], [[72]], [[73]], [[74]], [[75]], [[76]], [[77]]], "properties": {"name": "\ub2f9\uc9c4\uc2dc", "base_year": "2018", "name_eng": "Dangjinsi", "code": "34080"}}, {"type": "MultiPolygon", "arcs": [[[78]]], "properties": {"name": "\uae08\uc0b0\uad70", "base_year": "2018", "name_eng": "Geumsan-gun", "code": "34310"}}, {"type": "MultiPolygon", "arcs": [[[79]]], "properties": {"name": "\ubd80\uc5ec\uad70", "base_year": "2018", "name_eng": "Buyeo-gun", "code": "34330"}}, {"type": "MultiPolygon", "arcs": [[[80]], [[81]], [[82]], [[83]], [[84]], [[85]], [[86]], [[87]], [[88]]], "properties": {"name": "\uc11c\ucc9c\uad70", "base_year": "2018", "name_eng": "Seocheon-gun", "code": "34340"}}, {"type": "MultiPolygon", "arcs": [[[89]]], "properties": {"name": "\uccad\uc591\uad70", "base_year": "2018", "name_eng": "Cheongyang-gun", "code": "34350"}}, {"type": "MultiPolygon", "arcs": [[[90]], [[91]], [[92]]], "properties": {"name": "\ud64d\uc131\uad70", "base_year": "2018", "name_eng": "Hongseong-gun", "code": "34360"}}, {"type": "MultiPolygon", "arcs": [[[93]]], "properties": {"name": "\uc608\uc0b0\uad70", "base_year": "2018", "name_eng": "Yesan-gun", "code": "34370"}}, {"type": "MultiPolygon", "arcs": [[[94]], [[95]], [[96]], [[97]], [[98]], [[99]], [[100]], [[101]], [[102]], [[103]], [[104]], [[105]], [[106]], [[107]], [[108]], [[109]], [[110]], [[111]], [[112]], [[113]], [[114]], [[115]], [[116]], [[117]], [[118]], [[119]], [[120]], [[121]], [[122]], [[123]], [[124]], [[125]], [[126]], [[127]], [[128]], [[129]], [[130]], [[131]], [[132]], [[133]], [[134]]], "properties": {"name": "\ud0dc\uc548\uad70", "base_year": "2018", "name_eng": "Taean-gun", "code": "34380"}}]}}, "arcs": [[[83597, 83878], [635, -741], [-96, -2024], [1396, -467], [-96, -2205], [950, -110], [2211, -2795], [-252, -1529], [833, -853], [322, -1431], [-358, -38], [-370, -1034], [-862, 1221], [-851, 190], [-1577, -801], [-100, -543], [436, -1192], [-238, -413], [-441, 484], [-850, -945], [-100, -1793], [-1136, -1317], [-1855, 497], [-445, 1063], [-1588, 1721], [-2074, 616], [-1523, -2228], [401, -331], [268, -1385], [690, 72], [43, 450], [207, -500], [127, -1079], [-442, -1309], [273, -750], [-353, -1005], [349, -1910], [-480, -432], [-474, 2126], [-1439, 1449], [-783, -415], [-424, -1161], [-2294, 1273], [-931, -381], [-430, 650], [967, 2814], [1444, 1796], [928, 175], [387, 3592], [566, 586], [-302, 497], [1237, 233], [52, 1177], [-298, 776], [1079, 1012], [-105, 1289], [-430, 687], [329, 153], [697, -1414], [216, 1934], [996, 1967], [463, -344], [834, 1019], [1174, -410], [498, 1663], [685, 382], [206, 713], [924, 338], [310, 716], [797, 6], [67, -52]], [[76645, 77251], [-339, -1361], [-576, 1470], [-329, -153], [430, -687], [105, -1289], [-507, -622], [-548, -377], [-109, 1137], [-738, -126], [479, 3734], [-354, 308], [586, 1393], [-174, 489], [-927, 145], [37, 2585], [227, 337], [-395, 910], [442, 882], [-947, 2350], [579, 838], [455, -493], [346, 992], [-310, 569], [286, 499], [431, 600], [865, -448], [1409, 308], [-181, -491], [1066, -159], [132, -554], [1033, -457], [396, -1948], [1603, -1191], [434, 445], [969, -1011], [691, -1986], [-1713, -1019], [-206, -713], [-685, -382], [-498, -1663], [-1174, 410], [-834, -1019], [-463, 344], [-1054, -2503], [60, -93]], [[68970, 61698], [951, 695], [526, -564], [232, 547], [558, -72], [2103, -1287], [1205, 1537], [1018, -430], [614, -966], [734, -3390], [1357, -1363], [336, 251], [76, -1207], [706, -263], [-1002, -2302], [242, -637], [-839, -353], [-58, -803], [445, -1106], [-590, -1141], [362, -610], [-207, -457], [182, -446], [841, -277], [-127, -1373], [607, -1415], [-302, -652], [26, -1134], [895, -566], [441, -1151], [731, -240], [407, -1091], [564, 913], [930, -155], [-51, -3693], [-499, -1289], [408, -1476], [-639, -624], [18, -875], [-485, 46], [-894, 1780], [-1193, 103], [-756, -1365], [-1801, -1086], [-12, -582], [-732, -918], [-630, 1350], [-429, -261], [-671, 2014], [-1075, -2186], [-306, -1858], [-504, -38], [-65, -1728], [-1822, 432], [-629, 1381], [-1025, 200], [-313, 1165], [453, 1453], [-276, 767], [-616, -60], [583, 927], [119, 2759], [1611, 2015], [75, 830], [-573, 1123], [407, 544], [-174, 1316], [-632, -16], [-186, 1610], [-1344, 996], [-888, 182], [-1228, -1302], [-721, 105], [-90, 877], [-958, 1286], [22, 2251], [-496, 826], [453, 1365], [-159, 1288], [483, 757], [-31, 961], [1516, 2913], [-169, 849], [481, 1367], [-79, 672], [455, 459], [655, 2646], [-83, 1395], [491, 664], [498, -2358], [502, -415], [40, -36]], [[45882, 21366], [1, 1], [-1, -1]], [[24591, 21277], [-171, -553], [269, -242], [-353, -147], [255, 942], [0, 0]], [[46503, 21762], [2, 1], [-2, -1]], [[23802, 21394], [1, 7], [-1, -7]], [[27083, 21863], [-233, 310], [234, -309], [-1, -1]], [[24989, 22026], [10, 5], [-10, -5]], [[23267, 21833], [-418, 652], [124, 362], [293, -1012], [1, -2]], [[26156, 23535], [202, -732], [-1390, -254], [363, 1019], [402, -352], [424, 410], [-1, -91]], [[25026, 23841], [-232, 180], [232, -179], [0, -1]], [[20240, 23901], [-106, -1007], [-394, 624], [500, 383], [0, 0]], [[46645, 24638], [-104, -62], [104, 62]], [[24609, 24204], [-438, -237], [417, 261], [21, -24]], [[35213, 25055], [206, -103], [-159, -508], [-303, 646], [248, -33], [8, -2]], [[35621, 25531], [-108, 480], [108, -480], [0, 0]], [[21553, 25700], [15, 16], [-15, -16]], [[33950, 26895], [6, 1], [-6, -1]], [[34727, 27706], [-283, -1326], [-276, 936], [566, 496], [-7, -106]], [[32382, 27990], [-1, 0], [1, 0]], [[31988, 27924], [0, 1], [0, -1]], [[31183, 28381], [454, -323], [-655, -81], [195, 409], [6, -5]], [[35801, 28713], [46, 562], [17, -541], [-63, -21]], [[33501, 29341], [-73, -29], [73, 29]], [[37067, 29432], [-58, 357], [60, -355], [-2, -2]], [[34386, 29953], [259, -85], [-118, -917], [-413, -596], [-404, 781], [678, 827], [-2, -10]], [[37433, 30029], [5, 3], [-5, -3]], [[33988, 30279], [-343, 235], [321, -94], [22, -141]], [[38652, 30966], [165, -425], [-441, -128], [-237, 499], [350, 74], [163, -20]], [[46049, 32629], [245, 55], [-245, -55]], [[34757, 33964], [-14, 11], [14, -11]], [[38739, 34686], [706, -1888], [-466, -814], [-1010, 290], [763, 2429], [7, -17]], [[43613, 34631], [-3528, 1224], [153, 1127], [1297, -844], [-43, 1015], [982, 252], [-140, -673], [360, -458], [-351, -396], [1349, -556], [-76, -704], [-3, 13]], [[43238, 36791], [-514, 199], [267, 915], [424, -1100], [-177, -14]], [[39122, 36815], [59, 1449], [274, -384], [-333, -1065], [0, 0]], [[42603, 38883], [-63, -56], [63, 56]], [[43701, 39014], [-28, 76], [28, -76]], [[38725, 38772], [-740, -387], [-102, -906], [-227, 238], [117, 990], [632, 615], [322, -547], [-2, -3]], [[42756, 39229], [-163, 315], [186, -289], [-23, -26]], [[44108, 39797], [-2, 2], [2, -2]], [[40305, 39436], [1, 0], [-1, 0]], [[43603, 39604], [2, 0], [-2, 0]], [[40476, 39812], [1, 0], [-1, 0]], [[43937, 40382], [-128, 350], [129, -349], [-1, -1]], [[45096, 42972], [3, 2], [-3, -2]], [[48353, 45105], [43, 33], [-43, -33]], [[46096, 49862], [665, -47], [788, -1438], [1167, 413], [318, -601], [875, 641], [567, -1873], [-63, -996], [-535, -227], [-1332, 810], [-1252, -2505], [-393, -44], [-39, -831], [334, -640], [261, 813], [599, 340], [-36, 1190], [353, -286], [-244, -924], [613, -55], [135, 1821], [334, 315], [779, -557], [1097, 1430], [814, -792], [117, -879], [1800, -462], [235, -990], [527, -297], [-188, -1050], [367, -699], [-17, -1670], [822, -772], [342, -772], [-206, -505], [648, -1375], [-950, -621], [-447, -2955], [-822, -253], [274, -857], [-186, -796], [673, -1394], [-339, -681], [450, -711], [-120, -1337], [1236, -1260], [888, -108], [-87, -1157], [-892, -631], [-240, -1856], [-1007, -2238], [-1177, -1282], [-573, 466], [-1961, -823], [-1632, 494], [-713, 1334], [-1913, -423], [610, 1283], [-421, 3391], [912, 2521], [-366, 1117], [-274, -121], [128, 535], [-440, 1358], [-536, 176], [-604, 2831], [514, -210], [228, 715], [1118, 336], [805, 1094], [-2408, 2782], [-410, -111], [331, 611], [-1345, -159], [458, 2780], [515, 627], [-238, 364], [1735, 1400], [-285, 446], [-1315, -1206], [104, 1118], [-646, 915], [155, 1254], [-425, 849], [-82, 1280], [175, 2076], [400, -529], [383, 1334], [382, -78], [128, -176]], [[46547, 32819], [393, 5], [-391, -3], [-2, -2]], [[73200, 87941], [764, -2031], [-451, -766], [395, -910], [-227, -337], [-37, -2585], [927, -145], [174, -489], [-586, -1393], [354, -308], [-479, -3734], [738, 126], [382, -2917], [-651, -656], [-637, 237], [302, -497], [-566, -586], [-387, -3592], [-928, -175], [-1408, -1733], [-1110, -3370], [-682, -392], [-659, 461], [-498, 2358], [90, 1355], [-934, 901], [-2280, -138], [-241, 1965], [-502, 720], [-945, -184], [-374, 1620], [-954, 551], [-48, 699], [-339, 134], [217, 2237], [1128, 704], [-1057, 3422], [382, 4887], [852, -398], [2057, 799], [518, 1612], [3743, 2682], [973, 3], [738, -672], [1644, 1274], [475, -599], [127, -140]], [[39041, 82030], [0, 0], [0, 0]], [[40615, 83674], [-93, 88], [93, -88]], [[40390, 83853], [-117, 3], [117, -3]], [[40522, 83762], [-24, 26], [24, -26]], [[40273, 83856], [-46, 10], [46, -10]], [[37417, 86133], [356, 56], [494, -934], [-516, -175], [-395, 1105], [61, -52]], [[38696, 86481], [5, 8], [-5, -8]], [[39464, 87343], [828, -316], [-723, -618], [-100, 931], [-5, 3]], [[39464, 87343], [-219, 113], [219, -113]], [[38697, 87528], [31, 38], [-31, -38]], [[38095, 87330], [-171, 606], [171, -606]], [[37918, 88086], [-140, 443], [141, -443], [-1, 0]], [[38339, 89689], [0, 2], [0, -2]], [[40615, 83674], [48, 510], [443, -165], [72, 956], [307, -743], [902, 690], [-1035, 651], [66, 533], [-352, 481], [626, 392], [52, 1285], [-131, -559], [-960, 380], [-335, -802], [-417, 1704], [-575, 160], [-419, -747], [121, 998], [-524, 257], [-39, 821], [-813, -27], [73, 1130], [423, -617], [952, 146], [330, -741], [824, 1085], [-558, 184], [182, 561], [-246, 225], [-451, -330], [-1640, 579], [-154, 1318], [451, -103], [1047, 1260], [120, -520], [2682, 520], [148, 702], [-117, -448], [1611, -748], [109, -724], [427, 411], [835, -2295], [445, -3263], [-768, -5714], [1682, -947], [286, -1792], [-239, -394], [751, -1861], [2331, -130], [798, 1183], [436, -1922], [1458, -405], [1050, -3327], [-276, -1435], [270, -970], [-956, 674], [0, -1585], [-396, -650], [-766, -56], [-312, -1190], [350, -1448], [-449, -684], [-246, -2638], [-648, -356], [-88, -870], [-929, -1033], [-693, -316], [-540, 526], [-1094, -1403], [-273, 384], [-2512, -835], [-13, -959], [-576, -1383], [-1415, 288], [153, 1059], [-2578, 913], [-615, 5094], [-54, 4644], [-114, 946], [-323, 171], [499, 1229], [40, 2029], [325, 1108], [-1780, 4855], [509, 1678], [871, -4], [-169, -1378], [1045, -1539], [-323, 1801], [577, 778], [71, 957], [-354, 786], [1587, 375], [-58, 581], [-62, 58]], [[40095, 95998], [148, 478], [-97, -456], [-51, -22]], [[75103, 31619], [565, -58], [630, -1350], [732, 918], [12, 582], [1801, 1086], [438, -2881], [-412, -2474], [225, -2334], [936, 1021], [765, -682], [85, -1741], [304, -337], [1716, 1230], [22, -899], [571, -1168], [417, -114], [48, 723], [558, -777], [371, -1616], [502, -281], [-79, -1484], [-638, -2097], [222, -1470], [-221, -2397], [-804, 503], [-370, -1116], [-980, -534], [-1015, 539], [-312, -1119], [435, -1245], [-316, -412], [-777, 1254], [-958, 375], [-327, -45], [-326, -1324], [-745, 819], [-652, -986], [-1097, 581], [-505, -562], [-147, -1594], [-449, -302], [-986, 1122], [-556, -365], [-1395, 1582], [-200, 2401], [288, 933], [-843, 923], [-24, 997], [-245, -719], [-746, -163], [-397, 1118], [-737, 253], [114, 1606], [-649, 1265], [-240, 2324], [808, 762], [210, -556], [438, 135], [1212, 3228], [1160, 865], [288, 1327], [-145, 2343], [504, 38], [306, 1858], [1075, 2186], [518, -1617], [17, -78]], [[79851, 34231], [941, -172], [233, -894], [558, -168], [334, -1259], [-45, -2531], [-629, -432], [578, -1372], [1582, -1086], [-462, -577], [-41, -1141], [-1623, -1253], [-397, 360], [-129, 1809], [-777, 617], [-880, -1024], [-210, 1008], [401, 3641], [-442, 3040], [364, 1047], [567, 372], [77, 15]], [[60387, 88521], [-137, 866], [141, -866], [-4, 0]], [[61501, 89372], [390, 323], [-571, -499], [-355, 1929], [534, -1753], [2, 0]], [[54911, 94064], [34, 100], [-34, -100]], [[43332, 95340], [0, 388], [3, -387], [-3, -1]], [[43277, 95963], [-163, 423], [163, -423], [0, 0]], [[42385, 95911], [-494, 488], [518, -443], [-24, -45]], [[42979, 97073], [-4, 1], [4, -1]], [[42737, 96941], [2, 1], [-2, -1]], [[43475, 97315], [-707, 179], [736, 37], [-29, -216]], [[54911, 94064], [4230, -2405], [-180, -695], [702, -2228], [-133, -510], [517, -1142], [187, 615], [249, -463], [271, -2739], [1319, -1117], [-382, -4887], [1041, -3605], [-1397, -693], [-599, 235], [380, -896], [-691, -671], [-464, 460], [8, -802], [-645, -245], [-731, -1326], [-1203, 1674], [-899, 2625], [-687, 694], [-825, -276], [-105, -1437], [-1196, -393], [-308, -969], [-605, 872], [-855, 3012], [-1488, 452], [-428, 1918], [-806, -1179], [-2331, 130], [-751, 1861], [239, 394], [-286, 1792], [-1682, 947], [768, 5714], [-445, 3263], [-835, 2295], [336, 447], [-486, 1088], [1819, 4126], [994, -507], [397, -1454], [691, -789], [921, 182], [53, -745], [3301, -2465], [3006, -200], [14, 42]], [[42193, 99930], [226, -606], [511, 381], [328, -1537], [-1426, -296], [-118, 1958], [478, 101], [1, -1]], [[87492, 26983], [603, -848], [-139, -2587], [569, -148], [542, -1380], [-125, -429], [1579, -1666], [692, 554], [-69, 570], [715, 715], [-88, 697], [504, 674], [702, 763], [1220, 247], [689, 943], [805, -1064], [-196, -1271], [1632, 670], [882, -1445], [-237, -3655], [411, -1597], [-584, -2353], [1416, -2353], [-87, -1408], [747, -1124], [241, -1352], [-832, -227], [-98, -2050], [574, 20], [440, -911], [-1384, -635], [378, -1598], [-283, -694], [-1096, 2356], [-727, -252], [-391, 728], [-1666, 886], [403, -2660], [-370, -366], [73, -1468], [-1181, -1125], [-456, 699], [-554, -839], [-924, 904], [-554, -443], [-561, 2148], [-370, 250], [-128, 1855], [-1591, -1910], [-1180, 1306], [-136, 1671], [-633, 1236], [189, 1035], [-352, 1452], [148, 721], [-590, 819], [256, 1411], [-696, 1554], [-770, 101], [-100, 3613], [2097, 4421], [-190, 3986], [130, 635], [581, 262], [120, -44]], [[62309, 37492], [-264, -1018], [-589, 80], [124, -1057], [489, -18], [-164, -779], [880, -1104], [-209, -1105], [319, -907], [1476, 96], [335, 833], [-12, -543], [591, 137], [695, -1166], [1599, 1652], [1220, 461], [483, -919], [-453, -1453], [313, -1165], [1025, -200], [629, -1381], [556, 156], [1466, -1027], [-278, -1503], [-1160, -865], [-1212, -3228], [-438, -135], [-210, 556], [-808, -764], [240, -2322], [649, -1265], [-134, -1512], [310, -212], [-1220, -199], [-1154, 792], [-1762, -1865], [-1432, 306], [-758, -2686], [-130, -3576], [-1387, 767], [-258, 1809], [166, 1597], [-979, 1688], [-832, 554], [-400, -407], [-73, 2836], [248, 317], [-202, 889], [-2445, 237], [-1003, -774], [-975, 416], [-402, 977], [324, 1244], [683, 994], [240, 1856], [892, 631], [87, 1157], [-888, 108], [-1236, 1260], [120, 1337], [-450, 711], [339, 681], [-564, 895], [77, 1295], [-274, 857], [822, 253], [447, 2955], [1035, 920], [406, 187], [185, -1189], [437, 41], [206, -928], [1546, 84], [282, -483], [864, 2254], [1892, 1004], [58, -125]], [[50613, 2062], [247, -571], [-288, -263], [-3674, -459], [3514, 412], [200, 881], [1, 0]], [[51576, 2649], [419, -443], [-330, -150], [-96, 596], [7, -3]], [[52509, 6734], [-596, -339], [559, 287], [37, 52]], [[52509, 6734], [77, 109], [-77, -109]], [[51056, 7918], [36, 17], [-36, -17]], [[48031, 13500], [66, 423], [29, -392], [-95, -31]], [[45991, 13989], [2, 5], [-2, -5]], [[44939, 14490], [0, 0], [0, 0]], [[52586, 6843], [-713, 189], [-22, 2082], [-563, 22], [250, 637], [403, -262], [674, 624], [-97, 510], [-669, -224], [51, 719], [-558, 274], [-399, -624], [-206, 1378], [-1487, 2556], [-315, 191], [-649, -1096], [-546, 1489], [-1206, 706], [-591, -187], [-275, -825], [139, -1103], [229, 7], [-699, 366], [-65, 2329], [1245, 129], [346, 860], [-62, 1643], [1922, 449], [713, -1334], [1632, -494], [1961, 823], [551, -479], [1199, 1295], [402, -977], [629, -370], [1349, 728], [2563, -384], [-91, -3895], [400, 407], [812, -537], [987, -1669], [-154, -1633], [238, -1754], [1407, -822], [-145, -843], [-2240, -1150], [-729, -1432], [-2757, -792], [-551, -2330], [-2864, 809], [-492, -410], [-213, 2221], [335, 215], [-1060, 1984], [-19, -16]], [[62303, 54520], [1073, -84], [1279, -938], [39, -917], [-483, -757], [159, -1288], [-453, -1365], [496, -826], [-22, -2251], [958, -1286], [90, -877], [721, -105], [1228, 1302], [1846, -678], [561, -871], [1, -1223], [642, 0], [174, -1316], [-407, -544], [616, -1353], [-1753, -2680], [-87, -2652], [-343, -710], [-2658, -2160], [-695, 1166], [-591, -137], [12, 543], [-335, -833], [-1476, -96], [-319, 907], [209, 1105], [-880, 1104], [164, 779], [-489, 18], [-124, 1057], [589, -80], [206, 1143], [-1892, -1004], [-864, -2254], [-282, 483], [-1546, -84], [-206, 928], [-437, -41], [-185, 1189], [-497, -335], [-461, 749], [-317, 1752], [-822, 772], [17, 1670], [-367, 699], [225, 898], [-564, 449], [-235, 990], [2209, 1880], [874, -892], [492, 1129], [-173, 506], [339, 1249], [735, 774], [343, 2029], [1538, -687], [347, 445], [587, -253], [388, 2036], [806, 1926], [0, -100]], [[42797, 49844], [-10, -428], [-195, 459], [192, -28], [13, -3]], [[42418, 50385], [1, 1], [-1, -1]], [[56370, 63424], [956, 294], [-443, -2047], [749, -255], [199, -2033], [705, -649], [77, -2068], [-1142, -1252], [-7, -2112], [-545, -708], [548, -1730], [511, -333], [322, 739], [350, -96], [-222, -1349], [-869, -1475], [-339, -1249], [173, -506], [-492, -1129], [-874, 892], [-2856, -2051], [-262, 707], [-891, -74], [-117, 879], [-814, 792], [189, 944], [-364, -1121], [-575, -367], [139, 890], [-422, 1672], [-1287, -344], [-331, 1959], [-144, -1645], [-2575, 2346], [-914, -1634], [157, 1413], [-636, 868], [182, -281], [-502, -96], [-89, 1252], [335, 1031], [-344, 2181], [-426, 1111], [-697, 455], [576, 1383], [13, 959], [2512, 835], [273, -384], [1094, 1403], [540, -526], [693, 316], [929, 1033], [285, 981], [489, -1276], [-418, -1303], [-66, -1762], [1420, 473], [382, -1328], [134, 1478], [-309, 1111], [401, 1136], [1017, -94], [473, 754], [2300, 572], [48, 878], [791, -457], [10, -3]], [[55916, 75759], [575, -510], [899, -2625], [1203, -1674], [731, 1326], [645, 245], [-8, 802], [464, -460], [691, 671], [-498, 780], [993, 33], [-208, -2217], [339, -134], [48, -699], [954, -551], [374, -1620], [945, 184], [502, -720], [241, -1965], [2280, 138], [991, -1009], [-147, -1247], [-491, -664], [-106, -2448], [-921, -2052], [79, -672], [-481, -1367], [155, -900], [-1567, -2958], [-1222, 990], [-1264, -20], [-1005, -3760], [-585, 255], [-347, -445], [-1721, 892], [-476, -827], [-859, 890], [-197, 1280], [542, 601], [7, 2112], [1142, 1252], [-25, 1236], [-72, 885], [-466, 120], [-145, 1236], [-371, 320], [98, 953], [-749, 255], [443, 2047], [-956, -294], [-801, 460], [-48, -878], [-2300, -572], [-473, -754], [-1017, 94], [-401, -1136], [309, -1111], [-134, -1478], [-382, 1328], [-1406, -502], [52, 1791], [418, 1303], [-327, 1089], [438, 1024], [97, 2046], [449, 684], [-350, 1448], [312, 1190], [766, 56], [396, 650], [0, 1585], [955, -677], [-269, 973], [291, 1274], [544, -368], [189, 894], [1196, 393], [105, 1437], [935, 96], [2, -4]], [[31972, 41428], [0, 0], [0, 0]], [[42169, 43644], [-9, 34], [9, -34]], [[36345, 43842], [334, -319], [-142, -342], [-385, 119], [191, 543], [2, -1]], [[33051, 43375], [-249, 541], [377, -9], [-126, -529], [-2, -3]], [[42418, 44323], [29, 451], [-25, -450], [-4, -1]], [[41780, 44985], [22, 19], [-22, -19]], [[29420, 49378], [73, -494], [-320, 152], [238, 333], [9, 9]], [[35739, 55193], [4, 4], [-4, -4]], [[31413, 55397], [-294, -1029], [-352, 215], [611, 382], [-292, 669], [454, 225], [-141, -414], [14, -48]], [[39642, 56898], [2, 0], [-2, 0]], [[31520, 56288], [-255, 631], [256, -631], [-1, 0]], [[39654, 56909], [244, 895], [264, -196], [-233, -1171], [-164, 571], [-111, -99]], [[33386, 57915], [37, -1604], [-234, -28], [-228, 1358], [424, 276], [1, -2]], [[39642, 56898], [14, -1635], [-779, -611], [780, -703], [-10, -2071], [556, -1631], [-406, -468], [779, -427], [-164, -473], [514, -364], [-134, -1585], [541, 315], [-74, -1574], [417, -915], [-524, -1059], [1212, -1449], [-193, -494], [321, -1139], [-589, -878], [222, -1002], [-1760, 2092], [-491, -125], [-179, -810], [-649, 346], [-541, 905], [312, 1289], [308, 113], [-1608, 66], [26, 2178], [-319, 296], [366, 1497], [-78, 1429], [407, 471], [-519, 665], [-6, 3913], [-644, 1492], [-125, 1321], [555, -183], [-35, 1389], [1749, 1281], [726, -1468], [22, 6]], [[0, 58419], [0, 5], [0, -5]], [[1526, 59022], [222, -630], [-406, 357], [109, 396], [75, -123]], [[813, 59296], [-76, 420], [79, -419], [-3, -1]], [[25857, 60597], [-4, 7], [4, -7]], [[8064, 60154], [229, -140], [-341, -216], [78, 403], [34, -47]], [[27743, 61165], [-1, 2], [1, -2]], [[7404, 60713], [-489, 281], [139, 395], [350, -676], [0, 0]], [[22132, 61472], [38, 34], [-38, -34]], [[13383, 62858], [0, 0], [0, 0]], [[23506, 63348], [-6, 63], [6, -63]], [[15018, 63358], [163, -427], [-239, 366], [76, 61]], [[9618, 63250], [0, 1], [0, -1]], [[30770, 63850], [0, 0], [0, 0]], [[28206, 65258], [69, -447], [567, 315], [68, -931], [-861, -679], [153, 1554], [-541, -589], [533, 831], [12, -54]], [[25709, 65680], [233, -1089], [-322, -707], [-1383, -455], [-183, 382], [1662, 1135], [-6, 735], [-1, -1]], [[27062, 66656], [2, 1], [-2, -1]], [[27316, 67052], [0, 0], [0, 0]], [[28506, 68644], [-3, -26], [3, 26]], [[19301, 68587], [-1, 0], [1, 0]], [[29305, 71345], [39, -617], [-50, 603], [11, 14]], [[29305, 71345], [7, 10], [-7, -10]], [[28590, 75603], [-190, 353], [211, -349], [-21, -4]], [[36758, 81449], [-328, 169], [331, -165], [-3, -4]], [[28962, 84748], [0, 0], [0, 0]], [[29778, 87564], [0, 1], [0, -1]], [[36472, 88175], [222, 726], [-169, -720], [-53, -6]], [[28506, 68644], [-1043, -1445], [691, 3676], [-573, 432], [-11, 1041], [-489, 767], [1130, 253], [-221, 1064], [383, -320], [341, 688], [-161, 417], [347, 729], [-320, 476], [525, 203], [-223, 556], [308, -41], [233, 912], [-725, 1037], [449, 30], [-275, 707], [309, -210], [143, 480], [86, -643], [508, -89], [-226, -932], [391, -539], [-126, -1190], [577, 105], [-108, 649], [319, 470], [-618, 675], [1101, 2143], [-391, 1081], [-312, -39], [373, 929], [-637, 821], [918, 231], [252, 1502], [457, -494], [1691, 1334], [1371, -1491], [762, 303], [-396, 551], [477, 2043], [-453, 3127], [61, 577], [895, 823], [-41, -988], [-564, -449], [868, -617], [-409, -1270], [379, -1170], [-442, -954], [906, -1469], [2, -1043], [542, -79], [-836, -700], [-429, -2200], [-411, -626], [-108, -902], [1128, -519], [-80, -416], [-1550, -715], [-98, -670], [389, -367], [106, -1452], [646, 1526], [653, -44], [195, 524], [598, -443], [961, -2274], [-325, -1108], [-40, -2029], [-499, -1229], [323, -171], [114, -946], [54, -4644], [615, -5094], [-310, -571], [-873, -1], [-1023, -2787], [-338, 649], [-700, -978], [-433, 835], [270, 775], [-272, 1830], [271, -652], [433, 483], [149, 1664], [-796, 3061], [-896, -7], [-201, 2046], [565, 890], [-121, 2142], [421, 284], [-455, 32], [-879, -1518], [-785, 400], [194, -1397], [-403, -724], [-1021, -181], [-621, -1727], [-2085, 473], [-272, 2150], [781, 473], [-161, 282], [353, 568], [1531, -1086], [876, 496], [272, 827], [-400, 689], [-753, -522], [513, 860], [71, 934], [-721, -252], [-660, 751], [118, 622], [-602, 372], [-1504, -299], [433, -557], [103, -1086], [-484, -840], [-22, -264]]]}