{"type": "Topology", "transform": {"scale": [2.18397776683328e-05, 1.0546947102044086e-05], "translate": [124.60971767835858, 36.92685169433868]}, "objects": {"collection": {"type": "GeometryCollection", "geometries": [{"type": "MultiPolygon", "arcs": [[[0]], [[1]], [[2]], [[3]], [[4]], [[5]], [[6]], [[7]], [[8]], [[9]], [[10]], [[11]], [[12]], [[13]]], "properties": {"name": "\uc911\uad6c", "base_year": "2018", "name_eng": "Jung-gu", "code": "23010"}}, {"type": "MultiPolygon", "arcs": [[[14]]], "properties": {"name": "\ub3d9\uad6c", "base_year": "2018", "name_eng": "Dong-gu", "code": "23020"}}, {"type": "MultiPolygon", "arcs": [[[15]]], "properties": {"name": "\ub0a8\uad6c", "base_year": "2018", "name_eng": "Nam-gu", "code": "23030"}}, {"type": "MultiPolygon", "arcs": [[[16]], [[17]], [[18], [19]]], "properties": {"name": "\uc5f0\uc218\uad6c", "base_year": "2018", "name_eng": "Yeonsu-gu", "code": "23040"}}, {"type": "MultiPolygon", "arcs": [[[20]]], "properties": {"name": "\ub0a8\ub3d9\uad6c", "base_year": "2018", "name_eng": "Namdong-gu", "code": "23050"}}, {"type": "MultiPolygon", "arcs": [[[21]]], "properties": {"name": "\ubd80\ud3c9\uad6c", "base_year": "2018", "name_eng": "Bupyeong-gu", "code": "23060"}}, {"type": "MultiPolygon", "arcs": [[[22]]], "properties": {"name": "\uacc4\uc591\uad6c", "base_year": "2018", "name_eng": "Gyeyang-gu", "code": "23070"}}, {"type": "MultiPolygon", "arcs": [[[23]], [[24]], [[25]]], "properties": {"name": "\uc11c\uad6c", "base_year": "2018", "name_eng": "Seo-gu", "code": "23080"}}, {"type": "MultiPolygon", "arcs": [[[26]], [[27]], [[28]], [[29]], [[30]], [[31]], [[32]], [[33]], [[34]], [[35]], [[36]], [[37]], [[38]], [[39]], [[40]]], "properties": {"name": "\uac15\ud654\uad70", "base_year": "2018", "name_eng": "Ganghwa-gun", "code": "23310"}}, {"type": "MultiPolygon", "arcs": [[[41]], [[42]], [[43]], [[44]], [[45]], [[46]], [[47]], [[48]], [[49]], [[50]], [[51]], [[52]], [[53]], [[54]], [[55]], [[56]], [[57]], [[58]], [[59]], [[60]], [[61]], [[62]], [[63]], [[64]], [[65]], [[66]], [[67]], [[68]], [[69]], [[70]], [[71]], [[72]], [[73]], [[74]], [[75]], [[76]], [[77]], [[78]], [[79]], [[80]], [[81]], [[82]], [[83]], [[84]], [[85]], [[86]], [[87]], [[88]], [[89]], [[90]], [[91]], [[92]], [[93]], [[94]], [[95]], [[96]], [[97]], [[98]], [[99]], [[100]], [[101]], [[102]], [[103]], [[104]], [[105]], [[106]], [[107]], [[108]], [[109]], [[110]], [[111]], [[112]], [[113]], [[114]], [[115]], [[116]]], "properties": {"name": "\uc639\uc9c4\uad70", "base_year": "2018", "name_eng": "Ongjin-gun", "code": "23320"}}]}}, "arcs": [[[87171, 41030], [1, 1], [-1, -1]], [[83895, 41271], [-6, 5], [6, -5]], [[83956, 42023], [38, 490], [-2, -477], [-36, -13]], [[83719, 45344], [-2, 0], [2, 0]], [[81519, 44455], [151, 972], [-150, -972], [-1, 0]], [[82615, 45745], [1270, -2591], [-322, -24], [265, -328], [-308, -904], [-937, -230], [-300, 601], [67, 1355], [-569, 530], [404, 1677], [276, 108], [154, -194]], [[82764, 46889], [-24, -16], [24, 16]], [[82764, 46889], [73, 51], [-73, -51]], [[80094, 50062], [-77, 150], [77, -150]], [[91365, 52458], [536, 323], [1217, -1475], [-642, -1484], [137, -2121], [-992, -28], [159, 734], [-290, 348], [496, 343], [-369, 310], [148, 489], [-586, -1400], [-310, -3], [-40, 1568], [449, 179], [-563, 494], [174, -458], [260, 796], [135, -517], [1071, 156], [-572, 460], [495, 0], [-579, 1005], [-290, -1029], [-486, 325], [417, 1097], [25, -112]], [[90739, 53999], [-263, 158], [289, -119], [-26, -39]], [[82837, 46940], [-254, 1260], [-313, 317], [-297, -450], [182, 547], [-404, 614], [-657, -1050], [-191, 627], [-580, 54], [349, 489], [-712, 2105], [835, 263], [2018, 2343], [2542, 202], [911, 794], [350, 2562], [2906, -1912], [804, -2387], [-821, -933], [-2664, -1294], [-956, -2013], [-1949, -2226], [-1066, 103], [-33, -15]], [[86622, 58236], [-2, 1], [2, -1]], [[90083, 57915], [-85, -778], [321, -569], [-320, 400], [0, -618], [-789, -4], [-295, 679], [-366, -441], [1059, 1605], [444, 287], [31, -560], [0, -1]], [[92795, 53953], [1741, -1923], [-887, 799], [-101, -1303], [-463, -189], [-1054, 1666], [-365, -226], [-84, 371], [751, 487], [526, -970], [-470, 1047], [345, 206], [61, 35]], [[94525, 52034], [1058, -1363], [-184, -1386], [446, -328], [-349, -433], [110, -477], [-1004, -307], [-926, 477], [-1063, -516], [-137, 2121], [609, 1515], [463, 189], [101, 1303], [875, -794], [1, -1]], [[91048, 46385], [-102, 33], [102, -33]], [[90946, 46418], [-287, 282], [1, 677], [284, -947], [2, -12]], [[91048, 46385], [451, 1020], [1134, 8], [84, -838], [-53, 1323], [1226, 317], [1158, -488], [890, 829], [-44, -1334], [-1702, -3100], [1318, -851], [-1421, -3150], [-1033, -277], [551, -329], [-1433, -172], [-429, 528], [-143, -941], [-208, -11], [165, 581], [-1314, -582], [715, 941], [-610, -4], [-2, 724], [2570, 15], [-782, -33], [-49, -660], [941, 5], [462, 487], [-402, 200], [536, 88], [-1753, 2235], [-369, 1376], [75, 2106], [-517, -17], [-12, 4]], [[93538, 40450], [-373, -568], [843, 319], [-448, 298], [-22, -49]], [[96799, 51490], [328, 293], [994, -777], [1169, 662], [103, -1594], [-447, -617], [-67, -1988], [-731, -455], [-79, -1131], [-1577, -2813], [-2300, 1052], [1759, 3324], [-106, 1511], [-446, 328], [184, 1386], [-504, 1042], [780, -436], [349, 1162], [581, -948], [10, -1]], [[98471, 56626], [-101, -785], [-557, -57], [-197, -605], [36, -2077], [1158, -1461], [-991, -642], [-692, 784], [-412, -274], [-507, 930], [-349, -1162], [-871, 558], [371, 1095], [332, 29], [-747, 2998], [271, 620], [2732, 39], [524, 10]], [[97507, 63146], [592, -1245], [709, 807], [1192, -629], [-813, -1554], [87, -500], [-612, -433], [-191, -2966], [-3256, -49], [-306, 822], [466, 844], [626, 72], [259, 1015], [-565, 569], [45, 1257], [-807, 511], [-51, 608], [1447, -572], [400, 1236], [768, 274], [10, -67]], [[90509, 58979], [-2, 2], [2, -2]], [[89116, 61828], [712, -619], [-579, 34], [-134, 586], [1, -1]], [[96876, 63054], [-547, -1351], [-1449, 563], [53, -599], [807, -511], [-45, -1257], [565, -569], [-259, -1015], [-626, -72], [-466, -844], [306, -822], [-272, -739], [408, -1337], [-148, -294], [488, -1248], [-435, -213], [-198, -1097], [-2093, 2275], [-27, 819], [-1598, -791], [-367, 4999], [479, 556], [-842, 900], [-631, 2312], [1809, 1701], [522, -350], [524, 2286], [454, 73], [316, 1018], [1853, -1695], [502, -785], [-35, -908], [430, 130], [468, -1001], [54, -134]], [[62506, 64489], [6, 64], [-6, -64]], [[76004, 68678], [34, 82], [-34, -82]], [[74496, 68953], [893, -218], [-242, -1327], [538, -1173], [-1329, 1362], [-497, 1322], [637, 35], [0, -1]], [[74381, 69659], [-17, 5], [17, -5]], [[72597, 71866], [674, -1714], [-223, -927], [-693, 59], [-223, 954], [-792, -67], [-587, 937], [1844, 775], [0, -17]], [[80790, 72446], [-230, 264], [255, -207], [-25, -57]], [[70008, 71967], [260, -411], [-799, 39], [-93, 933], [610, -555], [22, -6]], [[78726, 74562], [-59, 50], [59, -50]], [[73360, 74995], [-60, 474], [104, -433], [-44, -41]], [[75015, 75059], [-1357, 172], [638, 1230], [565, -1304], [154, -98]], [[75941, 75914], [-478, -172], [260, 1084], [185, -565], [33, -347]], [[76553, 77707], [23, 36], [-23, -36]], [[78752, 77699], [-511, -1549], [42, -1652], [1075, -1434], [1074, -271], [577, -1271], [-264, -1457], [-1514, -2060], [-662, 1184], [141, 1288], [-452, 1117], [-2254, 2678], [822, 359], [69, 2717], [1323, 928], [538, -534], [-4, -43]], [[75855, 84236], [1298, -1283], [1502, 387], [173, -1534], [-749, -1514], [-1104, -1026], [-557, 570], [-1392, -311], [-710, -1376], [-1273, 1654], [789, 1743], [47, 1718], [792, 1163], [1099, 46], [85, -237]], [[83748, 85121], [773, -1529], [2301, -2385], [259, -1991], [681, -1396], [-635, -2904], [586, -1432], [-385, -2573], [701, -917], [-429, -836], [182, -842], [-220, -116], [607, -2271], [219, 221], [177, -588], [-1081, -724], [-241, -1312], [398, 100], [-266, -554], [377, -514], [-460, -642], [-595, 1004], [475, 288], [-28, 557], [-403, -291], [-1121, 852], [-816, -1517], [-2602, 440], [-1581, 1755], [324, 648], [-155, 1089], [-387, 409], [1466, 473], [610, 1136], [-339, 2251], [-713, 1344], [150, 538], [-1471, 752], [-360, 1128], [27, 2336], [233, 92], [-344, 4612], [1714, 1644], [253, 1535], [980, -129], [588, 917], [503, -483], [48, -175]], [[53883, 0], [14, 10], [-14, -10]], [[55314, 3272], [49, 619], [-49, -619], [0, 0]], [[55754, 3702], [0, 1], [0, -1]], [[64710, 10234], [1, 0], [-1, 0]], [[63045, 10769], [360, -316], [-48, -925], [489, 182], [-168, -438], [959, 572], [-1192, -1237], [-761, 1532], [360, 631], [1, -1]], [[64934, 10722], [0, 0], [0, 0]], [[62215, 12471], [1, 1], [-1, -1]], [[63424, 13202], [251, -641], [-308, -130], [55, 774], [2, -3]], [[61095, 13032], [-38, 408], [39, -407], [-1, -1]], [[63342, 13320], [38, 64], [-38, -64]], [[64398, 13228], [-210, -116], [279, 1248], [-68, -1124], [-1, -8]], [[64267, 14299], [56, 14], [-56, -14]], [[63143, 14541], [4, 3], [-4, -3]], [[63679, 14842], [-384, -153], [384, 156], [0, -3]], [[63697, 15183], [3, 1], [-3, -1]], [[61778, 15377], [375, -446], [-683, 161], [-104, -1802], [-406, 1343], [390, 1148], [413, -390], [15, -14]], [[67594, 16999], [136, -924], [-601, -1165], [-615, 458], [220, 1724], [842, 5], [18, -98]], [[77403, 18839], [1, 0], [-1, 0]], [[64726, 19593], [-13, -799], [-215, 65], [215, 775], [13, -41]], [[77408, 20137], [285, -175], [-69, -547], [-257, 768], [41, -46]], [[64780, 19691], [-74, 638], [74, -638], [0, 0]], [[76322, 20525], [-243, 526], [267, 166], [-24, -692], [0, 0]], [[78450, 21585], [-1, 1], [1, -1]], [[63796, 21531], [3, 6], [-3, -6]], [[64169, 21639], [-13, -651], [-239, 580], [252, 73], [0, -2]], [[77324, 23284], [608, -48], [544, -909], [-564, -354], [-927, 1109], [121, 471], [216, -269], [2, 0]], [[81980, 23471], [1, 0], [-1, 0]], [[75448, 24050], [614, -453], [100, -1017], [460, -272], [-176, -447], [-547, 966], [-1089, 606], [633, 617], [5, 0]], [[73864, 24156], [237, 539], [962, -350], [-1320, -458], [-174, 978], [273, -705], [22, -4]], [[68469, 24167], [447, -124], [-305, -373], [217, -605], [-205, -411], [-691, 176], [-387, 827], [474, 1146], [442, -599], [8, -37]], [[73453, 24975], [49, 41], [-49, -41]], [[70078, 25585], [-93, 614], [94, -613], [-1, -1]], [[81140, 26530], [-6, 4], [6, -4]], [[63256, 25654], [260, -82], [-561, -430], [-62, -1013], [-215, 505], [-840, -194], [581, 395], [-59, 598], [640, -66], [-42, 901], [257, -612], [41, -2]], [[80863, 26441], [63, 18], [-63, -18]], [[80249, 26591], [-44, 487], [45, -487], [-1, 0]], [[72464, 27633], [-15, 17], [15, -17]], [[85054, 28059], [0, 0], [0, 0]], [[71608, 28280], [326, -1506], [628, -64], [-490, -1256], [-270, 1455], [-749, 143], [0, 921], [430, 530], [125, -223]], [[87459, 29199], [-1, -2], [1, 2]], [[87642, 29376], [-183, -177], [182, 178], [1, -1]], [[81332, 29755], [0, 0], [0, 0]], [[88904, 30053], [0, -1], [0, 1]], [[85732, 30088], [14, -60], [-14, 60]], [[88904, 30053], [-209, 148], [208, -142], [1, -6]], [[81666, 30112], [238, -305], [-344, -1], [130, 428], [-24, -122]], [[86601, 30932], [64, 73], [-64, -73]], [[87642, 29376], [57, 923], [-619, 672], [545, 752], [699, -2575], [-679, 223], [-3, 5]], [[76946, 32260], [1902, -1133], [166, 754], [597, -262], [-302, -974], [-1071, -529], [-1727, 1368], [199, 1208], [234, -432], [2, 0]], [[68603, 32754], [180, -1382], [296, 38], [-18, -993], [458, 411], [586, -1371], [1144, -472], [-1029, -982], [193, -795], [-1382, -439], [-324, 386], [268, 272], [-219, 708], [-462, -132], [55, 734], [-816, -749], [335, 898], [-125, 1286], [611, 1943], [-106, 616], [349, 24], [6, -1]], [[85732, 30088], [-1066, -1910], [-275, 658], [-959, 194], [64, 2345], [-218, 456], [349, 296], [-99, 812], [651, -212], [262, 485], [-161, 293], [913, 759], [1248, -1067], [-149, -630], [332, -1223], [-225, -359], [-482, 550], [28, -487], [-481, -77], [253, -825], [15, -58]], [[67339, 34421], [802, -1039], [-471, -319], [-547, 843], [182, 513], [34, 2]], [[76300, 36763], [-54, 85], [54, -85]], [[75724, 37652], [0, 2], [0, -2]], [[75852, 37363], [2, 10], [-2, -10]], [[75740, 37749], [217, 635], [-173, -620], [-44, -15]], [[78847, 54478], [16, 18], [-16, -18]], [[78438, 55258], [45, 67], [-45, -67]], [[82715, 57774], [4, 0], [-4, 0]], [[82715, 57774], [-337, -914], [-302, 412], [98, 460], [522, 42], [19, 0]], [[85268, 57896], [71, -832], [-311, -97], [134, -1492], [-266, -66], [-472, 731], [-697, -437], [-392, 473], [1238, 2380], [680, -659], [15, -1]], [[83446, 58606], [3, 0], [-3, 0]], [[83446, 58606], [440, -42], [-336, -183], [-413, -1988], [-440, 132], [290, 960], [-241, 296], [424, 1138], [249, -313], [27, 0]], [[76285, 58496], [-362, 557], [371, -556], [-9, -1]], [[75637, 59145], [-116, 618], [280, -585], [-164, -33]], [[79338, 60068], [-3, 2], [3, -2]], [[78244, 59659], [866, -503], [703, -1468], [1433, 357], [-124, -1126], [-976, 339], [-855, -476], [-236, 456], [-437, -822], [90, 1921], [-949, 1629], [450, -281], [35, -26]], [[50856, 64755], [-89, -588], [-517, 720], [391, 385], [221, -398], [-6, -119]], [[49068, 67328], [44, 59], [-44, -59]], [[50481, 68843], [16, 39], [-16, -39]], [[50329, 71285], [351, -406], [-448, -1056], [-640, -1068], [-392, 78], [67, 1301], [-348, 1211], [1384, -42], [26, -18]], [[7364, 80748], [-240, -1138], [-615, 416], [-1127, -838], [667, 1015], [-52, 513], [1370, 47], [-3, -15]], [[2321, 82637], [-28, 18], [28, -18]], [[4871, 85214], [0, 4], [1, 6], [-1, -10]], [[4871, 85214], [81, -1115], [-692, -863], [-561, 327], [-242, -822], [-260, 258], [201, 1102], [-981, 746], [642, -182], [518, 1572], [724, 663], [-12, 598], [1117, -859], [-584, -665], [37, -827], [12, 67]], [[3549, 99900], [1583, 100], [1082, -2284], [-563, 461], [-138, -474], [370, -339], [-655, 23], [-732, -894], [-512, -2529], [-2624, 569], [-623, 2891], [-647, 667], [-90, 810], [325, 908], [1088, -1027], [1387, 1170], [697, -13], [52, -39]]]}