{"type": "Topology", "transform": {"scale": [5.4033834764084075e-06, 4.081600178300988e-06], "translate": [128.7654142868828, 34.98087743166341]}, "objects": {"collection": {"type": "GeometryCollection", "geometries": [{"type": "MultiPolygon", "arcs": [[[0]]], "properties": {"name": "\uc911\uad6c", "base_year": "2018", "name_eng": "Jung-gu", "code": "21010"}}, {"type": "MultiPolygon", "arcs": [[[1]], [[2]]], "properties": {"name": "\uc11c\uad6c", "base_year": "2018", "name_eng": "Seo-gu", "code": "21020"}}, {"type": "MultiPolygon", "arcs": [[[3]]], "properties": {"name": "\ub3d9\uad6c", "base_year": "2018", "name_eng": "Dong-gu", "code": "21030"}}, {"type": "MultiPolygon", "arcs": [[[4]], [[5]]], "properties": {"name": "\uc601\ub3c4\uad6c", "base_year": "2018", "name_eng": "Yeongdo-gu", "code": "21040"}}, {"type": "MultiPolygon", "arcs": [[[6]]], "properties": {"name": "\ubd80\uc0b0\uc9c4\uad6c", "base_year": "2018", "name_eng": "Busanjin-gu", "code": "21050"}}, {"type": "MultiPolygon", "arcs": [[[7]]], "properties": {"name": "\ub3d9\ub798\uad6c", "base_year": "2018", "name_eng": "Dongnae-gu", "code": "21060"}}, {"type": "MultiPolygon", "arcs": [[[8]], [[9], [10]]], "properties": {"name": "\ub0a8\uad6c", "base_year": "2018", "name_eng": "Nam-gu", "code": "21070"}}, {"type": "MultiPolygon", "arcs": [[[11]]], "properties": {"name": "\ubd81\uad6c", "base_year": "2018", "name_eng": "Buk-gu", "code": "21080"}}, {"type": "MultiPolygon", "arcs": [[[12]]], "properties": {"name": "\ud574\uc6b4\ub300\uad6c", "base_year": "2018", "name_eng": "Haeundae-gu", "code": "21090"}}, {"type": "MultiPolygon", "arcs": [[[13]], [[14]], [[15]], [[16]]], "properties": {"name": "\uc0ac\ud558\uad6c", "base_year": "2018", "name_eng": "Saha-gu", "code": "21100"}}, {"type": "MultiPolygon", "arcs": [[[17]]], "properties": {"name": "\uae08\uc815\uad6c", "base_year": "2018", "name_eng": "Geumjeong-gu", "code": "21110"}}, {"type": "MultiPolygon", "arcs": [[[18]], [[19]], [[20]], [[21]], [[22]], [[23]], [[24]], [[25]], [[26]], [[27]], [[28]]], "properties": {"name": "\uac15\uc11c\uad6c", "base_year": "2018", "name_eng": "Gangseo-gu", "code": "21120"}}, {"type": "MultiPolygon", "arcs": [[[29]]], "properties": {"name": "\uc5f0\uc81c\uad6c", "base_year": "2018", "name_eng": "Yeonje-gu", "code": "21130"}}, {"type": "MultiPolygon", "arcs": [[[30]]], "properties": {"name": "\uc218\uc601\uad6c", "base_year": "2018", "name_eng": "Suyeong-gu", "code": "21140"}}, {"type": "MultiPolygon", "arcs": [[[31]]], "properties": {"name": "\uc0ac\uc0c1\uad6c", "base_year": "2018", "name_eng": "Sasang-gu", "code": "21150"}}, {"type": "MultiPolygon", "arcs": [[[32]]], "properties": {"name": "\uae30\uc7a5\uad70", "base_year": "2018", "name_eng": "Gijang-gun", "code": "21310"}}]}}, "arcs": [[[49491, 33144], [2589, -2304], [-1204, 67], [608, -891], [-1003, 238], [-147, -1886], [-2036, -240], [-747, 2900], [1843, 2183], [97, -67]], [[46127, 17018], [-12, 3], [12, -3]], [[44152, 38881], [4006, -959], [458, -5531], [-1280, -2411], [962, -1852], [-329, -4741], [-1428, -499], [1006, -3042], [-2174, -2497], [-1133, 6555], [1243, -406], [581, 3964], [-2874, 6575], [1025, 4070], [-1535, 978], [1049, 76], [423, -280]], [[52685, 39862], [2674, -530], [45, -3487], [-1613, -2243], [-129, 1787], [-986, -430], [978, -1849], [-1489, 137], [-171, -2162], [-3500, 1908], [-336, 4929], [3846, 2450], [681, -510]], [[61562, 23958], [646, 61], [-646, -61]], [[54905, 29494], [3178, -4710], [731, 913], [-733, -1043], [772, -1555], [2329, 1275], [-2966, -2199], [2897, -2788], [-463, -1880], [-1930, -456], [-989, 2413], [-2259, 260], [-105, 1790], [-5585, 4001], [-549, 2184], [5862, 2310], [-190, -515]], [[51581, 53549], [1324, -3565], [5650, -3185], [43, -4021], [-3522, -1660], [283, -1786], [-4322, 1163], [-1406, -2203], [-3276, -279], [-984, 9197], [2770, 5021], [2647, 1474], [793, -156]], [[57902, 59961], [1663, -919], [-620, -1138], [4872, -1732], [1073, -2206], [-175, -4285], [-6392, 3845], [-3652, -1887], [-3090, 1910], [2733, 6208], [3576, 226], [12, -22]], [[63265, 25711], [1100, 1289], [-1100, -1289]], [[61073, 44207], [1247, -4562], [2204, -1689], [-952, -724], [1645, -179], [-933, -1749], [1435, 2183], [1566, -3849], [-912, -4635], [-2052, 910], [-650, -2801], [213, 2238], [-2030, -2325], [-1235, 4432], [-483, -1385], [-4597, 1354], [1533, 1867], [-1566, 1500], [-430, 6325], [5662, 2829], [335, 260]], [[61821, 27115], [706, 449], [-823, 492], [117, -941]], [[49862, 72370], [2343, -502], [-2023, -3310], [2217, -1336], [339, -3431], [-1122, -2587], [3231, -1186], [-3266, -6469], [-4267, -2933], [-2577, 289], [-3564, 1777], [1642, 9843], [3095, 9231], [3183, 765], [769, -151]], [[72111, 62717], [2589, -2224], [-1656, -5238], [4474, -2250], [98, -1892], [1861, 2214], [2215, -388], [295, -3668], [-1849, -1266], [-748, -4069], [-2400, -1337], [-3193, 1036], [-2635, -1863], [615, 1632], [-1284, -1136], [-3755, 2926], [-2921, 10978], [1654, 1052], [-307, 2337], [1757, 773], [3254, 5832], [2179, -1635], [-223, -1412], [-20, -402]], [[41624, 0], [-3, 3], [3, -3]], [[38637, 12316], [-552, -932], [549, 938], [3, -6]], [[34804, 19873], [119, -1560], [-1582, 1531], [852, -1809], [-2286, -42], [2944, -283], [486, -1546], [-5928, 1870], [2180, -973], [-1091, 1915], [2606, 3972], [1678, -3012], [22, -63]], [[35881, 16969], [-1659, 7751], [1057, 6043], [-1336, 169], [-2969, -8092], [-787, 1055], [1935, 7246], [-761, 960], [4542, 6058], [5, -4635], [7460, 1361], [2705, -7898], [-590, -3489], [-1243, 406], [-175, 1885], [-420, -1547], [-1514, 1010], [857, -6501], [687, -2216], [1031, 142], [-2680, -912], [-764, 3122], [-2884, -267], [1845, -1337], [-2410, -986], [1528, -1761], [-2293, -1903], [379, 2774], [-1556, 1560], [10, 2]], [[64567, 79017], [3091, -2431], [-1658, -7731], [3186, -339], [989, -2350], [-3254, -5832], [-1757, -773], [307, -2337], [-2601, -1018], [-3925, 1698], [620, 1138], [-1687, 963], [-6262, 1199], [1122, 2587], [-339, 3431], [-2217, 1336], [4034, 8362], [2943, -998], [3014, 3102], [3810, 169], [584, -176]], [[673, 8525], [1350, -1225], [-2023, 348], [671, 881], [2, -4]], [[14874, 19252], [105, 212], [-105, -212]], [[26986, 19799], [1596, -1], [-549, -1347], [-1929, 904], [865, 446], [17, -2]], [[23419, 19774], [5123, -1637], [-521, -807], [-4616, 2448], [14, -4]], [[4546, 21431], [101, 75], [-101, -75]], [[20903, 20271], [-3796, 1230], [1937, 873], [3195, -898], [-1309, -1204], [-27, -1]], [[14979, 19464], [-1765, 1725], [129, 1822], [3872, -2491], [-2225, -1040], [-11, -16]], [[25952, 22376], [11, 13], [-11, -13]], [[28993, 23707], [-3516, -1644], [3509, 1664], [7, -20]], [[14874, 19252], [1002, -4266], [-3013, -6486], [921, -4435], [-2225, -2162], [423, 1458], [-1545, 1], [-673, 2385], [1676, 2275], [-3884, 1865], [1703, 1300], [-1468, 1266], [909, 1957], [-2762, 2354], [1078, 1482], [-2289, -476], [-4, 2023], [7672, 2365], [-2, 1543], [-3861, -7], [-2, 1323], [3182, 1711], [1196, -873], [-461, -7010], [1067, -1002], [1315, 1317], [45, 92]], [[10229, 28456], [3872, 2180], [251, 1773], [-1849, 4112], [-5708, 2930], [-1408, 4076], [6108, -722], [7377, 2971], [872, -1250], [-1280, -1085], [1874, -1720], [-165, 1814], [1291, 678], [-1673, 2680], [1628, -106], [98, 2538], [-2096, 4742], [1598, 2067], [5435, 1659], [177, 1514], [2002, -1598], [3803, 2719], [6089, -39], [4290, 2136], [-534, -6853], [-5600, -5782], [-736, -11727], [-4981, -6492], [-469, -4269], [-3141, -1245], [-375, -2134], [-2953, -3], [1923, 9589], [-1480, 547], [-2503, -10039], [-2749, 502], [284, 1786], [-472, -1331], [-5432, -284], [-3365, 3670], [-3, -4]], [[60178, 51991], [4554, -2335], [-705, -1881], [-2645, 664], [-1020, -3208], [711, -1024], [-2327, -769], [-789, 4229], [-2955, 471], [-2829, 3629], [5710, 1786], [1899, -1479], [396, -83]], [[64714, 50318], [3677, -7633], [-3055, -614], [-125, -2976], [-1213, -1148], [-3636, 7284], [1020, 3208], [2645, -664], [688, 1906], [-1, 637]], [[41173, 52682], [6141, -2066], [-1943, -3406], [1051, -7403], [-754, -1439], [-2988, 717], [1535, -978], [-847, -3222], [-2368, 234], [-1274, -1742], [-4049, 432], [1004, 16081], [4628, 3302], [-136, -510]], [[83482, 97626], [9073, 1910], [3092, -5346], [500, -3575], [-975, -2293], [3752, -1324], [1076, -2774], [-420, 1246], [-302, -2325], [-1924, -536], [-1991, 2078], [-3464, -2717], [-1181, -9949], [-4046, -3341], [3406, -242], [239, -3372], [-1644, -535], [991, -850], [-1266, -625], [-699, -4182], [-2226, 762], [-974, -2855], [1523, -3528], [-1134, -3043], [-2901, -939], [-295, 3668], [-2215, 388], [-1861, -2214], [-98, 1892], [-4474, 2250], [1656, 5238], [-2527, 1983], [181, 2055], [-3342, 2455], [174, 1530], [-3186, 339], [1458, 8684], [-3952, 1769], [4817, 11483], [-3038, 4308], [5913, -1249], [4815, -3072], [4186, 3699], [-956, 3821], [1068, 1702], [2258, -2023], [913, -351]]]}