{"type": "Topology", "transform": {"scale": [2.270634288924029e-05, 1.5855856885547865e-05], "translate": [127.09503732073851, 37.02810180273291]}, "objects": {"collection": {"type": "GeometryCollection", "geometries": [{"type": "MultiPolygon", "arcs": [[[0]]], "properties": {"name": "\ucd98\ucc9c\uc2dc", "base_year": "2018", "name_eng": "Chuncheon-si", "code": "32010"}}, {"type": "MultiPolygon", "arcs": [[[1]]], "properties": {"name": "\uc6d0\uc8fc\uc2dc", "base_year": "2018", "name_eng": "Wonju-si", "code": "32020"}}, {"type": "MultiPolygon", "arcs": [[[2]], [[3]]], "properties": {"name": "\uac15\ub989\uc2dc", "base_year": "2018", "name_eng": "Gangneung-si", "code": "32030"}}, {"type": "MultiPolygon", "arcs": [[[4]], [[5], [6]]], "properties": {"name": "\ub3d9\ud574\uc2dc", "base_year": "2018", "name_eng": "Donghae-si", "code": "32040"}}, {"type": "MultiPolygon", "arcs": [[[7]]], "properties": {"name": "\ud0dc\ubc31\uc2dc", "base_year": "2018", "name_eng": "Taebaek-si", "code": "32050"}}, {"type": "MultiPolygon", "arcs": [[[8]], [[9]], [[10]], [[11]]], "properties": {"name": "\uc18d\ucd08\uc2dc", "base_year": "2018", "name_eng": "Sokcho-si", "code": "32060"}}, {"type": "MultiPolygon", "arcs": [[[12]], [[13]]], "properties": {"name": "\uc0bc\ucc99\uc2dc", "base_year": "2018", "name_eng": "Samcheok-si", "code": "32070"}}, {"type": "MultiPolygon", "arcs": [[[14]]], "properties": {"name": "\ud64d\ucc9c\uad70", "base_year": "2018", "name_eng": "Hongcheon-gun", "code": "32310"}}, {"type": "MultiPolygon", "arcs": [[[15]]], "properties": {"name": "\ud6a1\uc131\uad70", "base_year": "2018", "name_eng": "Hoengseong-gun", "code": "32320"}}, {"type": "MultiPolygon", "arcs": [[[16]]], "properties": {"name": "\uc601\uc6d4\uad70", "base_year": "2018", "name_eng": "Yeongwol-gun", "code": "32330"}}, {"type": "MultiPolygon", "arcs": [[[17]]], "properties": {"name": "\ud3c9\ucc3d\uad70", "base_year": "2018", "name_eng": "Pyeongchang-gun", "code": "32340"}}, {"type": "MultiPolygon", "arcs": [[[18]]], "properties": {"name": "\uc815\uc120\uad70", "base_year": "2018", "name_eng": "Jeongseon-gun", "code": "32350"}}, {"type": "MultiPolygon", "arcs": [[[19]]], "properties": {"name": "\ucca0\uc6d0\uad70", "base_year": "2018", "name_eng": "Gongju-si", "code": "32360"}}, {"type": "MultiPolygon", "arcs": [[[20]]], "properties": {"name": "\ud654\ucc9c\uad70", "base_year": "2018", "name_eng": "Hwacheon-gun", "code": "32370"}}, {"type": "MultiPolygon", "arcs": [[[21]]], "properties": {"name": "\uc591\uad6c\uad70", "base_year": "2018", "name_eng": "Yanggu-gun", "code": "32380"}}, {"type": "MultiPolygon", "arcs": [[[22]]], "properties": {"name": "\uc778\uc81c\uad70", "base_year": "2018", "name_eng": "Inje-gun", "code": "32390"}}, {"type": "MultiPolygon", "arcs": [[[23]], [[24]], [[25]]], "properties": {"name": "\uace0\uc131\uad70", "base_year": "2018", "name_eng": "Goseong-gun", "code": "32400"}}, {"type": "MultiPolygon", "arcs": [[[26]], [[27]], [[28]]], "properties": {"name": "\uc591\uc591\uad70", "base_year": "2018", "name_eng": "Yangyang-gun", "code": "32410"}}]}}, "arcs": [[[21582, 66381], [999, -565], [-104, -670], [804, -599], [1248, 186], [-172, -1331], [265, -603], [741, 694], [1290, 212], [586, -900], [522, 76], [325, 663], [638, 240], [1002, -732], [802, -2116], [1102, 591], [610, -182], [145, 479], [1221, 659], [-393, 1100], [263, 1012], [1050, -313], [1043, 208], [61, -1281], [1339, -1042], [461, 288], [91, 817], [371, 463], [1384, -830], [-133, -960], [418, -547], [865, 1097], [733, -275], [-630, -1136], [-1377, -497], [20, -1436], [-307, -563], [430, -331], [331, -989], [-492, -802], [119, -701], [-673, -858], [76, -1023], [-1001, -1215], [-312, -975], [138, -421], [-532, -882], [-1248, 1408], [116, 380], [-777, 484], [-623, -418], [-318, -1257], [-927, -59], [-1151, 633], [-292, -295], [-82, -486], [616, -808], [-120, -1401], [808, -540], [582, -1282], [-711, -831], [198, -425], [-550, -511], [-811, 443], [-838, -843], [-575, 461], [-1193, -621], [-517, 578], [-1850, -1582], [-945, -327], [203, -596], [-278, -427], [-1105, 276], [-142, -1215], [-303, 5], [-50, 902], [-259, 230], [-419, -221], [-136, -857], [-456, -350], [-210, 77], [74, 1501], [-651, 215], [-57, 1082], [-873, 721], [-1475, -832], [-681, 442], [-569, -678], [-206, 986], [1663, 1811], [-1060, 2048], [729, 1135], [-562, 912], [120, 723], [1584, 1260], [643, 1108], [1135, 33], [594, 2007], [-221, 919], [169, 629], [-592, 973], [-3, 547], [-2561, 907], [126, 561], [-321, 1406], [215, 1195], [841, 156], [651, 1121], [-200, 703], [241, 306], [-613, 753], [-3, 965], [746, -65], [113, -85]], [[37025, 29283], [-126, -338], [723, -2057], [691, -224], [801, 537], [857, -161], [607, -693], [1872, -46], [1635, -2200], [-1064, -1159], [216, -1143], [-181, -399], [-1014, -89], [-497, -753], [-207, -1361], [644, -1353], [2618, -737], [391, -1708], [2061, 104], [635, 353], [43, 779], [761, 350], [896, -895], [-346, -2164], [-1519, -1028], [-45, -854], [-378, -354], [-1725, 1330], [-732, -1821], [-1514, -794], [-1507, -256], [-520, 839], [461, 865], [-693, 605], [-210, 1266], [-1689, 796], [-1807, -1109], [-755, -969], [473, -1160], [51, -1967], [-396, -711], [-705, 164], [-429, -1092], [-542, 710], [-640, 207], [-473, -568], [-356, 311], [-257, -463], [-2548, -601], [-1059, 992], [-418, 739], [-524, 2440], [213, 555], [-90, 1364], [586, 1784], [-454, 1823], [812, 601], [-411, 1548], [37, 2317], [841, 177], [-100, 791], [327, 347], [462, 2240], [415, 284], [-156, 618], [572, 418], [1171, -722], [485, -2416], [747, 260], [122, 1133], [-325, 1176], [599, 1935], [1282, 400], [158, 831], [791, 1264], [529, -337], [-71, -308], [-102, -243]], [[78488, 51265], [0, 0], [0, 0]], [[78488, 51265], [161, -833], [2898, -3416], [461, -147], [-229, 99], [-23, -343], [1647, -1726], [1115, -2059], [1889, -2173], [-2, -893], [-550, -1260], [310, -745], [539, -231], [-433, 155], [11, -277], [911, -1041], [-846, -489], [174, -541], [-378, -765], [-174, -1878], [-397, 196], [-859, -722], [-884, 285], [-784, -613], [-322, 41], [-535, 947], [-269, -461], [-985, -163], [-1190, 868], [-351, 2149], [-585, 393], [-482, -205], [-429, -912], [-654, -3761], [-1550, -774], [-710, 955], [5, 579], [-472, 843], [-2174, 411], [-787, -1185], [-915, 500], [-683, 1293], [-204, 625], [226, 1689], [1236, -328], [482, 1430], [597, -99], [-32, 1196], [-315, 511], [187, 1051], [1413, 1226], [-47, 491], [-854, 2696], [-34, 1134], [-865, 565], [-672, 1114], [-1279, 314], [-396, -388], [-1404, 982], [-676, -811], [-967, 22], [-75, 2452], [-858, 1093], [332, 2264], [579, 547], [863, 103], [976, 1421], [1156, -571], [2175, 1108], [610, -222], [937, 781], [962, -135], [1518, 468], [885, -724], [216, -1269], [-147, 534], [-63, -645], [2068, -2727], [1, 1]], [[88806, 34909], [121, 57], [-121, -57]], [[88806, 34909], [452, -1476], [-50, -1197], [-156, 786], [-215, -145], [111, -833], [898, -1972], [612, -464], [-591, 410], [-192, -168], [218, -314], [-518, -362], [891, 392], [-146, -253], [812, -1035], [-395, -679], [-502, -59], [-203, -731], [-744, 462], [-463, -297], [-508, 481], [-837, -440], [-772, 177], [-1014, -440], [-1403, -1607], [-1286, 406], [-776, 845], [1193, 1500], [214, 842], [-159, 582], [-661, -21], [152, 680], [-552, 383], [302, 1307], [1311, 792], [884, -285], [859, 722], [397, -196], [174, 1878], [378, 765], [-174, 541], [846, 489], [1581, -1480], [32, 14]], [[88895, 32151], [-5, 13], [5, -13]], [[84443, 19412], [-636, -715], [900, -1327], [-642, -955], [464, -853], [-387, -668], [214, -554], [-903, -895], [143, -380], [648, -165], [-156, -352], [270, -393], [-463, -183], [-49, -641], [549, -1339], [700, -729], [1964, -319], [4, -614], [733, -124], [6, -900], [294, -348], [-329, -1536], [342, -868], [-1112, -762], [-484, -1449], [-1002, 689], [-2117, 517], [-1292, -429], [-599, 1022], [-1052, -148], [-734, -1606], [-737, -270], [-564, 731], [572, 1163], [-51, 631], [-790, 678], [871, 772], [63, 1224], [936, 324], [250, 751], [-253, 1015], [185, 2182], [-356, 296], [400, 567], [46, 915], [761, 335], [-486, 1740], [735, 405], [238, 685], [-139, 965], [338, 143], [783, 1616], [1169, 165], [536, 603], [223, -588], [-4, -24]], [[66259, 74323], [-292, -201], [292, 204], [0, -3]], [[66402, 74371], [-6, -40], [6, 40]], [[66402, 74371], [1, 4], [-1, -4]], [[66398, 74395], [-360, 188], [-545, -1095], [500, -111], [-3, 570], [300, 92], [-99, -297], [741, -1027], [-382, -450], [84, -837], [-1625, 37], [-498, -814], [-1092, 14], [-228, -786], [-1699, 25], [-1073, -1106], [-43, 1133], [-1008, 800], [-202, 826], [-764, 882], [935, 1707], [1858, -995], [743, 964], [1614, 890], [1563, 263], [501, 582], [766, -1342], [16, -113]], [[100000, 8644], [-351, 892], [350, -552], [1, -340]], [[90866, 28264], [1288, -1283], [437, -1494], [-416, 362], [623, -1689], [2432, -1980], [-288, -1057], [712, -1242], [148, -1371], [806, -761], [381, 99], [138, -1150], [472, -425], [326, 228], [82, -461], [383, -128], [-61, -1070], [1274, -1753], [-673, -611], [269, -873], [-208, -1020], [211, -1204], [-190, -124], [670, -523], [-289, -150], [531, -1133], [-1723, -250], [-294, -588], [-749, -402], [-288, -771], [-1029, 128], [-231, -887], [-747, -389], [-1042, -1415], [339, -620], [-200, -420], [182, -821], [275, -305], [-598, 327], [-1758, -179], [-849, 1730], [-3103, 1965], [-342, 868], [329, 1536], [-294, 348], [-6, 900], [-733, 124], [-4, 614], [-1964, 319], [-700, 729], [-549, 1339], [49, 641], [463, 183], [-270, 393], [156, 352], [-648, 165], [-143, 380], [896, 875], [-207, 574], [387, 668], [-464, 853], [624, 1030], [-868, 918], [622, 1049], [-183, 609], [-572, -600], [-1169, -165], [-783, -1616], [-338, -143], [139, -965], [-238, -685], [-735, -405], [486, -1740], [-761, -335], [-46, -915], [-400, -567], [-442, 2027], [-793, 1015], [388, 703], [-623, 298], [-104, 614], [-592, 617], [844, 1491], [-489, 955], [-917, 49], [247, 1634], [840, 2186], [1088, 584], [256, 1638], [1159, 822], [1212, 54], [888, -1021], [1286, -406], [254, 576], [1673, 1326], [1262, -32], [837, 440], [508, -481], [463, 297], [744, -462], [203, 731], [502, 59], [221, 537], [108, 128]], [[41054, 57813], [804, -1404], [2018, -1527], [3061, -200], [132, -468], [460, -176], [-244, -2123], [548, -534], [150, -807], [1211, -1130], [1940, 1737], [301, 1158], [1239, 714], [536, -579], [191, -1046], [552, -810], [363, 201], [842, -479], [779, 459], [43, 850], [716, 731], [801, 164], [517, 1479], [405, -114], [449, -1020], [384, -172], [1805, 1831], [1336, -816], [1289, 695], [1136, -975], [306, -693], [661, -298], [-266, -2430], [-601, -875], [-559, 123], [-530, -540], [-490, -1888], [-409, -438], [109, -2047], [-3022, -47], [-567, -830], [-43, -1067], [-384, -527], [-870, -277], [-1735, 229], [-713, 487], [-1608, -587], [-481, 829], [-1580, -2163], [-275, -2284], [-973, -431], [-771, 139], [-1068, 1371], [-880, -339], [-987, 1280], [-508, -350], [-699, 1311], [-791, -83], [-579, -1212], [376, -307], [-1523, -338], [-657, -867], [-1960, -1404], [-272, 149], [-79, 676], [-868, 92], [-935, 654], [-880, -1699], [-2547, -842], [18, -801], [-884, -1743], [-1130, -325], [-1495, 748], [-883, 1331], [-424, -450], [-1336, 879], [-2035, -360], [-1940, 2361], [-543, -54], [-200, 618], [-1795, 1139], [-941, -535], [-243, -589], [-878, -282], [-491, 297], [-555, 1103], [756, 683], [-96, 1609], [408, 2620], [602, 259], [877, -723], [31, -1040], [677, -257], [-74, -1501], [210, -77], [456, 350], [136, 857], [419, 221], [259, -230], [50, -902], [303, -5], [142, 1215], [1105, -276], [278, 427], [-203, 596], [945, 327], [1850, 1582], [517, -578], [1193, 621], [575, -461], [838, 843], [811, -443], [550, 511], [-198, 425], [711, 831], [-582, 1282], [-808, 540], [120, 1401], [-616, 808], [82, 486], [292, 295], [1151, -633], [927, 59], [318, 1257], [623, 418], [777, -484], [-116, -380], [564, -328], [630, -1127], [586, 929], [-62, 753], [566, 1309], [671, 549], [-76, 1023], [673, 858], [-119, 701], [506, 1121], [775, -181], [628, 417], [11, -10]], [[45925, 41064], [649, -1265], [508, 350], [987, -1280], [575, 458], [1597, -1668], [2079, -294], [-161, -632], [291, -547], [-295, -630], [686, -1655], [-24, -1366], [350, -379], [-207, -1648], [-914, -588], [-570, -1128], [-896, -309], [121, -2127], [505, -473], [-161, -665], [502, -1230], [-515, -959], [-400, 150], [-376, -485], [-679, 397], [-1573, -106], [-308, -1103], [375, -2121], [-816, -213], [211, -809], [-1910, 205], [-597, -646], [94, -895], [-416, -332], [-2655, 773], [-644, 1353], [207, 1361], [497, 753], [1014, 89], [181, 399], [-216, 1143], [1064, 1159], [-1635, 2200], [-1872, 46], [-607, 693], [-857, 161], [-801, -537], [-691, 224], [-723, 2057], [299, 889], [-463, 363], [-857, -1290], [-191, -868], [-1249, -363], [-599, -1935], [325, -1176], [-159, -1170], [-710, -223], [-485, 2416], [-857, 786], [-934, -441], [19, 2087], [-450, 152], [-656, 1069], [-645, 72], [-6, 655], [1127, 633], [1061, 1549], [1429, 65], [345, 920], [1051, 250], [884, 1743], [-52, 765], [2581, 878], [880, 1699], [935, -654], [868, -92], [79, -676], [272, -149], [1960, 1404], [657, 867], [1314, 142], [209, 196], [-376, 307], [379, 966], [1024, 308], [17, -25]], [[51959, 23922], [812, -333], [187, -847], [1252, -670], [-417, -1550], [352, -2026], [1459, -808], [605, -1073], [1652, 196], [-140, 438], [224, 450], [-267, 764], [589, 1386], [1349, -328], [631, -848], [-24, -989], [1506, -322], [185, -890], [1240, 202], [304, -542], [731, 334], [528, -625], [450, 28], [187, -540], [-473, -17], [-148, -808], [522, -817], [27, -1441], [1007, -599], [183, 347], [656, 23], [-44, -762], [1048, -1524], [2305, 137], [1651, 826], [743, 901], [2126, -1006], [1023, -1243], [582, -36], [401, -541], [1896, 84], [656, -1349], [-544, -379], [28, -1065], [-859, -761], [797, -656], [-106, -1116], [-448, -539], [597, -870], [966, 419], [-539, -676], [-73, -826], [-787, 551], [-267, -587], [-1128, 483], [-670, 997], [-100, 697], [-948, -155], [-348, 187], [-24, 503], [-843, 341], [-657, -1786], [-388, 290], [-186, -801], [450, -1140], [-510, -615], [-720, 765], [-1507, 38], [-499, 771], [-2608, 1328], [-317, 838], [-716, -677], [-210, 403], [-431, -309], [-1327, 762], [-1038, -39], [-307, 655], [-749, 234], [-774, 1390], [-827, -984], [-1875, 70], [-464, -555], [-274, 1094], [-990, 554], [338, 695], [-123, 458], [-739, 700], [-336, -351], [-530, 253], [-208, -391], [-361, 453], [-635, 28], [-1800, -1497], [-1010, 852], [-390, 807], [734, 819], [747, -110], [-108, 733], [655, 256], [128, 595], [572, 32], [163, 1194], [-594, 453], [-2122, -977], [-770, 1367], [-955, -127], [-944, 1340], [171, 1684], [229, 144], [-122, 653], [-794, 584], [-761, -350], [-43, -779], [-1554, -534], [-1189, 90], [-365, 1190], [474, 801], [-137, 732], [222, 503], [510, 330], [1599, -426], [222, 313], [-214, 693], [798, 179], [-357, 2155], [317, 1113], [1564, 96], [679, -397], [376, 485], [400, -150], [297, 835], [528, 125], [102, -67]], [[53616, 42576], [481, -829], [1608, 587], [713, -487], [1735, -229], [870, 277], [384, 527], [43, 1067], [567, 830], [920, 242], [1975, -278], [202, 206], [-184, 1924], [409, 438], [463, 1846], [557, 582], [559, -123], [601, 875], [759, -793], [109, -2489], [933, 15], [604, 812], [1476, -983], [396, 388], [816, -107], [2000, -1886], [34, -1134], [854, -2696], [47, -491], [-1413, -1226], [-187, -1051], [315, -511], [32, -1196], [-597, 99], [-482, -1430], [-1236, 328], [-222, -1512], [-505, -86], [274, -752], [-1260, -217], [-209, -785], [-349, 118], [-320, 1930], [-1069, -225], [-552, -779], [45, -1057], [-538, -1851], [-81, -1096], [402, -408], [-482, 125], [-381, 716], [-364, -731], [301, -1745], [-495, -310], [-1251, 451], [-466, -536], [255, -1303], [-558, -1023], [90, -502], [315, -428], [1029, -239], [634, -1856], [-268, -968], [837, -605], [811, -2444], [-217, -494], [734, -1016], [-678, -1008], [-222, 31], [-52, 794], [-450, -28], [-357, 583], [-902, -292], [-304, 542], [-1240, -202], [-185, 890], [-1506, 322], [57, 868], [-482, 847], [-1420, 502], [-700, -1438], [267, -764], [-224, -450], [140, -438], [-1652, -196], [-605, 1073], [-1459, 808], [-352, 2026], [417, 1550], [-1252, 670], [-187, 847], [-1224, 399], [-276, 531], [-226, 699], [161, 665], [-505, 473], [-121, 2127], [896, 309], [570, 1128], [914, 588], [207, 1648], [-350, 379], [24, 1366], [-686, 1655], [295, 630], [-291, 547], [161, 632], [-1283, 430], [724, 334], [275, 2284], [1584, 2134], [-4, 29]], [[79083, 35334], [310, -105], [309, -1029], [42, -1120], [1388, -936], [787, 231], [269, 461], [535, -947], [-507, -1527], [552, -383], [-152, -680], [661, 21], [163, -535], [-218, -889], [-1193, -1500], [-903, 281], [-1511, -874], [-263, -1612], [-1150, -717], [-954, -2790], [-133, -1030], [917, -49], [489, -955], [-803, -1046], [-18, -519], [520, -462], [263, -819], [513, -174], [-388, -703], [749, -915], [375, -2041], [467, -382], [-185, -2182], [259, -942], [-229, -775], [-572, -145], [-648, 1331], [-1861, -107], [-401, 541], [-582, 36], [-1023, 1243], [-1882, 982], [-2638, -1703], [-2305, -137], [-1048, 1524], [44, 762], [-656, -23], [-183, -347], [-1007, 599], [-27, 1441], [-478, 513], [3, 848], [151, 276], [557, -275], [631, 1003], [-734, 1016], [217, 494], [-811, 2444], [-837, 605], [268, 968], [-634, 1856], [-1029, 239], [-315, 428], [-90, 502], [558, 1023], [-255, 1303], [466, 536], [1251, -451], [495, 310], [-301, 1745], [364, 731], [381, -716], [482, -125], [-402, 408], [317, 2471], [302, 476], [-59, 1003], [1208, 1206], [451, -180], [392, -2078], [321, 113], [141, 734], [1260, 217], [-274, 752], [396, 133], [774, -1852], [574, -571], [606, -190], [809, 1166], [2272, -533], [300, -1310], [710, -955], [1550, 774], [654, 3761], [429, 912], [529, 203], [207, -274], [21, -12]], [[30526, 82772], [404, -1102], [1074, -1215], [2340, 827], [599, -513], [-1159, -1634], [-2231, 322], [-438, -682], [-850, 688], [-1393, -297], [-958, -440], [-733, -1075], [38, -562], [-372, -145], [-962, 266], [-477, 727], [-1101, -255], [-876, 255], [-866, 1316], [-351, -119], [-241, -310], [148, -963], [-807, -410], [-892, -1489], [-687, -101], [-32, -892], [-789, -1021], [-702, -92], [-191, -1617], [-596, -903], [510, -889], [-560, -1063], [-1615, -687], [-509, 441], [-1230, -1408], [-347, 59], [-91, 631], [-1094, 345], [-558, -725], [-1153, -356], [-124, -727], [-887, 542], [-321, 1256], [-1021, -230], [-249, 680], [-215, -78], [363, 2227], [603, 1059], [-624, 415], [-754, -152], [-448, -1089], [-744, -414], [-218, -598], [-467, -6], [-79, -606], [-1458, 1539], [14, 1665], [-458, -32], [-403, 626], [240, 494], [-175, 505], [-505, 382], [158, 1194], [-633, 244], [-782, -605], [-775, 257], [-125, 2154], [-411, 170], [99, 436], [-379, 31], [706, 920], [722, 209], [207, 924], [346, 129], [681, -735], [3826, 1836], [513, -402], [1385, -19], [619, -854], [1274, 339], [701, 654], [775, -290], [854, 825], [2035, -653], [803, -634], [358, 93], [-104, 525], [294, 7], [1706, -1708], [3565, 2322], [1371, 23], [311, -653], [767, -228], [1635, 38], [915, 130], [396, 676], [599, -117], [47, -315], [1325, 846], [286, -566], [779, 94], [530, 863], [259, -344], [40, -186]], [[31824, 79458], [1981, -299], [-406, -1588], [209, -1441], [-242, -325], [-40, -1334], [1163, -708], [-86, -4955], [512, -240], [19, -1375], [579, -187], [280, -637], [-150, -650], [391, -787], [-1508, -650], [-1050, 313], [-263, -1012], [393, -1100], [-1221, -659], [-145, -479], [-610, 182], [-1102, -591], [-802, 2116], [-1002, 732], [-638, -240], [-325, -663], [-522, -76], [-586, 900], [-1290, -212], [-741, -694], [-265, 603], [172, 1331], [-1185, -221], [-867, 634], [104, 670], [-481, 519], [-1113, 311], [-264, -115], [-62, -714], [678, -1004], [-241, -306], [200, -703], [-651, -1121], [-841, -156], [-215, -1195], [-1583, -165], [-1426, 536], [-618, 664], [-203, 1905], [-367, 635], [26, 2536], [-645, 1129], [476, 566], [551, -436], [1825, 981], [331, 978], [-533, 675], [596, 903], [191, 1617], [702, 92], [789, 1021], [32, 892], [687, 101], [892, 1489], [807, 410], [-66, 1106], [510, 286], [866, -1316], [876, -255], [1101, 255], [477, -727], [962, -266], [372, 145], [-38, 562], [910, 1220], [2174, 592], [850, -688], [657, 687], [52, -4]], [[46837, 81847], [534, -639], [76, -2162], [-629, -1436], [-1491, -1121], [-333, -1000], [209, -718], [-988, -1347], [225, -886], [-782, -1642], [63, -868], [540, -546], [216, -1335], [-745, -809], [521, -1092], [577, -462], [227, -1488], [-193, -665], [-847, -546], [-1478, 1192], [-201, -1020], [177, -1010], [-2029, 267], [-895, -1115], [-448, 546], [133, 960], [-1384, 830], [-759, -1542], [-1503, 1016], [-61, 1278], [483, 501], [-409, 731], [150, 650], [-293, 659], [-566, 165], [-19, 1375], [-552, 598], [11, 2155], [251, 664], [-136, 1778], [-1163, 708], [40, 1334], [242, 325], [-209, 1441], [480, 1756], [1445, 1696], [2274, -529], [1217, -1118], [415, -832], [262, 332], [476, -204], [590, 906], [99, 1533], [1363, -451], [1880, 475], [931, 828], [1984, -70], [22, -46]], [[49867, 85757], [276, -33], [-195, -527], [198, -416], [1581, 238], [131, -660], [-353, -888], [279, -924], [731, 198], [1085, -599], [-154, -602], [566, -1631], [-98, -1836], [1757, -26], [411, -1881], [798, 707], [473, -473], [886, 945], [893, -847], [203, -2358], [-933, -1705], [764, -882], [202, -826], [1008, -800], [-6, -984], [-1678, -840], [-737, 205], [-31, -774], [-266, -183], [263, -1526], [677, -1458], [696, 587], [962, -562], [1010, 302], [645, -1001], [77, -1308], [485, -276], [-753, -1966], [-61, -1118], [-940, -164], [-321, -880], [-127, -747], [574, -852], [-138, -1373], [350, -465], [-1440, -1236], [-198, -537], [-551, 114], [-449, 1020], [-405, 114], [-517, -1479], [-801, -164], [-716, -731], [-43, -850], [-808, -461], [-813, 481], [-363, -201], [-1233, 2451], [-1285, -730], [-301, -1158], [-942, -1100], [-896, -620], [-567, 245], [-1444, 2209], [244, 2123], [-460, 176], [-132, 468], [-3035, 186], [-2044, 1541], [-677, 1384], [-1272, -453], [-1044, 1248], [307, 563], [-20, 1436], [1377, 497], [431, 950], [800, 527], [755, -314], [-177, 1010], [201, 1020], [1560, -1192], [704, 445], [254, 766], [-227, 1488], [-1062, 1372], [57, 520], [652, 471], [-216, 1335], [-540, 546], [-63, 868], [782, 1642], [-225, 886], [988, 1347], [-209, 718], [333, 1000], [1491, 1121], [629, 1436], [-75, 2157], [-695, 863], [-589, -317], [-1257, 214], [-931, -828], [-198, 195], [1233, 1196], [903, -228], [424, 615], [541, -13], [759, 1369], [409, -231], [339, 775], [666, 137], [236, -310], [635, 1132], [20, -15]], [[63435, 82449], [-4, 3], [4, -3]], [[59386, 91901], [2, 0], [-2, 0]], [[55899, 99312], [1783, -2991], [267, 33], [-255, -716], [813, -1377], [-111, -1024], [771, -1208], [80, -734], [1174, -1613], [-526, -308], [73, -860], [885, -1861], [1493, -1822], [-162, -605], [253, -1030], [703, -930], [-6, -707], [996, -1120], [-181, -775], [574, -1257], [-206, -1], [210, -841], [1089, -1715], [-501, -582], [-1563, -263], [-1614, -890], [-951, -998], [-581, 705], [-1125, 388], [-111, 2169], [-606, 883], [-325, 87], [-913, -958], [-365, 486], [-425, -105], [-454, -602], [-411, 1881], [-1757, 26], [98, 1836], [-566, 1631], [154, 602], [-1085, 599], [-731, -198], [-279, 924], [353, 888], [-131, 660], [-1581, -238], [-198, 416], [195, 527], [-328, 146], [291, 686], [572, 320], [1, 562], [1659, 1365], [1025, 2676], [-241, 763], [554, 2005], [27, 3928], [-208, 580], [2052, 1245], [291, -662], [61, -26]], [[73463, 59578], [0, 0], [0, 0]], [[71804, 62796], [0, 0], [0, 0]], [[71804, 62796], [473, -110], [-246, -943], [1476, -1711], [-40, -861], [1143, -1320], [-20, -620], [938, -1136], [-270, -270], [-2210, -63], [-937, -781], [-610, 222], [-2175, -1108], [-1156, 571], [-976, -1421], [-863, -103], [-572, -548], [-635, 165], [-306, 693], [-1136, 975], [-1289, -695], [-1677, 1256], [129, 1398], [-574, 852], [383, 1552], [1005, 239], [61, 1118], [753, 1966], [-485, 276], [-77, 1308], [-645, 1001], [-1010, -302], [-962, 562], [-711, -572], [-662, 1443], [-263, 1526], [266, 183], [16, 753], [752, -184], [1337, 835], [403, -140], [1060, 1102], [1699, -25], [228, 786], [1092, -14], [498, 814], [1654, 3], [171, -1110], [2462, -3401], [343, -1453], [2164, -2709], [1, 1]]]}