{"type": "Topology", "transform": {"scale": [1.4683283606524497e-05, 1.3880031425762453e-05], "translate": [126.37978478013751, 36.89378529364907]}, "objects": {"collection": {"type": "GeometryCollection", "geometries": [{"type": "MultiPolygon", "arcs": [[[0]]], "properties": {"name": "\uc218\uc6d0\uc2dc\uc7a5\uc548\uad6c", "base_year": "2018", "name_eng": "Suwonsijangangu", "code": "31011"}}, {"type": "MultiPolygon", "arcs": [[[1]]], "properties": {"name": "\uc218\uc6d0\uc2dc\uad8c\uc120\uad6c", "base_year": "2018", "name_eng": "Suwonsigwonseongu", "code": "31012"}}, {"type": "MultiPolygon", "arcs": [[[2]]], "properties": {"name": "\uc218\uc6d0\uc2dc\ud314\ub2ec\uad6c", "base_year": "2018", "name_eng": "Suwonsipaldalgu", "code": "31013"}}, {"type": "MultiPolygon", "arcs": [[[3]]], "properties": {"name": "\uc218\uc6d0\uc2dc\uc601\ud1b5\uad6c", "base_year": "2018", "name_eng": "Suwonsiyeongtonggu", "code": "31014"}}, {"type": "MultiPolygon", "arcs": [[[4]]], "properties": {"name": "\uc131\ub0a8\uc2dc\uc218\uc815\uad6c", "base_year": "2018", "name_eng": "Seongnamsisujeonggu", "code": "31021"}}, {"type": "MultiPolygon", "arcs": [[[5]]], "properties": {"name": "\uc131\ub0a8\uc2dc\uc911\uc6d0\uad6c", "base_year": "2018", "name_eng": "Seongnamsijungwongu", "code": "31022"}}, {"type": "MultiPolygon", "arcs": [[[6]]], "properties": {"name": "\uc131\ub0a8\uc2dc\ubd84\ub2f9\uad6c", "base_year": "2018", "name_eng": "Seongnamsibundanggu", "code": "31023"}}, {"type": "MultiPolygon", "arcs": [[[7]]], "properties": {"name": "\uc758\uc815\ubd80\uc2dc", "base_year": "2018", "name_eng": "Uijeongbu-si", "code": "31030"}}, {"type": "MultiPolygon", "arcs": [[[8]]], "properties": {"name": "\uc548\uc591\uc2dc\ub9cc\uc548\uad6c", "base_year": "2018", "name_eng": "Anyangsimanangu", "code": "31041"}}, {"type": "MultiPolygon", "arcs": [[[9]]], "properties": {"name": "\uc548\uc591\uc2dc\ub3d9\uc548\uad6c", "base_year": "2018", "name_eng": "Anyangsidongangu", "code": "31042"}}, {"type": "MultiPolygon", "arcs": [[[10]]], "properties": {"name": "\ubd80\ucc9c\uc2dc", "base_year": "2018", "name_eng": "Bucheon-si", "code": "31050"}}, {"type": "MultiPolygon", "arcs": [[[11]]], "properties": {"name": "\uad11\uba85\uc2dc", "base_year": "2018", "name_eng": "Gwangmyeong-si", "code": "31060"}}, {"type": "MultiPolygon", "arcs": [[[12]], [[13]]], "properties": {"name": "\ud3c9\ud0dd\uc2dc", "base_year": "2018", "name_eng": "Pyeongtaek-si", "code": "31070"}}, {"type": "MultiPolygon", "arcs": [[[14]]], "properties": {"name": "\ub3d9\ub450\ucc9c\uc2dc", "base_year": "2018", "name_eng": "Dongducheon-si", "code": "31080"}}, {"type": "MultiPolygon", "arcs": [[[15]]], "properties": {"name": "\uc548\uc0b0\uc2dc\uc0c1\ub85d\uad6c", "base_year": "2018", "name_eng": "Ansansisangnokgu", "code": "31091"}}, {"type": "MultiPolygon", "arcs": [[[16]], [[17]], [[18]], [[19]], [[20]], [[21]], [[22]], [[23]], [[24]], [[25]], [[26]], [[27]], [[28]], [[29]]], "properties": {"name": "\uc548\uc0b0\uc2dc\ub2e8\uc6d0\uad6c", "base_year": "2018", "name_eng": "Ansansidanwongu", "code": "31092"}}, {"type": "MultiPolygon", "arcs": [[[30]]], "properties": {"name": "\uace0\uc591\uc2dc\ub355\uc591\uad6c", "base_year": "2018", "name_eng": "Goyangsideogyanggu", "code": "31101"}}, {"type": "MultiPolygon", "arcs": [[[31]]], "properties": {"name": "\uace0\uc591\uc2dc\uc77c\uc0b0\ub3d9\uad6c", "base_year": "2018", "name_eng": "Goyangsiilsandonggu", "code": "31103"}}, {"type": "MultiPolygon", "arcs": [[[32]]], "properties": {"name": "\uace0\uc591\uc2dc\uc77c\uc0b0\uc11c\uad6c", "base_year": "2018", "name_eng": "Goyangsiilsanseogu", "code": "31104"}}, {"type": "MultiPolygon", "arcs": [[[33]]], "properties": {"name": "\uacfc\ucc9c\uc2dc", "base_year": "2018", "name_eng": "Gwacheon-si", "code": "31110"}}, {"type": "MultiPolygon", "arcs": [[[34]]], "properties": {"name": "\uad6c\ub9ac\uc2dc", "base_year": "2018", "name_eng": "Guri-si", "code": "31120"}}, {"type": "MultiPolygon", "arcs": [[[35]]], "properties": {"name": "\ub0a8\uc591\uc8fc\uc2dc", "base_year": "2018", "name_eng": "Namyangju-si", "code": "31130"}}, {"type": "MultiPolygon", "arcs": [[[36]]], "properties": {"name": "\uc624\uc0b0\uc2dc", "base_year": "2018", "name_eng": "Osan-si", "code": "31140"}}, {"type": "MultiPolygon", "arcs": [[[37]]], "properties": {"name": "\uc2dc\ud765\uc2dc", "base_year": "2018", "name_eng": "Siheung-si", "code": "31150"}}, {"type": "MultiPolygon", "arcs": [[[38]]], "properties": {"name": "\uad70\ud3ec\uc2dc", "base_year": "2018", "name_eng": "Gunpo-si", "code": "31160"}}, {"type": "MultiPolygon", "arcs": [[[39]]], "properties": {"name": "\uc758\uc655\uc2dc", "base_year": "2018", "name_eng": "Uiwang-si", "code": "31170"}}, {"type": "MultiPolygon", "arcs": [[[40]]], "properties": {"name": "\ud558\ub0a8\uc2dc", "base_year": "2018", "name_eng": "Hanam-si", "code": "31180"}}, {"type": "MultiPolygon", "arcs": [[[41]]], "properties": {"name": "\uc6a9\uc778\uc2dc\ucc98\uc778\uad6c", "base_year": "2018", "name_eng": "Yonginsicheoingu", "code": "31191"}}, {"type": "MultiPolygon", "arcs": [[[42]]], "properties": {"name": "\uc6a9\uc778\uc2dc\uae30\ud765\uad6c", "base_year": "2018", "name_eng": "Yonginsigiheunggu", "code": "31192"}}, {"type": "MultiPolygon", "arcs": [[[43]]], "properties": {"name": "\uc6a9\uc778\uc2dc\uc218\uc9c0\uad6c", "base_year": "2018", "name_eng": "Yonginsisujigu", "code": "31193"}}, {"type": "MultiPolygon", "arcs": [[[44]]], "properties": {"name": "\ud30c\uc8fc\uc2dc", "base_year": "2018", "name_eng": "Paju-si", "code": "31200"}}, {"type": "MultiPolygon", "arcs": [[[45]]], "properties": {"name": "\uc774\ucc9c\uc2dc", "base_year": "2018", "name_eng": "Icheon-si", "code": "31210"}}, {"type": "MultiPolygon", "arcs": [[[46]]], "properties": {"name": "\uc548\uc131\uc2dc", "base_year": "2018", "name_eng": "Anseong-si", "code": "31220"}}, {"type": "MultiPolygon", "arcs": [[[47]], [[48]]], "properties": {"name": "\uae40\ud3ec\uc2dc", "base_year": "2018", "name_eng": "Gimpo-si", "code": "31230"}}, {"type": "MultiPolygon", "arcs": [[[49]], [[50]], [[51]], [[52]], [[53]], [[54]], [[55]], [[56]], [[57]], [[58]], [[59]], [[60]], [[61]], [[62], [63]]], "properties": {"name": "\ud654\uc131\uc2dc", "base_year": "2018", "name_eng": "Hwaseongsi", "code": "31240"}}, {"type": "MultiPolygon", "arcs": [[[64]]], "properties": {"name": "\uad11\uc8fc\uc2dc", "base_year": "2018", "name_eng": "Gwangju", "code": "31250"}}, {"type": "MultiPolygon", "arcs": [[[65]]], "properties": {"name": "\uc591\uc8fc\uc2dc", "base_year": "2018", "name_eng": "Yangjusi", "code": "31260"}}, {"type": "MultiPolygon", "arcs": [[[66]]], "properties": {"name": "\ud3ec\ucc9c\uc2dc", "base_year": "2018", "name_eng": "Pocheonsi", "code": "31270"}}, {"type": "MultiPolygon", "arcs": [[[67]]], "properties": {"name": "\uc5ec\uc8fc\uc2dc", "base_year": "2018", "name_eng": "Yeoju-si", "code": "31280"}}, {"type": "MultiPolygon", "arcs": [[[68]]], "properties": {"name": "\uc5f0\ucc9c\uad70", "base_year": "2018", "name_eng": "Yeoncheon-gun", "code": "31350"}}, {"type": "MultiPolygon", "arcs": [[[69]]], "properties": {"name": "\uac00\ud3c9\uad70", "base_year": "2018", "name_eng": "Gapyeong-gun", "code": "31370"}}, {"type": "MultiPolygon", "arcs": [[[70]]], "properties": {"name": "\uc591\ud3c9\uad70", "base_year": "2018", "name_eng": "Yangpyeong-gun", "code": "31380"}}]}}, "arcs": [[[43951, 32752], [562, -276], [415, -1573], [-483, -942], [194, -1114], [-1754, -625], [-1688, 398], [-1026, -317], [-601, 1131], [715, 2121], [791, -367], [1770, 910], [366, 729], [673, -54], [66, -21]], [[44971, 25271], [-1242, -1441], [-1263, 407], [-310, -320], [-756, 611], [-1006, -397], [-1038, 805], [-516, 1139], [-1314, 377], [-189, 1514], [790, 969], [-455, 550], [1898, -51], [601, -1131], [1178, -280], [40, -565], [390, 177], [540, -977], [590, 292], [1497, -446], [706, -769], [-208, -312], [67, -152]], [[45042, 28613], [-169, -533], [290, 176], [185, -851], [-571, 58], [-278, -575], [503, -132], [-265, -622], [-1828, 816], [-590, -292], [-540, 977], [-390, -177], [-37, 562], [-656, 407], [423, 173], [1766, -378], [2131, 423], [26, -32]], [[45633, 30408], [731, -352], [-21, -1033], [1275, -241], [726, 358], [-22, -820], [-1227, -452], [-447, -733], [747, -659], [625, 622], [-214, -1523], [-1107, -366], [-756, -842], [-577, 56], [-459, 322], [95, 2011], [-503, 132], [278, 575], [571, -58], [-185, 851], [-290, -176], [169, 533], [-481, 175], [-116, 1173], [506, 818], [626, -350], [56, -21]], [[52961, 41596], [1328, 33], [-193, -392], [-1170, -1524], [-2619, -912], [-121, -1678], [-1493, -150], [-722, -710], [-1428, 100], [-1358, 388], [263, 653], [-344, 1096], [1877, 176], [179, 835], [1063, 194], [1123, 1245], [855, -254], [543, 789], [540, -87], [4, 449], [1628, -243], [45, -8]], [[54569, 41747], [1007, -2134], [-101, -1365], [-654, -657], [-828, -744], [-2085, 740], [-1550, 12], [-51, 1202], [2619, 912], [1642, 2036], [1, -2]], [[52405, 37249], [1699, -364], [-406, -945], [613, -400], [-1051, -533], [-758, -1281], [-1079, -287], [206, -1311], [-1836, -346], [-1700, 1206], [-535, -148], [-510, 604], [-2907, 1007], [715, 1336], [-27, 833], [3117, -361], [747, 714], [1442, 121], [419, 594], [1601, -258], [250, -181]], [[50136, 63447], [782, -213], [-111, -564], [943, 27], [469, -1021], [-1219, -127], [-194, -1485], [-1182, -1390], [-3112, -973], [-745, -638], [-216, 594], [-1104, -160], [-322, 655], [-836, 37], [-216, 1775], [-672, 1060], [291, 497], [-313, 1075], [965, 428], [2382, -537], [3715, 1386], [690, -379], [5, -47]], [[38110, 39066], [599, 188], [29, -1196], [-1586, -827], [169, -682], [923, -667], [-25, -1059], [-1534, -13], [-817, -1111], [-686, -147], [-391, 1149], [-635, 145], [-250, 1989], [-492, 143], [51, 408], [1214, -92], [680, 1965], [710, -349], [1294, 1178], [693, -993], [54, -29]], [[39888, 39297], [-206, -1320], [1390, -1471], [-1220, -2102], [80, -657], [-1239, 513], [-602, 809], [153, 813], [-923, 667], [-169, 682], [1586, 827], [-29, 1196], [1174, 115], [5, -72]], [[26681, 47156], [1049, -168], [509, -731], [870, 568], [1016, -219], [415, -839], [-83, -1477], [-952, -874], [698, -612], [-586, -947], [1253, 179], [-4, -820], [-668, -539], [-1348, 235], [-1300, 774], [-1128, -47], [-1725, 1094], [-54, 1578], [1261, 662], [413, 2610], [360, -424], [4, -3]], [[33409, 42922], [439, -70], [-275, -443], [1829, -3417], [-723, -1698], [-1214, 92], [392, -777], [-1330, 26], [-750, 725], [-568, 3235], [-813, 161], [470, 460], [4, 820], [816, -266], [106, 585], [1430, 947], [179, -376], [8, -4]], [[31141, 4020], [197, -435], [-530, -145], [-205, 433], [538, 151], [0, -4]], [[50612, 18062], [-151, -1069], [-787, -464], [1172, -2990], [-1549, -419], [-110, -523], [1924, -711], [-1683, -1699], [508, -596], [627, 593], [2052, -487], [-539, -1094], [659, -1107], [-1447, -733], [564, -624], [-2631, -1025], [-409, -391], [442, -445], [-492, -777], [-651, 386], [-826, -656], [-586, 237], [-2345, -997], [-1054, 527], [-1389, -3], [-5821, -2432], [-713, 2039], [-827, 459], [-1339, -216], [-577, 1256], [-344, -173], [337, -448], [-630, 316], [-1606, 2847], [-890, 95], [516, -127], [195, 412], [-769, 267], [-162, -470], [-381, 130], [349, 407], [-349, 125], [-990, -211], [-731, 918], [565, 397], [4357, 391], [2221, 3502], [1414, 459], [2419, -912], [1983, 898], [1843, -251], [-389, 1283], [659, -125], [-331, 1681], [340, 121], [-415, 272], [491, 970], [2335, 611], [641, -750], [718, 541], [757, -496], [1340, -2], [326, 322], [-237, 263], [844, 564], [1340, 142], [212, -8]], [[46575, 77968], [1888, -314], [68, -923], [469, -424], [-261, -625], [896, -335], [879, -1663], [1632, -325], [651, -1222], [-557, -1357], [-1264, -163], [-1360, -979], [-1358, 853], [-1849, -236], [-1088, 1910], [-2239, 560], [-419, 865], [487, 312], [-248, 626], [1113, 939], [188, 1052], [885, 302], [520, 1354], [976, -157], [-9, -50]], [[34156, 34846], [635, -145], [391, -1149], [-1577, -2622], [964, -384], [1381, 292], [547, -455], [-49, -718], [1041, 123], [638, -853], [-817, -1167], [-910, 836], [-908, 44], [-755, -680], [-1812, -34], [-7, -609], [-1309, -401], [-1878, 1917], [397, 694], [1336, 194], [2, 1955], [-345, 335], [402, 408], [-561, 441], [460, 896], [1625, -41], [1131, 1077], [-22, 46]], [[5500, 13992], [-157, 363], [158, -363], [-1, 0]], [[4750, 14519], [-51, 661], [334, -525], [-283, -136], [0, 0]], [[431, 16043], [595, -284], [1, -830], [-1027, 339], [3, 582], [427, 194], [1, -1]], [[17127, 21053], [35, 16], [-35, -16]], [[11172, 22488], [12, -1], [-12, 1]], [[11172, 22488], [-473, -582], [465, 583], [8, -1]], [[16195, 23777], [4, 1], [-4, -1]], [[15850, 27723], [-185, 58], [185, -58]], [[17069, 27847], [327, -384], [-375, 335], [48, 49]], [[17069, 27847], [21, 22], [-21, -22]], [[15850, 27723], [1115, 397], [-1083, -407], [-32, 10]], [[14030, 28616], [39, 1], [-39, -1]], [[14030, 28616], [-132, -462], [451, 365], [1316, -738], [-1402, 763], [-250, -428], [2637, -1440], [853, 601], [421, -243], [-101, -463], [81, 628], [-784, 694], [783, -651], [-386, -1357], [1251, -2706], [-602, -1734], [-335, 932], [356, 474], [-412, 305], [-787, 221], [-216, -1143], [200, 1163], [-467, 1272], [-227, -482], [-2074, 275], [1466, -919], [363, -800], [-702, 207], [-649, -1008], [644, 1014], [-241, 652], [-725, -574], [-266, 514], [-731, 10], [-906, -2003], [-1229, 938], [-42, 649], [891, 208], [-1055, 483], [188, 637], [1696, 256], [-565, 380], [-160, 1768], [-1760, 1596], [1966, -837], [1058, 923], [-374, 547], [418, -334], [2490, 1538], [-2476, -1558], [487, -135], [40, 2]], [[30671, 33768], [783, 53], [-492, -953], [561, -441], [-402, -408], [345, -335], [-49, -2006], [-5002, -950], [-3412, 1135], [1430, 1541], [619, -349], [896, 1167], [1685, -218], [673, 1230], [2283, 616], [82, -82]], [[37518, 61506], [-3, -825], [-613, -417], [254, -1556], [-1207, -2756], [2265, 45], [294, 1066], [672, 524], [1862, -570], [794, -895], [-982, -1205], [310, -1419], [-1756, -495], [334, 272], [-424, 1412], [-653, 457], [-1593, -942], [-1315, 217], [508, -346], [-815, -2387], [-45, -1540], [-820, -83], [-160, 377], [-613, -1132], [-1541, -460], [-6409, 4171], [306, 406], [1834, -699], [291, 1067], [1449, 405], [27, 734], [-418, 141], [818, 360], [-123, 603], [1918, 1359], [321, -178], [146, 442], [-1309, 2404], [323, 294], [952, 279], [2251, -897], [961, 411], [-117, 616], [682, 672], [1237, 140], [107, -72]], [[29392, 59847], [1730, 216], [1309, -2404], [-146, -442], [-321, 178], [-1918, -1359], [123, -603], [-818, -360], [418, -141], [-27, -734], [-1449, -405], [-291, -1067], [-3059, 693], [-923, 884], [882, 523], [207, 737], [969, -123], [1006, 1110], [297, 1472], [-554, 260], [61, 635], [1311, 1050], [151, 701], [1025, -811], [17, -10]], [[26808, 58363], [573, -341], [-569, -1894], [-734, -688], [-969, 123], [-207, -737], [-882, -523], [-3871, 1876], [-353, 719], [215, 1208], [1110, -842], [2423, 1156], [3221, -3], [43, -54]], [[42529, 41308], [699, -885], [1373, 665], [61, -1807], [794, -502], [-351, -1189], [-4409, -900], [-244, 871], [-875, 755], [231, 1488], [2682, 1546], [39, -42]], [[52218, 54004], [180, -629], [-431, -822], [359, -1238], [378, -620], [996, -288], [-530, -480], [688, -414], [-1474, -907], [-2998, -866], [-258, 1416], [1057, 1293], [94, 762], [-126, 1034], [-826, 195], [554, 792], [-64, 701], [2122, 232], [279, -161]], [[60860, 63410], [1425, 90], [1779, -652], [919, -965], [610, -1694], [854, -403], [218, -2093], [914, -168], [-379, -324], [691, -898], [295, 143], [-662, -2206], [-1434, -1592], [-937, -3148], [-1771, -2913], [-564, -2289], [-1009, -138], [-413, 1325], [-2752, 1353], [-2636, 3258], [-1283, 187], [-867, -770], [-636, 313], [518, 513], [-1244, 537], [-525, 1622], [427, 877], [-180, 629], [-3538, 87], [97, 3206], [-736, 95], [-337, 657], [1955, 657], [1147, 1358], [194, 1485], [956, -11], [384, 589], [1201, -632], [892, 1108], [1778, 38], [349, 447], [1011, -1152], [2372, 1069], [394, 881], [382, -291], [141, -185]], [[45064, 21880], [1564, 113], [468, -2220], [1604, -697], [557, -1059], [-1041, -653], [237, -263], [-326, -322], [-1340, 2], [-757, 496], [-765, -524], [-836, 1038], [-468, 1736], [-2068, 780], [670, 350], [224, 906], [2009, 448], [268, -131]], [[27197, 36027], [847, -52], [-253, 1055], [-230, -1125], [-2415, 824], [435, 710], [-146, 667], [1189, 549], [-2, 1308], [664, 469], [-152, 1211], [1716, -731], [2304, -245], [623, -3307], [756, -727], [1324, -23], [259, -1959], [-1695, -1102], [-2149, 465], [-869, -740], [-1097, -40], [-673, -1230], [-1685, 218], [-896, -1167], [-619, 349], [-1430, -1541], [-2799, 859], [-354, 636], [-3871, -1051], [5237, 1536], [-381, 387], [190, 549], [1001, 179], [-170, 256], [2061, 2289], [752, -288], [-551, 469], [682, 669], [2392, -343], [5, 17]], [[38270, 34933], [1386, -1226], [-60, -749], [-876, -787], [-208, -1450], [-650, 190], [-437, -438], [207, -639], [-1080, -204], [-55, 753], [-547, 455], [-2018, -162], [-312, 695], [2650, 3189], [1916, 371], [84, 2]], [[45337, 37478], [-2491, -5380], [-1770, -910], [-791, 367], [-631, -2115], [-1982, 45], [-247, 988], [442, 440], [645, -192], [208, 1450], [637, 292], [500, 1952], [1414, 2535], [3985, 559], [81, -31]], [[54856, 50285], [1178, -209], [2022, -2087], [402, -982], [2938, -1522], [301, -772], [-2117, -583], [311, -1099], [-1005, -429], [-5, -614], [-2896, 541], [-902, -270], [-740, 495], [71, -894], [-551, -384], [-1849, 321], [1220, 1880], [-1444, 708], [1562, 2532], [1387, 13], [-434, 2595], [-580, -158], [1128, 919], [3, -1]], [[58497, 33536], [1779, -1203], [1245, 182], [-7, -2106], [-394, -533], [137, -2790], [874, 137], [428, -477], [1403, 688], [1365, -299], [-592, -3603], [1320, -1213], [1373, 56], [591, -657], [-434, -679], [2693, -255], [17, -1968], [1077, -613], [-259, -1102], [-779, -837], [742, -424], [47, -982], [-598, -798], [-1121, 465], [-594, 902], [-904, -487], [-1213, 464], [-427, -532], [-1751, 1401], [-1272, -1018], [-1392, 1887], [-985, 197], [-634, 1533], [-919, -744], [9, -1605], [-2895, -869], [1, -482], [-1525, -1493], [-2146, 548], [-2138, -60], [-945, 2362], [787, 464], [838, 2833], [1069, 66], [813, 720], [19, 750], [-607, 632], [361, 568], [-513, 1065], [437, 425], [-479, 949], [689, 955], [1097, 328], [-31, 2171], [-500, 975], [-1304, 267], [-764, 985], [342, 1222], [3375, 765], [689, -1362], [1390, 1299], [-351, 649], [1400, 341], [66, -60]], [[51600, 30667], [750, -970], [1304, -267], [649, -1442], [-371, -952], [253, -752], [-1088, -322], [-671, -878], [452, -1032], [-376, -549], [-4253, -245], [-1317, 954], [-233, 997], [1104, 362], [308, 1163], [-91, 364], [-625, -622], [-747, 659], [447, 733], [1227, 452], [573, 2449], [2012, -174], [632, 451], [47, -364], [14, -15]], [[46002, 33586], [1046, -142], [510, -604], [535, 148], [1700, -1206], [2135, 122], [13, -786], [-973, -515], [-2007, 239], [-423, -1462], [-920, -598], [-1275, 241], [-174, 1363], [-1226, 389], [-430, 1701], [-1105, 657], [733, 1318], [1848, -862], [13, -3]], [[41564, 80206], [1834, -1467], [-3564, -3476], [-208, -1253], [-823, -191], [357, -511], [-607, -750], [25, -2387], [-857, -1562], [206, -342], [-1655, -62], [-93, -859], [-617, -267], [677, -1431], [-566, -1028], [2341, -270], [-603, -2772], [-1237, -140], [-682, -672], [117, -616], [-961, -411], [-2251, 897], [-2843, -860], [-1020, 946], [-1726, -2359], [-3264, 57], [-2423, -1156], [-1087, 842], [432, 2261], [-1204, 3533], [595, 3895], [-819, 398], [1379, 412], [855, 1620], [-593, 400], [-738, -284], [-37, 571], [681, 125], [-811, 594], [861, 1789], [-1143, 447], [340, 2602], [1112, 146], [1117, 1271], [1068, -713], [1191, 78], [1010, 1051], [731, 292], [729, -450], [-47, 393], [757, -155], [873, 862], [1658, -2611], [818, 475], [207, -278], [295, 1354], [611, 550], [2581, -1468], [581, 252], [7, 1813], [2898, -1011], [2318, 1921], [1170, 1], [47, -36]], [[74444, 33506], [1142, -1164], [1654, -258], [956, -826], [12, -759], [1223, -464], [10, -671], [-1183, -1962], [577, -1574], [-808, -931], [378, -2922], [-945, -1179], [726, -688], [2128, 568], [802, -763], [474, 439], [-270, 785], [1488, 196], [1326, -1867], [1216, -144], [-388, -700], [712, -797], [-229, -3015], [-1529, -871], [-1147, 53], [655, -1384], [-1822, 472], [-886, -1062], [312, -895], [-865, -499], [-2627, 1236], [-639, -647], [-891, -66], [-600, 427], [1297, 511], [719, 1448], [-79, 1533], [-796, 478], [-327, 983], [-2757, 515], [-1104, 1289], [-1893, 283], [-247, 2241], [-2634, 184], [434, 679], [-591, 657], [-1373, -56], [-1320, 1213], [573, 3622], [708, 451], [-619, 800], [1151, 453], [-173, 513], [710, 515], [-101, 527], [2844, 821], [2548, 2237], [484, -419], [1558, 487], [26, -33]], [[60577, 18652], [289, -1313], [985, -197], [1392, -1887], [1272, 1018], [1686, -1385], [492, 516], [1213, -464], [904, 487], [594, -902], [1121, -465], [598, 798], [2, 855], [-791, 551], [1370, 2117], [1007, -272], [752, -1067], [2702, -466], [455, -1127], [723, -383], [79, -1533], [-719, -1448], [-2576, -579], [-773, -812], [103, -1567], [-769, -690], [-1244, -627], [-2432, -343], [-554, -994], [1128, -1149], [-972, -232], [-790, -1139], [-1773, 298], [-1554, -1214], [-2123, -335], [526, -1073], [-1080, -1629], [-957, 1273], [-1384, 791], [-619, -348], [-2288, 932], [-468, 1441], [-1572, 442], [-156, 421], [-1553, 137], [258, 384], [-2589, -101], [224, 612], [1136, 155], [-564, 624], [338, 452], [1109, 281], [-659, 1107], [563, 1053], [-2076, 528], [-627, -593], [-497, 662], [1672, 1633], [-1924, 711], [110, 523], [1439, 150], [-87, 955], [4254, -546], [1525, 1493], [-1, 482], [2895, 869], [-9, 1605], [1236, 642], [28, -118]], [[11587, 50600], [-86, 738], [104, -730], [-18, -8]], [[13319, 62602], [1255, -111], [2608, 1425], [2109, -19], [1175, -3530], [-677, -3355], [360, -833], [4021, -1959], [4624, -2978], [-374, -525], [278, -601], [-509, -562], [-1772, 478], [-1055, -614], [-535, 921], [-1285, -44], [-776, 863], [-639, -100], [52, 690], [-748, 597], [-2755, 1288], [-470, -773], [-675, -56], [-780, -1737], [-776, 266], [-1552, -955], [17, 437], [-944, 426], [-365, -440], [-869, 161], [-853, 2387], [-1078, 1479], [864, 585], [-1181, 816], [453, 1420], [-803, 1628], [630, 2328], [-858, 1003], [420, 408], [-508, 186], [391, 1374], [3054, -1572], [526, -402]], [[24715, 10390], [0, 0], [-11, 6], [11, -6]], [[24704, 10396], [-153, 78], [153, -78]], [[23616, 10878], [266, 57], [-266, -57]], [[11999, 11965], [-32, -29], [32, 29]], [[11999, 11965], [29, 27], [-29, -27]], [[11918, 12572], [-63, 324], [65, -324], [-2, 0]], [[11044, 15122], [-185, -338], [-251, 1120], [389, -625], [47, -157]], [[16325, 16428], [2224, -410], [-2742, 72], [168, 576], [319, -203], [31, -35]], [[18860, 18614], [-855, -766], [804, 689], [51, 77]], [[18860, 18614], [82, 126], [-82, -126]], [[16739, 20295], [374, -96], [-825, -1175], [-176, 1132], [528, 187], [99, -48]], [[26288, 26451], [-17, 69], [17, -69]], [[24784, 28071], [-594, 42], [148, 304], [532, -283], [-86, -63]], [[24715, 10390], [953, 1258], [-5158, 4457], [-462, -12], [719, 143], [-615, 1378], [265, 351], [-1313, -371], [2446, 941], [-933, 679], [-2226, -421], [767, 602], [-510, 1301], [437, -333], [674, 923], [-678, 111], [-705, -521], [767, 2693], [-887, 1664], [-99, 1017], [507, 814], [-1437, 1264], [934, -607], [1017, 919], [-1939, -161], [1957, 251], [8, -1056], [1528, 224], [-834, -564], [534, -1157], [1130, 298], [1975, -356], [588, -499], [770, 409], [814, -87], [533, -626], [594, 221], [623, -1332], [250, 231], [-568, 925], [767, -120], [75, 1654], [1400, 39], [-487, 662], [46, 1217], [985, -234], [2070, -2409], [533, 1127], [1217, 313], [-775, -303], [-125, 574], [1890, 87], [755, 680], [940, -66], [935, -989], [159, -1141], [1314, -377], [1454, -1923], [1106, 376], [756, -611], [310, 320], [1263, -407], [1310, 1650], [21, -862], [768, -303], [969, 642], [134, -744], [1318, -955], [4253, 245], [679, -2891], [-813, -720], [-1069, -66], [-266, -1487], [-421, -277], [-1306, -187], [-606, 1201], [-1303, 299], [-772, 2620], [-2498, 106], [-1350, -546], [129, -408], [-1008, -868], [2063, -752], [710, -2041], [-2599, -804], [-148, -2539], [330, -293], [-663, 80], [390, -1257], [-1843, 251], [-1961, -899], [-808, 533], [-921, -176], [-658, 564], [-1468, -467], [-1849, -3102], [-986, -693], [-3024, -65], [-550, 1169], [-2657, 5], [-124, 393], [-417, 204]], [[26636, 12291], [-525, -97], [-105, 366], [625, 2412], [-853, 708], [144, 468], [1100, 1030], [1256, -250], [434, 693], [1037, 359], [-1124, 760], [-1250, -118], [1095, 726], [-376, 785], [569, 1652], [-402, -1054], [-1175, -1176], [-2066, 171], [-1376, -2079], [-1416, -503], [-327, -329], [238, -289], [-1417, -616], [4919, -4203], [936, 273], [59, 311]], [[66432, 46183], [984, -761], [1079, -1872], [-350, -592], [571, -1023], [-111, -648], [-208, -562], [-1019, -159], [223, -855], [716, -152], [2543, -4035], [1569, 26], [169, -1813], [-2770, -2503], [-2844, -821], [101, -527], [-710, -515], [173, -513], [-1151, -453], [569, -636], [-234, -380], [-2151, -25], [-1022, -618], [-428, 477], [-709, -214], [-396, 404], [401, 264], [-307, 2199], [394, 533], [7, 2106], [-1245, -182], [-1845, 1263], [-1400, -341], [351, -649], [-1390, -1299], [-689, 1362], [-3431, -748], [-488, 1421], [1118, 384], [758, 1281], [1004, 398], [-569, 744], [651, 1327], [1129, 772], [34, 1909], [-1328, 1870], [162, 727], [740, -495], [902, 270], [2896, -541], [5, 614], [1005, 429], [-311, 1099], [2117, 583], [112, -553], [511, -76], [719, 473], [240, 1073], [1043, 571], [2013, 9], [97, -27]], [[40764, 75219], [1568, -127], [832, -1093], [-501, -409], [301, -748], [2357, -677], [1039, -1885], [1898, 211], [1287, -698], [989, -2465], [11, -1171], [-289, -1157], [-1005, -1266], [-2905, -1174], [-2919, 486], [-1048, -450], [313, -1075], [-291, -497], [1078, -2569], [-581, -608], [-68, -883], [-1218, -331], [-2432, 954], [-672, -524], [-159, -996], [-2229, -212], [-319, 441], [499, 58], [856, 2354], [-254, 1556], [648, 533], [-216, 1396], [680, 2157], [-2341, 270], [566, 1028], [-677, 1431], [617, 267], [93, 859], [1655, 62], [-206, 342], [857, 1562], [-25, 2387], [607, 750], [-357, 511], [823, 191], [208, 1253], [738, 32], [192, -76]], [[55123, 93114], [5, -1793], [2234, -1721], [121, 692], [723, 7], [337, 682], [1150, 473], [692, 1244], [1167, 174], [965, -474], [-933, -1209], [-560, -2544], [331, 88], [385, -776], [1580, 263], [496, -1436], [1372, -618], [191, 830], [1783, 406], [863, 829], [1692, -394], [141, -721], [537, -68], [1193, 962], [970, -1289], [105, -3116], [-539, -935], [-963, -562], [140, -555], [-945, -2012], [-1906, -1116], [-556, -1492], [537, -1322], [-1909, -1596], [-1792, 321], [-500, -3905], [-699, -403], [-1133, 219], [-255, 436], [-298, -411], [-508, -971], [381, -566], [-788, -1293], [277, -1815], [-1264, -2622], [-2372, -1069], [-834, 582], [-84, 564], [-1018, -555], [-944, 197], [-1295, -1258], [-1646, 1231], [-943, -27], [111, 564], [-1477, 639], [1104, 2284], [-11, 1171], [-881, 2311], [1323, 978], [1264, 163], [556, 1396], [-650, 1183], [-1632, 325], [-879, 1663], [-896, 335], [261, 625], [-469, 424], [-176, 1763], [1474, 403], [602, -716], [1843, 1289], [-47, 1271], [-775, 1091], [150, 610], [-1555, 123], [74, 1477], [855, -1], [967, 918], [438, -1096], [1631, 613], [1086, -128], [224, 1358], [-545, 590], [-108, 1692], [-763, 487], [223, 4219], [1002, 536], [-8, -116]], [[78013, 38836], [773, -1522], [455, -132], [886, 494], [1918, -205], [403, 604], [2012, -902], [1050, 268], [715, -627], [847, 870], [1714, -184], [303, -179], [-267, -978], [1642, 870], [465, -741], [-727, -571], [-181, -1342], [1006, -245], [920, 445], [2025, -661], [-41, -2582], [641, -1651], [-196, -495], [-1066, -309], [722, -1747], [-926, -2373], [140, -1558], [-932, -740], [-603, -1839], [-647, 64], [-689, -944], [-1239, -2507], [-1252, 41], [-1595, 1083], [-1152, 216], [44, 801], [-987, -138], [-1386, 1913], [-1488, -196], [270, -785], [-474, -439], [-802, 763], [-2165, -547], [-689, 667], [963, 1261], [-396, 2840], [808, 931], [-577, 1574], [1183, 1962], [-22, 705], [-1211, 430], [-12, 759], [-956, 826], [-1654, 258], [-1303, 1369], [-1488, -656], [-419, 416], [145, 1964], [-1661, 89], [-617, 1426], [-883, 653], [614, 1040], [1061, 670], [3433, -1236], [2290, 1306], [933, -333], [322, -214]], [[48718, 99971], [580, -57], [-152, -498], [635, -195], [193, -2461], [1198, -293], [1210, 691], [979, -278], [-244, -1364], [780, -436], [270, -577], [-370, -565], [739, -830], [-549, -1169], [309, -1256], [-390, -2208], [763, -487], [108, -1692], [545, -590], [-224, -1358], [-1086, 128], [-1631, -613], [-438, 1096], [-967, -918], [-855, 1], [-261, -660], [421, -545], [-204, -309], [1525, -86], [-150, -610], [775, -1091], [-168, -1607], [-1628, -953], [-554, 707], [-773, 35], [-749, -429], [98, -840], [-2584, 655], [-781, -1488], [-885, -302], [-188, -1052], [-1113, -939], [-601, 582], [-1934, 416], [1090, 1036], [164, 808], [736, 43], [1048, 1346], [-1889, 1702], [-1169, -220], [-2318, -1921], [-2898, 1011], [-7, -1813], [-581, -252], [-2716, 1429], [-771, -1865], [-207, 278], [-818, -475], [-931, 1009], [250, 198], [-680, 1264], [-950, -269], [-2, 412], [225, 376], [1823, 262], [623, 1559], [149, -319], [855, 944], [999, -59], [-196, 1514], [397, 63], [764, 1714], [-734, 851], [149, 1247], [1477, 649], [426, 930], [1074, 655], [842, -85], [735, -677], [2626, 726], [107, 725], [-1263, 1072], [1101, 632], [63, 2006], [572, 35], [594, 804], [-130, 1207], [671, 153], [893, -574], [1281, 1448], [-209, 304], [1098, 287], [356, 670], [1663, 327], [651, 1036], [1253, 271], [65, -29]], [[73014, 82191], [385, -1269], [956, -759], [2204, -612], [2449, 188], [364, -2366], [3759, -806], [1059, -1846], [-261, -720], [341, -1049], [-769, -2152], [-1905, -178], [-994, -1266], [-2450, -1440], [-185, -826], [869, -1041], [-1127, -1297], [1639, -2339], [-2614, -2325], [362, -871], [878, 774], [1054, -505], [1344, 657], [-631, -2992], [148, -1838], [-1197, -1036], [1645, -1344], [733, -1370], [-509, -351], [-188, -1522], [-2582, 209], [-1697, -1098], [-1652, 463], [-125, 3199], [-855, 524], [-227, 841], [-994, 227], [-386, 695], [338, 596], [-795, 634], [-2046, -1404], [-1829, -262], [663, 2132], [-295, -143], [-691, 898], [379, 324], [-914, 168], [-218, 2093], [-854, 403], [-610, 1694], [-1208, 1166], [-2909, 353], [-448, 437], [789, 1788], [-277, 1815], [788, 1293], [-381, 566], [508, 971], [298, 411], [255, -436], [1133, -219], [699, 403], [500, 3905], [1792, -321], [1909, 1596], [-537, 1322], [556, 1492], [1906, 1116], [945, 2012], [-140, 555], [1470, 1280], [454, -290], [-60, -850], [-11, -57]], [[67541, 54311], [1811, 265], [2046, 1404], [907, -803], [-450, -427], [386, -695], [994, -227], [227, -841], [855, -524], [-41, -3023], [1818, -639], [1697, 1098], [2582, -209], [188, 1522], [530, 631], [-733, 684], [31, 503], [1396, 256], [286, 642], [1455, 611], [2776, -1301], [310, -705], [839, 61], [2999, -2697], [3148, 411], [2065, -1005], [657, 515], [1366, -1521], [1728, -355], [586, -640], [-415, -824], [-2209, -75], [-1641, -1769], [-1742, -723], [8, -748], [998, -82], [1791, -1564], [-321, -504], [527, -2464], [-642, -324], [-714, -2559], [-506, -397], [155, -904], [-1511, -271], [-1831, 665], [-920, -445], [-965, 208], [112, 1315], [755, 635], [-465, 741], [-1642, -870], [267, 978], [-303, 179], [-1714, 184], [-847, -870], [-715, 627], [-1050, -268], [-2012, 902], [-403, -604], [-1918, 205], [-886, -494], [-455, 132], [-597, 1368], [-1431, 701], [-2290, -1306], [-3433, 1236], [-1535, -1299], [-1209, 1572], [-690, 125], [-223, 855], [1112, 227], [232, 1107], [-577, 1058], [350, 592], [-1463, 2329], [-2562, 366], [-1396, -994], [308, 1336], [2119, 3746], [589, 2315], [1445, 1628], [6, 35]]]}