{"type": "Topology", "transform": {"scale": [2.820924408388521e-06, 3.2608554350873933e-06], "translate": [127.12773391108661, 36.40675840144778]}, "objects": {"collection": {"type": "GeometryCollection", "geometries": [{"type": "MultiPolygon", "arcs": [[[0]]], "properties": {"name": "\uc138\uc885\uc2dc", "base_year": "2018", "name_eng": "Sejongsi", "code": "29010"}}]}}, "arcs": [[[15712, 99378], [11013, -1431], [11798, -5734], [3299, -3545], [9843, -192], [12105, -4061], [-898, -4432], [-5815, -2660], [-2095, -5092], [-2527, -763], [1329, -1928], [4524, 651], [-142, -3072], [5261, -7570], [-2495, -4481], [7756, -782], [5900, -6573], [13990, 1682], [-1773, -2485], [4019, -5579], [6250, -12], [2544, -4970], [-3920, -1444], [4045, -3321], [277, -4425], [-4859, -1104], [-4348, 2610], [-8403, -3589], [1360, -4205], [-2903, -7526], [-10457, -8642], [-8081, 792], [-5915, -2873], [-8318, 471], [-4451, -3093], [-3026, 3636], [-5434, 799], [-3270, 3839], [-6655, 1885], [-190, 3779], [2246, 2172], [-4508, 4715], [942, 4578], [-6246, 923], [-1352, 1483], [1535, 1525], [-2688, 2032], [4382, 3803], [-3308, 3685], [433, 2678], [6235, 1177], [-1798, 2121], [7443, 7672], [-5245, 876], [-569, 4024], [-2492, -839], [-10081, 4541], [-2067, 3986], [3702, 1669], [-2598, 6365], [2624, 3347], [-2025, 2501], [3285, 4362], [-950, 3594], [-1535, 1668], [-316, -1501], [-5131, -239], [-1987, 4617], [-2981, 1068], [11312, 7459], [4383, -521], [17, -101]]]}