{"type": "Topology", "transform": {"scale": [3.7643887161993916e-06, 2.071215682490859e-06], "translate": [126.64497761149687, 35.0515824078929]}, "objects": {"collection": {"type": "GeometryCollection", "geometries": [{"type": "MultiPolygon", "arcs": [[[0]]], "properties": {"name": "\ub3d9\uad6c", "base_year": "2018", "name_eng": "Dong-gu", "code": "24010"}}, {"type": "MultiPolygon", "arcs": [[[1]]], "properties": {"name": "\uc11c\uad6c", "base_year": "2018", "name_eng": "Seo-gu", "code": "24020"}}, {"type": "MultiPolygon", "arcs": [[[2]]], "properties": {"name": "\ub0a8\uad6c", "base_year": "2018", "name_eng": "Nam-gu", "code": "24030"}}, {"type": "MultiPolygon", "arcs": [[[3]]], "properties": {"name": "\ubd81\uad6c", "base_year": "2018", "name_eng": "Buk-gu", "code": "24040"}}, {"type": "MultiPolygon", "arcs": [[[4]]], "properties": {"name": "\uad11\uc0b0\uad6c", "base_year": "2018", "name_eng": "Gwangsan-gu", "code": "24050"}}]}}, "arcs": [[[75764, 52894], [6652, -4319], [7, -5628], [7214, -1421], [2711, -7211], [3099, -748], [-4762, -7320], [346, -5790], [-5616, -2205], [-3887, -7836], [-5203, 597], [-5437, 19916], [4719, 5190], [-5960, 12096], [2435, 6780], [3627, -1987], [55, -114]], [[61277, 57834], [9053, -10709], [-3519, 1439], [-2942, -2705], [597, -14304], [-3487, 1365], [-1054, -4608], [-15797, -9307], [-2740, 2775], [1341, 3477], [-802, 4044], [3484, 2233], [1679, 4718], [-860, 2971], [2772, 3866], [-1145, 12073], [3254, 2395], [357, 3684], [8379, -3245], [1430, -162]], [[68965, 46846], [6642, -10727], [-4719, -5190], [2533, -8886], [-4132, -7334], [-5421, -221], [-3646, -3501], [-4268, 1941], [-3062, -6244], [-5774, -2494], [-1024, -3637], [-3617, -553], [-2563, 4606], [-5959, -3967], [-2042, 5531], [-2224, -2954], [-691, 4156], [7535, 2756], [6064, 11026], [3918, -2155], [13410, 9313], [807, 4438], [3734, -1195], [-597, 14304], [2942, 2705], [2060, -1641], [94, -77]], [[76718, 94242], [-304, -2520], [5103, -8192], [-416, -3942], [4054, -6309], [-1836, -4959], [2530, -5767], [8454, 3705], [5697, -7618], [-3632, -8261], [761, -15264], [-4781, -800], [-2711, 7211], [-7214, 1421], [-7, 5628], [-4345, 4329], [-5989, 2091], [-2435, -6780], [-5147, 4806], [-960, 4020], [-12072, 4200], [5759, 3504], [-2240, 6097], [1339, 9259], [-5885, 5576], [2508, 3841], [9373, 7014], [2644, -2343], [4232, 5588], [7518, -5514], [2, -21]], [[31454, 98945], [-2039, -10827], [13198, -7637], [4929, 3624], [371, 2961], [8413, -6965], [-1339, -9259], [2240, -6097], [-5052, -1852], [-1064, -5336], [-3254, -2395], [1213, -11759], [-2840, -4180], [860, -2971], [-1679, -4718], [-3484, -2233], [-156, -9972], [-4699, -8642], [-3502, -1706], [-2517, 10066], [-7819, 10573], [-824, -2612], [-6358, 2652], [-10076, -3809], [434, 2961], [-4618, 4467], [423, 11322], [-2215, 1253], [2265, 3005], [191, 5684], [4753, 4122], [-5024, 9380], [6353, -710], [2639, 11658], [4119, -3684], [4021, 2330], [5192, 19552], [6123, 2809], [822, -1055]]]}