{"type": "Topology", "transform": {"scale": [4.19055212551001e-06, 2.72208836793844e-06], "translate": [126.76448395860741, 37.42880858693607]}, "objects": {"collection": {"type": "GeometryCollection", "geometries": [{"type": "MultiPolygon", "arcs": [[[0]]], "properties": {"name": "\uc885\ub85c\uad6c", "base_year": "2018", "name_eng": "Jongno-gu", "code": "11010"}}, {"type": "MultiPolygon", "arcs": [[[1]]], "properties": {"name": "\uc911\uad6c", "base_year": "2018", "name_eng": "Jung-gu", "code": "11020"}}, {"type": "MultiPolygon", "arcs": [[[2]]], "properties": {"name": "\uc6a9\uc0b0\uad6c", "base_year": "2018", "name_eng": "Yongsan-gu", "code": "11030"}}, {"type": "MultiPolygon", "arcs": [[[3]]], "properties": {"name": "\uc131\ub3d9\uad6c", "base_year": "2018", "name_eng": "Seongdong-gu", "code": "11040"}}, {"type": "MultiPolygon", "arcs": [[[4]]], "properties": {"name": "\uad11\uc9c4\uad6c", "base_year": "2018", "name_eng": "Gwangjin-gu", "code": "11050"}}, {"type": "MultiPolygon", "arcs": [[[5]]], "properties": {"name": "\ub3d9\ub300\ubb38\uad6c", "base_year": "2018", "name_eng": "Dongdaemun-gu", "code": "11060"}}, {"type": "MultiPolygon", "arcs": [[[6]]], "properties": {"name": "\uc911\ub791\uad6c", "base_year": "2018", "name_eng": "Jungnang-gu", "code": "11070"}}, {"type": "MultiPolygon", "arcs": [[[7]]], "properties": {"name": "\uc131\ubd81\uad6c", "base_year": "2018", "name_eng": "Seongbuk-gu", "code": "11080"}}, {"type": "MultiPolygon", "arcs": [[[8]]], "properties": {"name": "\uac15\ubd81\uad6c", "base_year": "2018", "name_eng": "Gangbuk-gu", "code": "11090"}}, {"type": "MultiPolygon", "arcs": [[[9]]], "properties": {"name": "\ub3c4\ubd09\uad6c", "base_year": "2018", "name_eng": "Dobong-gu", "code": "11100"}}, {"type": "MultiPolygon", "arcs": [[[10]]], "properties": {"name": "\ub178\uc6d0\uad6c", "base_year": "2018", "name_eng": "Nowon-gu", "code": "11110"}}, {"type": "MultiPolygon", "arcs": [[[11]]], "properties": {"name": "\uc740\ud3c9\uad6c", "base_year": "2018", "name_eng": "Eunpyeong-gu", "code": "11120"}}, {"type": "MultiPolygon", "arcs": [[[12]]], "properties": {"name": "\uc11c\ub300\ubb38\uad6c", "base_year": "2018", "name_eng": "Seodaemun-gu", "code": "11130"}}, {"type": "MultiPolygon", "arcs": [[[13]]], "properties": {"name": "\ub9c8\ud3ec\uad6c", "base_year": "2018", "name_eng": "Mapo-gu", "code": "11140"}}, {"type": "MultiPolygon", "arcs": [[[14]], [[15]]], "properties": {"name": "\uc591\ucc9c\uad6c", "base_year": "2018", "name_eng": "Yangcheon-gu", "code": "11150"}}, {"type": "MultiPolygon", "arcs": [[[16]]], "properties": {"name": "\uac15\uc11c\uad6c", "base_year": "2018", "name_eng": "Gangseo-gu", "code": "11160"}}, {"type": "MultiPolygon", "arcs": [[[17]]], "properties": {"name": "\uad6c\ub85c\uad6c", "base_year": "2018", "name_eng": "Guro-gu", "code": "11170"}}, {"type": "MultiPolygon", "arcs": [[[18]]], "properties": {"name": "\uae08\ucc9c\uad6c", "base_year": "2018", "name_eng": "Geumcheon-gu", "code": "11180"}}, {"type": "MultiPolygon", "arcs": [[[19]]], "properties": {"name": "\uc601\ub4f1\ud3ec\uad6c", "base_year": "2018", "name_eng": "Yeongdeungpo-gu", "code": "11190"}}, {"type": "MultiPolygon", "arcs": [[[20]]], "properties": {"name": "\ub3d9\uc791\uad6c", "base_year": "2018", "name_eng": "Dongjak-gu", "code": "11200"}}, {"type": "MultiPolygon", "arcs": [[[21]]], "properties": {"name": "\uad00\uc545\uad6c", "base_year": "2018", "name_eng": "Gwanak-gu", "code": "11210"}}, {"type": "MultiPolygon", "arcs": [[[22]]], "properties": {"name": "\uc11c\ucd08\uad6c", "base_year": "2018", "name_eng": "Seocho-gu", "code": "11220"}}, {"type": "MultiPolygon", "arcs": [[[23]]], "properties": {"name": "\uac15\ub0a8\uad6c", "base_year": "2018", "name_eng": "Gangnam-gu", "code": "11230"}}, {"type": "MultiPolygon", "arcs": [[[24]]], "properties": {"name": "\uc1a1\ud30c\uad6c", "base_year": "2018", "name_eng": "Songpa-gu", "code": "11240"}}, {"type": "MultiPolygon", "arcs": [[[25]]], "properties": {"name": "\uac15\ub3d9\uad6c", "base_year": "2018", "name_eng": "Gangdong-gu", "code": "11250"}}]}}, "arcs": [[[50160, 73839], [1253, -460], [1628, -8253], [-2395, -3007], [5992, -2470], [1625, -3938], [3460, -896], [54, -2244], [-13522, -2238], [-3136, 4750], [1307, 5992], [-1536, 2266], [-858, 8489], [6224, 2515], [-96, -506]], [[61784, 52568], [748, -3127], [-4187, -7074], [-5625, 3515], [-5490, -776], [1598, 6119], [12949, 1346], [7, -3]], [[49182, 45945], [8051, -1348], [1257, -3882], [1895, -730], [-7632, -11428], [-1640, 4], [-6870, 4028], [-1264, 5976], [6203, 7380], [0, 0]], [[66519, 52754], [7278, -4774], [-4179, -11419], [-3778, 2752], [-5477, -668], [-2216, 4049], [4385, 6747], [-748, 3127], [4573, 291], [162, -105]], [[80984, 52050], [-475, -4041], [3189, -1004], [-1657, -5640], [-6755, -6781], [-5668, 1977], [5245, 15995], [6211, -177], [-90, -329]], [[73498, 62978], [1365, -10422], [-1388, -4375], [-7118, 4678], [-4141, -680], [-493, 2636], [6652, 8506], [4380, 2882], [749, -3210], [-6, -15]], [[83649, 70067], [393, -9375], [-1837, -3908], [-3189, -4691], [-4153, 463], [-2094, 8617], [151, 7385], [10043, 1792], [686, -283]], [[55102, 74002], [6405, -6929], [1955, -850], [4609, 5584], [2867, -3593], [2239, 115], [-18, -2640], [-6694, -3915], [-5783, -7144], [-2419, 1081], [-1625, 3938], [-5992, 2470], [2395, 3007], [-2785, 9219], [2118, 1931], [2421, -1954], [307, -320]], [[60479, 88882], [-1199, -7349], [4658, -3275], [4133, -6451], [-4609, -5584], [-11030, 10017], [-1084, 7236], [3426, 3948], [-434, 4718], [3929, 1772], [1990, -4354], [220, -678]], [[61487, 99524], [1322, 447], [1128, -3343], [3869, 817], [853, -3340], [-965, -5063], [1818, -11228], [-1264, 1543], [-2083, -5153], [-6977, 7733], [1475, 6984], [-2227, 3204], [-255, 3870], [2752, 4005], [554, -476]], [[76209, 97521], [2900, -1910], [-787, -14875], [4429, -2279], [226, -3575], [-1737, -4610], [-10444, -1936], [-4653, 6114], [2105, 4907], [1264, -1543], [-1818, 11228], [870, 5833], [2764, 2886], [4228, 446], [653, -686]], [[44680, 83054], [2771, -7951], [-3419, -3273], [325, -5038], [-7041, -10170], [-1913, 1574], [-2568, -4120], [-4779, 5431], [4197, -358], [158, 7852], [2858, 12169], [-1783, 1768], [4308, -1194], [4733, 4423], [2071, -1091], [82, -22]], [[46243, 62077], [-1124, -6994], [3796, -6162], [-2287, -1599], [-5493, -927], [-8300, 7681], [2568, 4120], [1913, -1574], [7041, 10170], [1832, -4580], [54, -135]], [[31806, 55152], [9329, -8757], [6254, 1108], [64, -3482], [-4474, -5456], [-3401, 2783], [-6087, 20], [-11365, 10028], [-853, 1868], [5400, 1612], [1383, 4631], [3602, -4204], [148, -151]], [[26306, 30091], [8, 8], [-8, -8]], [[26306, 30091], [-274, -2631], [-4931, 2603], [-4201, -2875], [-2653, 2832], [1012, 5943], [-1581, 4596], [1473, 3063], [2992, -7738], [5598, 1211], [55, 7849], [3928, -1085], [2351, -6057], [-2807, -2334], [-974, -5389], [12, 12]], [[14493, 58894], [13184, -12069], [-50, -3135], [-3831, 1254], [-55, -7849], [-5598, -1211], [-2565, 7806], [-1035, -2215], [-5123, 529], [-2275, -2687], [-1785, 3729], [-3673, 857], [-1687, 2591], [3188, 1677], [1089, 5023], [4375, 5228], [-873, 3637], [1312, 2680], [5028, -5480], [374, -365]], [[26306, 30091], [1106, 2647], [3099, -3246], [971, -7378], [1619, -1471], [-1748, -2447], [-5086, 2581], [-1663, 3472], [-5028, -4856], [-354, -2953], [-3171, 1503], [-3359, -1621], [1336, 5389], [-2448, 3120], [3165, 4543], [2155, -2186], [4201, 2875], [4931, -2603], [66, 2059], [208, 572]], [[27919, 20823], [3434, -2627], [3320, 891], [1013, -8398], [3442, -2606], [-6077, -6151], [-7217, 17765], [2055, 1153], [30, -27]], [[38743, 40513], [4236, -1948], [1264, -5976], [-5493, -726], [-1683, -6518], [-4070, -4696], [-1515, 1465], [-971, 7378], [-3373, 3549], [589, 3229], [2348, 1532], [-2979, 7833], [11622, -5111], [25, -11]], [[52119, 24598], [-285, -7067], [-4033, 1095], [-1076, 5229], [-7725, 490], [-5898, -3701], [3965, 4701], [1683, 6518], [7184, -154], [5592, -3155], [598, -3681], [-5, -275]], [[40527, 23600], [6198, 255], [1076, -5229], [4033, -1095], [1586, -4603], [70, -2143], [-3354, -1379], [-2768, -5185], [-5432, -1685], [-4303, 7682], [-1947, 471], [-1013, 8398], [-2587, -670], [7378, 5533], [1063, -350]], [[59093, 34703], [1362, -537], [3881, -13755], [1829, 392], [2195, -6558], [8001, 3017], [2564, -7128], [-1758, -4225], [-3724, -990], [-629, -4257], [-3855, -662], [-4268, 3745], [-672, 9621], [-4355, -3795], [-2585, 4724], [-1552, -186], [-2037, -3324], [-1964, 17769], [6723, 7002], [844, -853]], [[71819, 35357], [1043, -8198], [8008, -3660], [4971, -9645], [-1744, -2895], [-2560, 1384], [-2612, -2209], [-2564, 7128], [-8001, -3017], [-2195, 6558], [-1829, -392], [-4092, 14201], [-1995, 944], [3007, 3756], [3941, 3], [6323, -3784], [299, -174]], [[85659, 40351], [-991, -3958], [6228, -4173], [-1016, -4060], [4844, -1999], [-4272, -9585], [-2547, 256], [-13, -2290], [-2050, -689], [-4972, 9646], [-8008, 3660], [-513, 6293], [-45, 1732], [4332, 66], [5634, 6761], [1738, -443], [1651, -1217]], [[98365, 55201], [1635, -12454], [-4862, -66], [-4313, -10343], [-6157, 4055], [991, 3958], [-3389, 1660], [3273, 7466], [12835, 5741], [-13, -17]]]}