{"type": "Topology", "transform": {"scale": [1.9447649573530726e-05, 8.573378358038042e-06], "translate": [125.96660242107623, 35.29923259882334]}, "objects": {"collection": {"type": "GeometryCollection", "geometries": [{"type": "MultiPolygon", "arcs": [[[0]]], "properties": {"name": "\uc804\uc8fc\uc2dc\uc644\uc0b0\uad6c", "base_year": "2018", "name_eng": "Jeonjusiwansangu", "code": "35011"}}, {"type": "MultiPolygon", "arcs": [[[1]]], "properties": {"name": "\uc804\uc8fc\uc2dc\ub355\uc9c4\uad6c", "base_year": "2018", "name_eng": "Jeonjusideokjingu", "code": "35012"}}, {"type": "MultiPolygon", "arcs": [[[2]], [[3]], [[4]], [[5]], [[6]], [[7]], [[8]], [[9]], [[10]], [[11]], [[12]], [[13]], [[14]], [[15]], [[16]], [[17]], [[18]], [[19]], [[20]], [[21]], [[22]], [[23]], [[24]], [[25]], [[26]], [[27]], [[28]], [[29]], [[30]], [[31]], [[32]], [[33]], [[34]], [[35]], [[36]], [[37]], [[38]], [[39]], [[40]], [[41]], [[42]], [[43]], [[44]], [[45]]], "properties": {"name": "\uad70\uc0b0\uc2dc", "base_year": "2018", "name_eng": "Gunsan-si", "code": "35020"}}, {"type": "MultiPolygon", "arcs": [[[46]]], "properties": {"name": "\uc775\uc0b0\uc2dc", "base_year": "2018", "name_eng": "Iksan-si", "code": "35030"}}, {"type": "MultiPolygon", "arcs": [[[47]]], "properties": {"name": "\uc815\uc74d\uc2dc", "base_year": "2018", "name_eng": "Jeongeup-si", "code": "35040"}}, {"type": "MultiPolygon", "arcs": [[[48]]], "properties": {"name": "\ub0a8\uc6d0\uc2dc", "base_year": "2018", "name_eng": "Namwon-si", "code": "35050"}}, {"type": "MultiPolygon", "arcs": [[[49]]], "properties": {"name": "\uae40\uc81c\uc2dc", "base_year": "2018", "name_eng": "Gimje-si", "code": "35060"}}, {"type": "MultiPolygon", "arcs": [[[50]], [[51]]], "properties": {"name": "\uc644\uc8fc\uad70", "base_year": "2018", "name_eng": "Wanju-gun", "code": "35310"}}, {"type": "MultiPolygon", "arcs": [[[52]]], "properties": {"name": "\uc9c4\uc548\uad70", "base_year": "2018", "name_eng": "Jinan-gun", "code": "35320"}}, {"type": "MultiPolygon", "arcs": [[[53]]], "properties": {"name": "\ubb34\uc8fc\uad70", "base_year": "2018", "name_eng": "Muju-gun", "code": "35330"}}, {"type": "MultiPolygon", "arcs": [[[54]]], "properties": {"name": "\uc7a5\uc218\uad70", "base_year": "2018", "name_eng": "Jangsu-gun", "code": "35340"}}, {"type": "MultiPolygon", "arcs": [[[55]]], "properties": {"name": "\uc784\uc2e4\uad70", "base_year": "2018", "name_eng": "Imsil-gun", "code": "35350"}}, {"type": "MultiPolygon", "arcs": [[[56]]], "properties": {"name": "\uc21c\ucc3d\uad70", "base_year": "2018", "name_eng": "Sunchang-gun", "code": "35360"}}, {"type": "MultiPolygon", "arcs": [[[57]], [[58]], [[59]], [[60]], [[61]], [[62]], [[63]], [[64]], [[65]]], "properties": {"name": "\uace0\ucc3d\uad70", "base_year": "2018", "name_eng": "Gochang-gun", "code": "35370"}}, {"type": "MultiPolygon", "arcs": [[[66]], [[67]], [[68]], [[69]], [[70]], [[71]], [[72]], [[73]], [[74]], [[75]], [[76]], [[77]], [[78]], [[79]], [[80]], [[81]], [[82]]], "properties": {"name": "\ubd80\uc548\uad70", "base_year": "2018", "name_eng": "Buan-gun", "code": "35380"}}]}}, "arcs": [[[58817, 62953], [842, -780], [17, -1323], [300, -396], [8, 888], [1212, 498], [1207, -2834], [1013, 640], [881, -1103], [-845, -1713], [-91, -1363], [-614, 522], [-418, -474], [-869, 960], [-589, -1029], [-205, -1758], [-505, 172], [-1065, -1368], [-683, 377], [-353, -1751], [-654, -941], [-684, 2207], [-992, 846], [158, 952], [1067, 1383], [-453, 1230], [3, 4516], [-770, 473], [416, 1105], [450, 51], [195, -1586], [975, 1513], [735, 592], [242, -436], [69, -70]], [[59372, 70436], [1231, -836], [1194, -4934], [1446, 779], [699, -2269], [8, -1788], [458, -673], [770, 259], [-314, -1574], [-568, -798], [-880, 1044], [-1013, -640], [-1207, 2834], [-1212, -498], [-8, -888], [-351, 1789], [-1119, 1216], [-1710, -2105], [-195, 1586], [-596, 88], [-321, 1489], [-920, -40], [-241, 1810], [-523, -818], [-533, 640], [53, 1096], [-493, 1023], [146, 1053], [2052, 605], [673, -695], [402, 912], [1302, -992], [1707, 1309], [63, 16]], [[25312, 43748], [0, 0], [0, 0]], [[25527, 44615], [-12, 27], [12, -27]], [[25383, 49786], [17, 11], [-17, -11]], [[25956, 51355], [-1, 0], [1, 0]], [[25558, 51272], [9, 1], [-9, -1]], [[24843, 52399], [487, -1590], [-401, -753], [-17, 1135], [-563, 522], [494, 686], [0, 0]], [[25804, 52220], [-275, 243], [213, 386], [108, -600], [-46, -29]], [[22944, 58676], [-80, -498], [79, 499], [1, -1]], [[23295, 59617], [0, 1], [0, -1]], [[24405, 59696], [-240, -1174], [-896, -840], [-289, 564], [313, 1183], [630, -767], [30, 747], [273, -329], [153, 649], [26, -33]], [[23822, 59251], [48, 134], [-48, -134]], [[22162, 59948], [-171, -504], [140, 606], [31, -102]], [[26572, 59990], [2113, -9436], [-218, -113], [-1895, 9551], [0, -2]], [[23124, 60059], [1, 0], [-1, 0]], [[20667, 60913], [621, -2020], [-327, -490], [-295, 2511], [1, -1]], [[21745, 60945], [415, -393], [-230, -328], [-185, 723], [0, -2]], [[20686, 60940], [0, 0], [0, 0]], [[22529, 62137], [1085, -1610], [-653, 365], [93, -1781], [-456, 367], [-196, -573], [521, 2112], [-690, 433], [295, 687], [1, 0]], [[26527, 63821], [94, -481], [-552, -66], [455, 551], [3, -4]], [[24614, 64125], [0, 0], [0, 0]], [[19576, 64620], [482, -649], [-736, 728], [254, -79]], [[21625, 64942], [-361, -995], [-1089, -11], [1426, 1064], [24, -58]], [[18881, 64602], [0, 0], [0, 0]], [[22700, 65334], [1194, -521], [-1850, -57], [601, 578], [55, 0]], [[18264, 65130], [284, -558], [-560, 86], [-97, 598], [289, -87], [84, -39]], [[5641, 68775], [-12, -3], [12, 3]], [[14100, 79701], [16, 99], [-16, -99]], [[13691, 79888], [1, 0], [-1, 0]], [[37702, 81242], [-878, -1163], [-1307, 523], [1887, 532], [298, 108]], [[13345, 80609], [0, 0], [0, 0]], [[26980, 79226], [14, 27], [-14, -27]], [[14120, 80974], [-342, -259], [320, 362], [22, -103]], [[13953, 81490], [0, 0], [0, 0]], [[13134, 81024], [-131, 504], [132, -503], [-1, -1]], [[13099, 81663], [2, 2], [-2, -2]], [[28667, 85743], [2, 0], [-2, 0]], [[28145, 86043], [-2, 1], [2, -1]], [[29406, 86079], [1, 0], [-1, 0]], [[28706, 86150], [0, 0], [0, 0]], [[28919, 86591], [46, -719], [-249, 295], [202, 425], [1, -1]], [[29840, 86895], [499, -23], [-142, -1443], [-727, 598], [364, 871], [6, -3]], [[47116, 84866], [937, -2211], [711, -418], [-615, -3751], [-920, -1319], [441, -663], [-1750, -4390], [-845, 21], [-874, -1379], [-1844, -1182], [3, -2092], [-1709, 205], [-4148, -1129], [-100, 2251], [-363, -649], [-1374, 92], [-569, 875], [-47, -612], [-818, -68], [-116, 3580], [352, 2703], [-1514, 920], [12, -5259], [-647, 46], [638, -19], [-9, 2077], [-843, -109], [-347, -1693], [252, 1387], [-250, 2214], [-1563, -253], [-1854, -11497], [-1312, -2857], [-516, 209], [-47, 747], [-641, -1452], [-319, 814], [336, 249], [-190, 436], [371, -128], [-574, 1219], [594, 306], [1112, -1073], [794, 1848], [-274, 860], [573, 180], [1786, 9891], [52, 703], [-382, -259], [253, 930], [-410, 510], [-27, 2820], [-436, 318], [485, -219], [55, -789], [130, 855], [4490, 609], [577, -914], [-105, 808], [3140, 725], [1162, 1230], [1543, -1070], [576, 738], [448, 2179], [-733, 194], [328, 1580], [2971, 1004], [785, 1815], [2260, 1259], [407, -2007], [-130, -1214], [322, -306], [319, -426]], [[24211, 91854], [404, -1256], [-743, 502], [-104, 613], [375, 287], [68, -146]], [[1032, 95984], [458, -418], [-172, -945], [-375, 1280], [-351, -1307], [-592, 1865], [838, -302], [194, -173]], [[52893, 98866], [1038, 223], [452, -1431], [795, 208], [265, 911], [25, -1263], [909, -1170], [-310, -1183], [215, -3043], [1503, -2006], [599, 464], [1938, -2193], [-1201, -3084], [466, -2937], [-924, -1162], [-59, -4196], [-748, -3389], [-1285, -1712], [-1337, 1157], [-621, -962], [494, -2280], [-1934, -537], [-279, -1133], [93, 850], [-448, 683], [-1354, 625], [-309, 1696], [-213, -923], [-1016, 705], [-1140, -1344], [-879, 1284], [-1648, -991], [-483, 1313], [1402, 2052], [222, 1574], [549, 832], [-441, 663], [920, 1319], [625, 2868], [-10, 883], [-711, 418], [-1578, 2943], [130, 1214], [-424, 1468], [899, 8772], [671, 1301], [1257, -717], [1899, 2364], [1915, -1134], [71, 0]], [[47146, 52907], [1658, -923], [1020, -2925], [884, 564], [1465, -1183], [563, -1507], [-30, -1418], [1659, -2464], [1653, 47], [398, 1010], [936, -1083], [-137, -928], [529, -794], [205, -2320], [-160, -2199], [738, -2176], [-115, -669], [-999, -667], [471, -2032], [-430, -1926], [1696, -1831], [-609, -184], [-575, -1696], [84, -542], [305, 775], [419, -154], [-6, -1180], [-1367, -293], [-828, 1111], [-643, -809], [-219, 1376], [-1408, 1739], [-181, 1172], [-1352, -1070], [-915, 2236], [-1228, -2059], [-164, -1030], [-868, -568], [-67, -1776], [611, -2173], [-388, -1137], [-2296, -324], [-456, 758], [-1070, -608], [477, -2117], [-1494, 84], [168, 1876], [-1026, 1001], [-487, -317], [5, -1796], [-2126, -105], [-426, 2935], [322, 1696], [-566, 774], [720, 1114], [-641, 1074], [78, 2572], [345, 668], [-770, 1581], [-903, -693], [-1080, 790], [92, 940], [341, 49], [-205, 5435], [338, 2095], [566, 247], [317, 1880], [988, -520], [502, 2520], [727, -967], [560, 1115], [400, -1056], [434, 878], [662, -388], [710, 2061], [-749, 1673], [80, 812], [1017, 1070], [1008, -70], [746, 1607], [-445, 2005], [533, -431], [-1, -232]], [[75003, 29289], [770, 153], [646, -1352], [178, 755], [553, 6], [1308, -1453], [-57, -822], [1134, -2121], [139, -1238], [575, -293], [-28, -1166], [-658, -663], [1600, -1432], [861, 664], [91, 2028], [853, 1297], [-7, 1390], [-591, 1267], [222, 2486], [896, 922], [1122, -2109], [855, 7], [-152, -1244], [1267, -3201], [140, -1284], [-848, -1010], [4, -2200], [437, -1192], [1485, -398], [-457, -1174], [-242, -2475], [-1241, -1777], [-549, -2600], [-795, -1282], [675, -2770], [-133, -1120], [-1804, -2732], [-2230, 2258], [-2071, 3483], [-1607, 813], [-2050, -842], [-2382, -6492], [-1559, 2321], [-2456, -2075], [-799, 1027], [-1737, -106], [-1254, 2439], [-552, 177], [-501, -2106], [-682, -21], [-734, 1103], [103, 1178], [404, 349], [-387, 383], [49, 736], [1385, 2401], [570, 3428], [1081, 47], [671, 3242], [698, -712], [919, 657], [1141, 4339], [-343, 2382], [227, 1344], [1137, -437], [1201, 1058], [-167, 1408], [-824, 1454], [638, 1166], [-761, 2111], [763, -240], [468, 860], [1064, -1352], [991, -28], [579, 1603], [701, -1210], [57, -13]], [[45133, 72139], [847, -1406], [1648, 991], [879, -1284], [1140, 1344], [1016, -705], [213, 923], [309, -1696], [1802, -1308], [-152, -761], [685, -1032], [108, -3346], [-740, -2176], [154, -1502], [1095, -1806], [2384, -1093], [430, -1760], [-1063, -1340], [-158, -952], [992, -846], [872, -2597], [-1290, -2464], [383, -1756], [-431, -2285], [-1539, -483], [-2011, 2716], [30, 1418], [-563, 1507], [-1465, 1183], [-884, -564], [-776, 2531], [-1217, 1374], [-685, -57], [-71, 618], [-461, 45], [445, -2005], [-746, -1607], [-1257, -97], [-969, -1623], [-562, 331], [262, 1136], [-689, 120], [100, 2218], [-399, -324], [-163, 1257], [-654, -195], [-1033, 5237], [-3330, 1893], [-1116, 6647], [4148, 1129], [1709, -205], [-3, 2092], [1844, 1182], [929, 1383], [3, 0]], [[54591, 65587], [291, -1294], [802, 224], [467, -1628], [-417, -1232], [771, -346], [-21, -3954], [-2347, 1018], [-915, 1364], [-334, 1944], [740, 2176], [-161, 2250], [533, -640], [523, 818], [51, -667], [17, -33]], [[57917, 37620], [-173, 3683], [-529, 794], [137, 928], [-936, 1083], [266, 1767], [-378, 1448], [1282, 2353], [827, 3193], [683, -377], [1065, 1368], [505, -172], [205, 1758], [589, 1029], [869, -960], [418, 474], [614, -522], [91, 1363], [1412, 2570], [314, 1574], [-770, -259], [-458, 673], [-8, 1788], [-699, 2269], [-1446, -779], [-1616, 5637], [-934, 90], [-1645, -1282], [-1312, 992], [-604, -933], [-579, 648], [-494, 2280], [681, 962], [1277, -1157], [1321, 1829], [712, 3272], [59, 4196], [924, 1162], [-466, 2937], [1201, 3084], [-447, 1027], [343, 2457], [573, 407], [1025, -741], [703, 1249], [802, -1038], [351, 1678], [353, 58], [872, -302], [1029, -1752], [309, 511], [-470, 1578], [337, 1418], [1151, -665], [999, 658], [398, 1415], [701, -712], [385, 1346], [806, -16], [845, -2585], [-372, -1174], [637, -1037], [-160, -914], [380, -1840], [-204, -1312], [917, -2788], [-910, -2245], [181, -2404], [-583, -196], [-518, -1195], [87, -2300], [437, -1120], [-279, -1118], [329, -3123], [-1117, -566], [63, -4067], [-653, -634], [227, -1291], [-189, -1108], [-544, -736], [-17, -1940], [-681, -833], [-105, -1097], [409, -837], [-1498, -1208], [60, -1012], [-1555, -2996], [581, -2716], [-281, -1720], [452, -2869], [-1005, -379], [-185, 1542], [-639, 1029], [-831, -127], [-83, 1411], [-1476, 1680], [-778, -1422], [-1234, -880], [-53, -1835], [-645, -1545], [334, -2304], [-196, -1210], [427, -1368], [-1534, -3206], [-447, 197], [-219, 59]], [[75526, 83394], [1097, -3607], [598, 561], [995, -1146], [597, 1064], [380, -906], [868, 690], [220, -936], [466, 76], [-162, -815], [1085, -2826], [-325, -1619], [277, -1129], [472, -62], [1117, -2911], [-525, -2214], [1465, 159], [-201, -931], [1315, -2942], [-889, -1862], [-348, -2845], [-317, 209], [-797, -1693], [-2362, 2485], [-707, -664], [-410, -1686], [-17, -2035], [584, -2728], [-2386, -4184], [88, -1865], [-662, -1098], [102, -957], [-365, -1199], [921, -1863], [-579, -2456], [118, -1885], [-1386, -268], [-579, 1275], [-113, 1403], [-2577, 1414], [-25, 1200], [-677, -475], [-423, 1019], [-1475, -966], [-511, 1922], [-1523, 1143], [322, 1375], [-44, 2207], [-1429, 5908], [348, 658], [77, 1902], [1498, 1208], [-409, 837], [105, 1097], [681, 833], [17, 1940], [544, 736], [189, 1108], [-227, 1291], [653, 634], [-63, 4067], [1117, 566], [-329, 3123], [279, 1118], [-437, 1120], [-67, 2424], [1081, 1267], [-181, 2404], [361, 1142], [840, 13], [892, -1462], [1714, 2421], [33, -1734], [11, -50]], [[86280, 89531], [841, -3338], [609, 400], [-153, 1137], [990, 1318], [663, -3196], [3069, -1178], [-119, -1162], [296, -340], [1161, 257], [674, 1406], [2678, 1464], [686, -1728], [546, -208], [-60, -2985], [906, -1182], [-186, -831], [347, -233], [304, -2421], [468, -901], [-271, -997], [-1227, -1370], [145, -2249], [-1312, -363], [-452, -1918], [150, -1016], [-613, -1760], [-781, 245], [-650, -1719], [-492, 592], [-1825, -2377], [-570, -180], [-685, 893], [-683, -3448], [-1063, -2690], [-879, -21], [-341, 1434], [-1196, 1653], [-442, -739], [-1062, 791], [-244, -434], [-436, 1086], [-83, 1919], [279, 795], [-368, 1385], [-949, 1520], [120, 1022], [-1384, -250], [525, 2214], [-1117, 2911], [-472, 62], [-277, 1129], [325, 1619], [-1085, 2826], [162, 815], [-466, -76], [-181, 889], [592, 1140], [-194, 1524], [400, 437], [-435, 3398], [1795, -1123], [422, -923], [783, 320], [1220, -2968], [266, 861], [-408, 2025], [1492, 806], [-473, 1154], [-588, -347], [74, 2920], [1180, 371], [54, -67]], [[85286, 60608], [1527, -828], [442, 739], [1863, -3482], [-1044, -2302], [-510, 336], [-309, -856], [-131, -6314], [-985, -1984], [-69, -2342], [-1047, -3112], [783, -3225], [-1147, -1194], [-286, -1556], [192, -1285], [-1973, -4408], [-222, -2486], [591, -1267], [7, -1390], [-853, -1297], [-91, -2028], [-861, -664], [-1547, 1291], [605, 804], [28, 1166], [-575, 293], [-139, 1238], [-1134, 2121], [57, 822], [-1280, 1431], [-581, 16], [-178, -755], [-646, 1352], [-827, -140], [-701, 1210], [-578, -903], [174, -552], [-954, -261], [-1050, 1383], [-8, 1032], [793, 1122], [-368, 1187], [47, 2283], [461, 818], [4477, 953], [-118, 1885], [579, 2456], [-921, 1863], [365, 1199], [-102, 957], [662, 1098], [-88, 1865], [2386, 4184], [-494, 1968], [-105, 2381], [543, 2397], [606, 367], [2340, -2500], [819, 1708], [317, -209], [294, 2630], [542, 1060], [401, -2222], [21, -53]], [[67097, 55800], [-302, -1690], [1433, -5287], [44, -2207], [-322, -1375], [1523, -1143], [484, -1906], [1502, 950], [423, -1019], [677, 475], [25, -1200], [1066, -252], [1711, -1806], [210, -1676], [-566, -859], [-1971, -10], [-733, -992], [-47, -2283], [366, -1194], [-791, -1115], [8, -1001], [-694, -781], [-799, 140], [772, -1589], [-217, -1386], [-399, -179], [827, -1477], [167, -1408], [-1201, -1058], [-1034, 552], [-251, -2183], [-1252, 120], [-514, -695], [-1526, 1340], [-743, -1152], [-658, 1723], [-1120, -130], [-1031, -1779], [-138, -1541], [-1474, 248], [-775, 4867], [-1009, 660], [6, 1180], [-419, 154], [-317, -761], [134, 1517], [978, 891], [-1676, 1747], [410, 2010], [-471, 2032], [1110, 1303], [-672, 2924], [732, -135], [1534, 3206], [-427, 1368], [196, 1210], [-334, 2304], [645, 1545], [53, 1835], [2053, 2310], [1435, -1688], [83, -1411], [831, 127], [639, -1029], [185, -1542], [905, 212], [-352, 3036], [281, 1720], [-581, 2716], [1368, 2519], [0, -2]], [[46406, 18930], [-373, 2211], [966, 514], [429, -753], [1263, -190], [1148, 601], [300, 1045], [-611, 2173], [67, 1776], [868, 568], [164, 1030], [1228, 2059], [915, -2236], [1352, 1070], [181, -1172], [1408, -1739], [219, -1376], [643, 809], [828, -1111], [1279, 328], [1097, -695], [775, -4867], [1474, -248], [138, 1541], [1412, 1959], [739, -50], [658, -1723], [743, 1152], [1379, -1312], [661, 667], [1252, -120], [264, -1658], [-1141, -4339], [-919, -657], [-698, 712], [-671, -3242], [-1081, -47], [-570, -3428], [-1126, -1514], [-308, -1623], [384, -422], [-1732, -1298], [-792, -2188], [-2069, -1137], [-3196, 2642], [475, 2144], [922, -73], [-262, 1972], [281, 1011], [-669, 2034], [-450, -615], [-502, 322], [-598, 1696], [-23, 604], [1024, 272], [276, 2837], [-769, 856], [-135, 3816], [-1051, -1020], [-734, 589], [-281, -2691], [-475, -358], [-189, -1176], [-527, 119], [243, -3222], [-1767, -673], [-571, 522], [130, 855], [-810, -460], [57, 1206], [-795, 950], [64, 1058], [-344, 380], [385, 918], [-1840, 2428], [-12, -13]], [[23801, 17543], [-78, 44], [78, -44]], [[23723, 17587], [-241, -190], [232, 209], [9, -19]], [[27337, 26192], [1, 0], [-1, 0]], [[26517, 27655], [-1, -5], [1, 5]], [[26517, 27655], [1, 17], [-1, -17]], [[26508, 27696], [-247, 421], [423, 32], [-176, -450], [0, -3]], [[24463, 28692], [0, 0], [0, 0]], [[31877, 31435], [49, 578], [43, -516], [-92, -62]], [[23801, 17543], [497, 77], [2373, 8419], [593, -1464], [-165, 744], [458, 1046], [1227, 1114], [759, -96], [160, -777], [803, 1858], [1783, -267], [43, -1310], [958, 4743], [516, -251], [102, 608], [1189, -301], [1336, -2878], [-535, 1654], [239, 1110], [1839, 573], [1777, -756], [755, 698], [770, -1581], [-345, -668], [-78, -2572], [641, -1074], [-720, -1114], [566, -774], [-322, -1696], [426, -2935], [-1795, -2147], [720, -1585], [127, -2262], [-1631, -1933], [499, -1954], [-498, -1904], [-919, -202], [-271, -1754], [-387, 156], [-314, -839], [-991, 846], [-685, -2735], [-455, -97], [27, -867], [-945, 184], [-1144, 1669], [-1061, -766], [-134, -1381], [438, 29], [-233, -1950], [-628, 1092], [-1112, 412], [-965, -809], [-949, 2418], [343, 2435], [-400, 1596], [-987, -1359], [198, 2662], [-1030, 1513], [679, 1047], [54, 1883], [-802, 2103], [-610, -459], [-718, 291], [-199, 863], [-848, -275], [350, 1808], [-346, 128], [-23, 13]], [[14437, 32042], [-290, -41], [171, 549], [228, -389], [-109, -119]], [[14315, 33429], [-1, 1], [1, -1]], [[17097, 33421], [20, 87], [-20, -87]], [[15379, 36334], [-1, 0], [1, 0]], [[15379, 36334], [1, 0], [-1, 0]], [[16734, 37448], [-113, -1062], [104, 1093], [9, -31]], [[17342, 37637], [599, -1397], [-659, -1748], [-1932, -2248], [96, -1050], [-952, 2403], [1146, 333], [-723, 431], [839, 632], [-113, 1100], [577, -343], [-348, 1327], [959, -1491], [148, 942], [345, 43], [-38, 997], [56, 69]], [[20693, 37771], [31, 107], [-31, -107]], [[16269, 38910], [618, -456], [-509, -963], [43, 1090], [-643, -466], [-70, 704], [549, 110], [12, -19]], [[7899, 40458], [514, -1107], [-883, 155], [-26, 743], [388, 222], [7, -13]], [[26557, 40922], [1, 1], [-1, -1]], [[26600, 42099], [105, 608], [83, -480], [-188, -128]], [[8893, 42429], [1, 0], [-1, 0]], [[7965, 42779], [-1, 0], [1, 0]], [[7426, 42884], [-28, -1284], [-526, 446], [552, 843], [2, -5]], [[7864, 43123], [0, 1], [0, -1]], [[40380, 58329], [569, -311], [1033, -5237], [654, 195], [163, -1257], [399, 324], [-100, -2218], [689, -120], [-262, -1136], [714, -3], [718, -2093], [-710, -2061], [-662, 388], [-434, -878], [-400, 1056], [-560, -1115], [-727, 967], [-502, -2520], [-988, 520], [-317, -1880], [-566, -247], [-338, -2095], [205, -5435], [-400, -265], [85, -944], [-2311, -388], [-804, 1975], [-326, -731], [-2963, 1107], [-3309, -1258], [-645, 159], [-81, 817], [-329, -990], [-867, 782], [-710, 1917], [-595, -426], [44, 854], [-382, 519], [159, 941], [355, 29], [-320, 537], [256, 941], [-581, 563], [3543, 4505], [361, 1767], [1188, 903], [-1641, 4067], [2310, -5392], [-18, 744], [3064, 6563], [-68, 3681], [-305, 730], [519, 1470], [1098, -881], [2761, 515], [-427, 1927], [2476, -1445], [285, -137]]]}