{"type": "Topology", "transform": {"scale": [1.376155879644685e-05, 1.2459043140175013e-05], "translate": [127.27565045692062, 36.012429965710986]}, "objects": {"collection": {"type": "GeometryCollection", "geometries": [{"type": "MultiPolygon", "arcs": [[[0]]], "properties": {"name": "\ucda9\uc8fc\uc2dc", "base_year": "2018", "name_eng": "Chungju-si", "code": "33020"}}, {"type": "MultiPolygon", "arcs": [[[1]]], "properties": {"name": "\uc81c\ucc9c\uc2dc", "base_year": "2018", "name_eng": "Jecheon-si", "code": "33030"}}, {"type": "MultiPolygon", "arcs": [[[2]]], "properties": {"name": "\uccad\uc8fc\uc2dc\uc0c1\ub2f9\uad6c", "base_year": "2018", "name_eng": "Cheongjusisangdanggu", "code": "33041"}}, {"type": "MultiPolygon", "arcs": [[[3]]], "properties": {"name": "\uccad\uc8fc\uc2dc\uc11c\uc6d0\uad6c", "base_year": "2018", "name_eng": "Cheongjusiseowongu", "code": "33042"}}, {"type": "MultiPolygon", "arcs": [[[4]]], "properties": {"name": "\uccad\uc8fc\uc2dc\ud765\ub355\uad6c", "base_year": "2018", "name_eng": "Cheongjusiheungdeokgu", "code": "33043"}}, {"type": "MultiPolygon", "arcs": [[[5]]], "properties": {"name": "\uccad\uc8fc\uc2dc\uccad\uc6d0\uad6c", "base_year": "2018", "name_eng": "Cheongjusicheongwongu", "code": "33044"}}, {"type": "MultiPolygon", "arcs": [[[6]]], "properties": {"name": "\ubcf4\uc740\uad70", "base_year": "2018", "name_eng": "Boeun-gun", "code": "33320"}}, {"type": "MultiPolygon", "arcs": [[[7]]], "properties": {"name": "\uc625\ucc9c\uad70", "base_year": "2018", "name_eng": "Okcheon-gun", "code": "33330"}}, {"type": "MultiPolygon", "arcs": [[[8]]], "properties": {"name": "\uc601\ub3d9\uad70", "base_year": "2018", "name_eng": "Yeongdong-gun", "code": "33340"}}, {"type": "MultiPolygon", "arcs": [[[9]]], "properties": {"name": "\uc9c4\ucc9c\uad70", "base_year": "2018", "name_eng": "Jincheon-gun", "code": "33350"}}, {"type": "MultiPolygon", "arcs": [[[10]]], "properties": {"name": "\uad34\uc0b0\uad70", "base_year": "2018", "name_eng": "Goesan-gun", "code": "33360"}}, {"type": "MultiPolygon", "arcs": [[[11]]], "properties": {"name": "\uc74c\uc131\uad70", "base_year": "2018", "name_eng": "Eumseong-gun", "code": "33370"}}, {"type": "MultiPolygon", "arcs": [[[12]]], "properties": {"name": "\ub2e8\uc591\uad70", "base_year": "2018", "name_eng": "Danyang-gun", "code": "33380"}}, {"type": "MultiPolygon", "arcs": [[[13]]], "properties": {"name": "\uc99d\ud3c9\uad70", "base_year": "2018", "name_eng": "Jeungpyeonggun", "code": "33390"}}]}}, "arcs": [[[51358, 64498], [-41, 595], [-738, 235], [349, 848], [-697, 1126], [179, 674], [-1738, 1136], [381, 1053], [-1341, 77], [-1055, -524], [-1027, 553], [-212, 760], [-1284, -570], [-109, 445], [-1273, 30], [-649, 884], [-1245, 516], [369, 1127], [-532, 189], [-199, 786], [-1707, -22], [-699, 638], [-1762, -1139], [-1645, 1975], [-993, -447], [-1670, 484], [-2178, 2205], [-1299, 138], [-484, -820], [-777, 435], [288, 1492], [760, 135], [-671, 1030], [582, 1177], [1952, 1806], [-555, 2012], [630, 257], [708, 1741], [1512, 961], [-947, 1618], [-1102, 489], [49, 801], [1576, 2584], [691, -71], [643, 2048], [645, 546], [862, -3533], [2436, -2202], [4205, 764], [424, 590], [587, -396], [776, 722], [1060, -262], [896, -905], [1173, 1531], [2907, -596], [964, -422], [166, -1127], [1165, -878], [-89, -1507], [1001, -339], [341, -784], [555, 89], [611, 1473], [1252, -481], [590, 304], [152, -1043], [1143, -484], [-175, -798], [1786, -857], [-326, -2218], [702, -2015], [-1035, -1592], [1071, -1439], [-314, -2776], [-834, -75], [-1099, 814], [-1428, -465], [195, -1180], [1134, -632], [280, -950], [742, -538], [-468, -308], [3, -1249], [-2233, -3117], [1917, -1373], [1829, 1092], [755, -1444], [2108, 33], [541, -443], [-1751, -559], [-203, -1137], [-1026, -356], [39, -489], [-1900, 1604], [-2317, 657], [-830, 84], [-74, -1033], [-831, -508], [-1959, 746], [-161, -6]], [[51285, 99883], [2677, -896], [346, -1612], [1144, -770], [-760, -1101], [647, -1046], [2697, 305], [2498, 1010], [1208, 2317], [2846, -1692], [624, 450], [75, 1087], [1967, 1313], [979, -232], [1061, -1486], [1576, 162], [1269, -1739], [3502, 1242], [1133, -761], [-421, -1334], [-944, -41], [-211, -757], [-1080, -325], [178, -934], [-1233, 140], [-1211, -1042], [955, -1305], [1880, -1222], [399, -1367], [-372, -929], [-718, -182], [-1188, 1425], [-491, 6], [-1052, -1158], [954, -1116], [-2186, -1120], [-189, -657], [-1377, -889], [-54, -1361], [576, -817], [1080, -248], [1174, -1491], [700, -3567], [-439, -502], [281, -430], [-1975, -1273], [27, -1366], [689, -934], [-174, -1124], [517, -501], [-1182, -1757], [172, -1404], [-1872, 125], [360, -2764], [-4584, 800], [-825, 875], [-3211, 15], [-760, 1446], [-1829, -1092], [-1825, 1108], [2141, 3382], [-3, 1249], [468, 308], [-742, 538], [-280, 950], [-1134, 632], [-195, 1180], [1428, 465], [1099, -814], [834, 75], [314, 2776], [-1071, 1439], [1035, 1592], [-702, 2015], [330, 2203], [-1790, 872], [175, 798], [-1143, 484], [-152, 1043], [-590, -304], [-1252, 481], [-611, -1473], [-555, -89], [-341, 784], [-1001, 339], [89, 1507], [-1165, 878], [-166, 1127], [-3051, 749], [722, 1865], [-1056, 2939], [1246, 1233], [2981, 1412], [110, -117]], [[29306, 56627], [577, 204], [1058, -823], [912, -1630], [956, -595], [-1061, -1188], [-232, -1098], [2089, -1024], [882, -1557], [1045, -709], [306, -1512], [-1670, -719], [-1244, 1370], [-1084, -24], [-1395, -1086], [-3515, 1453], [-769, -510], [-1758, -2485], [415, -785], [-351, -647], [-2289, -760], [-1150, -914], [855, -3218], [-1499, -1498], [-824, -2052], [-1860, -943], [-707, -2078], [-577, 3], [-856, 1986], [945, 1775], [-1692, 40], [366, 1488], [-644, 1259], [-1882, 824], [-320, 1156], [747, 858], [-558, 1735], [2691, -185], [-234, 1322], [-1057, 57], [84, 769], [413, 755], [1805, 586], [-107, 2126], [-1086, 1289], [20, 1117], [2592, 805], [1344, 1177], [2183, 388], [3658, 2639], [1300, 121], [1161, -541], [834, 1042], [134, 1204], [1049, -966], [0, -1]], [[15164, 50416], [-133, -774], [1086, -1289], [107, -2126], [-1805, -586], [-512, -1389], [1072, -192], [331, -1119], [-1445, -400], [-689, 524], [-716, -394], [620, -1483], [-747, -858], [320, -1156], [1882, -824], [347, -1048], [-991, -561], [-611, -1436], [-4140, 354], [197, 1959], [-583, 851], [1067, 484], [-128, 963], [-826, 907], [779, 494], [-477, 1127], [-1304, 23], [-824, 1460], [2932, 3702], [478, -741], [1044, 163], [676, 1983], [982, 1175], [1831, 681], [173, -409], [7, -65]], [[2531, 57136], [4676, -947], [1355, 408], [1253, -603], [-135, -365], [1656, -1677], [1218, -31], [-59, -709], [1039, -393], [1450, -1929], [-1831, -681], [-982, -1175], [-676, -1983], [-1044, -163], [-351, 810], [-2726, -3116], [-2857, -437], [-1190, 1713], [-1571, 175], [488, 1238], [-1073, 1946], [29, 804], [-928, -171], [-272, 505], [518, 200], [429, 1332], [1192, 696], [184, 1160], [-1623, 695], [1680, 1134], [168, 1526], [-17, 38]], [[21891, 60550], [873, -499], [138, -1044], [1108, -335], [929, -2175], [-394, -1258], [-1092, -263], [-2283, -1847], [-2183, -388], [-1344, -1177], [-2592, -805], [-1481, 2026], [-1075, 427], [59, 709], [-1218, 31], [-1656, 1677], [135, 365], [-1253, 603], [-1362, -407], [-4077, 947], [497, 752], [878, -351], [362, 360], [-664, 1040], [154, 474], [2401, 698], [1295, -165], [1128, -1052], [757, 894], [882, 116], [193, -638], [1619, -137], [36, 799], [763, 871], [2184, 312], [484, 498], [839, -249], [27, -810], [4053, 1080], [819, -1068], [61, -11]], [[37605, 47847], [853, -2181], [1423, -841], [2612, -237], [719, -706], [420, -1777], [1916, -718], [265, -1760], [-2223, -1643], [499, -787], [-31, -1126], [-713, -1684], [62, -1331], [706, -169], [-705, -1307], [-665, -228], [-69, -809], [931, -190], [614, -850], [-311, -687], [-3434, -185], [-715, 865], [-2395, 694], [-1384, -87], [-610, 480], [-1140, -613], [-1195, 325], [-1603, 1336], [136, 582], [-2089, 383], [-59, 1402], [-1068, 721], [-593, -562], [-938, 586], [-401, -744], [-580, 283], [-1381, -2905], [-2048, 1159], [-306, -799], [-1820, -1207], [354, 435], [-1025, 850], [-239, 840], [-2018, 256], [382, 1009], [1821, 900], [824, 2052], [1499, 1498], [-855, 3218], [1150, 914], [2289, 760], [351, 647], [-415, 785], [1758, 2485], [769, 510], [3515, -1453], [1395, 1086], [1084, 24], [1244, -1370], [1670, 719], [47, 786], [1219, 785], [404, -277], [97, -142]], [[27008, 34671], [751, -514], [593, 562], [1054, -698], [73, -1425], [2089, -383], [-136, -582], [1432, -1265], [1366, -396], [1140, 613], [610, -480], [1384, 87], [2395, -694], [715, -865], [3709, 120], [551, -881], [-446, -847], [-2366, -1563], [-536, -1059], [-1759, -905], [-257, 416], [-664, -124], [-1007, -1469], [-1765, -19], [-1042, -1793], [-1801, 677], [-1238, -621], [49, -441], [-1045, -339], [-1439, -2665], [-1209, -194], [-560, 487], [-559, -1786], [481, -2394], [-389, -527], [-1213, 778], [-2566, 359], [-382, 828], [514, 752], [-110, 1006], [-1049, 1140], [-967, 178], [-1812, -642], [329, 1036], [-868, 349], [-122, 679], [-1316, -850], [-1857, -216], [-474, 1870], [927, 1731], [-553, 1105], [565, 730], [-218, 1140], [508, 460], [-154, 1131], [1604, 1269], [147, 2568], [1038, 834], [1132, -409], [800, 411], [1326, 1595], [2048, -1159], [1381, 2905], [580, -283], [561, 706], [27, -34]], [[41330, 24323], [-209, -575], [769, -2760], [2217, -14], [1574, 2224], [277, -1280], [1657, -601], [2126, -2059], [756, -158], [772, 1064], [2090, 681], [2718, -1251], [-1268, -1328], [2042, -3123], [-1408, -557], [-1060, 1003], [-1039, 217], [-2306, -903], [-195, -834], [640, -766], [-112, -611], [1061, -1211], [-706, -649], [22, -1490], [-1525, -864], [137, -1198], [-742, -1043], [175, -1589], [-1786, -1546], [-1424, 259], [-1018, -1220], [-1298, -258], [-586, -1074], [-772, 143], [-1278, 1239], [-3569, -1097], [-859, -928], [-1697, -166], [-362, 223], [168, 800], [-4336, 810], [-938, 2200], [-1398, -907], [215, -782], [-909, -248], [-422, 1393], [-2699, 3024], [132, 1229], [-2152, 2039], [885, 2065], [-625, 1393], [338, 602], [3946, -1035], [172, 1606], [-431, 1213], [559, 1786], [560, -487], [1209, 194], [1439, 2665], [1045, 339], [-49, 441], [1238, 621], [1801, -677], [1042, 1793], [1765, 19], [1007, 1469], [664, 124], [257, -416], [1759, 905], [-56, -78]], [[12032, 80238], [568, -183], [16, -2621], [572, -942], [-780, -328], [64, -919], [1177, -119], [518, -985], [1613, 209], [1353, -651], [1167, -1575], [1859, -974], [188, -1022], [938, -35], [1206, -1175], [-620, -516], [142, -993], [-512, -178], [-208, -925], [89, -740], [678, -88], [-518, -661], [-2527, -915], [786, -821], [512, 69], [698, -1521], [-4053, -1080], [-292, 1017], [-1686, -280], [-1556, -488], [-937, -1681], [-1481, 148], [-13, 545], [-526, 5], [-490, 1248], [-1268, 743], [384, 1334], [-1354, 1177], [-1129, 258], [-1081, 1099], [-1250, 0], [146, 1923], [-2125, 408], [42, 2061], [-1457, 674], [1129, 1815], [-562, 1195], [2266, 373], [1658, 1353], [1891, -331], [844, 1268], [1036, 258], [-1203, 1281], [591, 1107], [2596, 382], [872, 796], [29, 1]], [[38663, 74537], [1833, -99], [199, -786], [532, -189], [-369, -1127], [1245, -516], [649, -884], [1273, -30], [109, -445], [1284, 570], [212, -760], [1027, -553], [1055, 524], [1375, -101], [-415, -1029], [1738, -1136], [-179, -674], [697, -1126], [-349, -848], [738, -235], [41, -595], [2549, -639], [476, 1440], [2557, -770], [-309, -1905], [-1646, -3619], [2591, -2034], [344, -831], [-1673, -331], [-2533, 1801], [-937, -1038], [-1097, 23], [-1948, 1570], [-789, -1383], [25, -949], [-1160, -126], [-337, -1256], [-2546, 285], [-1397, -946], [2755, -377], [373, -807], [862, 73], [150, -1072], [541, -213], [-487, -2729], [-593, -234], [74, -1045], [-383, -136], [-929, 1982], [-1297, 314], [-677, 2169], [-1361, -1700], [-1056, -127], [222, -1156], [617, -486], [-1279, -420], [-1432, 402], [-1381, -919], [-1143, 957], [-1219, -785], [-2280, 2992], [-891, 273], [-180, 531], [-777, -77], [-174, 998], [1226, 1585], [-2926, 3048], [-533, -274], [-1834, 1388], [-1064, -193], [-301, 1615], [-825, 674], [329, 963], [-572, 491], [8, 744], [1526, 1033], [-861, 1244], [16, 1005], [1027, 2344], [1214, 150], [1212, -713], [1173, 2336], [999, -331], [1999, 322], [1112, -531], [2704, 587], [335, 1506], [-544, 520], [855, -233], [123, 448], [-1227, 1252], [508, 214], [472, 1532], [888, -347], [41, -40]], [[28083, 90442], [3216, -174], [1199, -1699], [-1522, -1034], [-708, -1741], [-630, -257], [555, -2012], [-1952, -1806], [-582, -1177], [671, -1030], [-760, -135], [-288, -1492], [777, -435], [484, 820], [1299, -138], [2178, -2205], [1670, -484], [993, 447], [1538, -1941], [1012, 275], [55, -778], [-534, -268], [1227, -1270], [-123, -430], [-855, 233], [544, -520], [-335, -1506], [-2704, -587], [-1112, 531], [-1999, -322], [-999, 331], [-1173, -2336], [-1848, 796], [-2677, -2164], [-295, 1114], [370, 873], [-1458, -568], [-942, 682], [-384, -540], [-120, 907], [611, 798], [-927, 225], [-270, 668], [-938, 35], [-188, 1022], [-1859, 974], [-1167, 1575], [-1353, 651], [-1613, -209], [-518, 985], [-1177, 119], [-64, 919], [790, 205], [-579, 1048], [-157, 2809], [815, 683], [-109, 1744], [825, 905], [1308, 110], [990, -579], [1339, 863], [2803, -1376], [923, 556], [-333, 996], [946, 1184], [1943, -526], [-698, 1542], [1223, -59], [1641, 1009], [236, 3320], [-687, 1131], [1343, -333], [1054, -943], [59, -11]], [[81159, 91577], [809, -1105], [-556, -885], [1633, -705], [452, -1393], [766, 707], [3093, -89], [1365, 1252], [1278, -1768], [1235, -298], [411, -793], [1807, 8], [2191, -970], [710, 394], [348, -513], [1180, 861], [405, -982], [1714, -904], [-1372, -1878], [-1779, 988], [-120, -756], [-1691, 28], [-1101, -764], [211, -1468], [-1202, -1416], [-2853, -920], [-635, -1344], [-2875, -1495], [-492, -1401], [-1355, -533], [218, -1097], [-1510, -2983], [1746, -974], [75, -1328], [-1084, -1100], [-644, -1554], [-3045, -82], [-1086, -938], [-1106, 833], [-2669, 338], [-2172, 2277], [-297, 877], [-2954, 1314], [661, 995], [-517, 501], [174, 1124], [-689, 934], [-27, 1366], [1975, 1273], [-281, 430], [439, 502], [-700, 3567], [-1174, 1491], [-1080, 248], [-576, 817], [54, 1361], [1377, 889], [189, 657], [2186, 1120], [-954, 1116], [1052, 1158], [491, -6], [1188, -1425], [718, 182], [372, 929], [-771, 1789], [812, 861], [2105, 1061], [1543, -636], [343, 499], [874, -323], [689, 367], [478, -288]], [[22376, 68032], [941, -679], [1458, 568], [-370, -873], [295, -1114], [1429, 1066], [288, -289], [-679, -1998], [879, -1441], [-1526, -1033], [-34, -683], [512, -238], [-243, -1277], [825, -674], [248, -1568], [1854, -195], [-699, -2065], [-2682, 245], [-862, 2888], [-1108, 335], [-138, 1044], [-1549, 1059], [-897, 2033], [-517, -62], [-786, 821], [2644, 1028], [401, 548], [-727, 141], [168, 1612], [874, 804], [1, -3]]]}