{"type": "Topology", "transform": {"scale": [3.130259959460773e-06, 3.1713057301706728e-06], "translate": [127.24665299613605, 36.18310005813703]}, "objects": {"collection": {"type": "GeometryCollection", "geometries": [{"type": "MultiPolygon", "arcs": [[[0]]], "properties": {"name": "\ub3d9\uad6c", "base_year": "2018", "name_eng": "Dong-gu", "code": "25010"}}, {"type": "MultiPolygon", "arcs": [[[1]]], "properties": {"name": "\uc911\uad6c", "base_year": "2018", "name_eng": "Jung-gu", "code": "25020"}}, {"type": "MultiPolygon", "arcs": [[[2]]], "properties": {"name": "\uc11c\uad6c", "base_year": "2018", "name_eng": "Seo-gu", "code": "25030"}}, {"type": "MultiPolygon", "arcs": [[[3]]], "properties": {"name": "\uc720\uc131\uad6c", "base_year": "2018", "name_eng": "Yuseong-gu", "code": "25040"}}, {"type": "MultiPolygon", "arcs": [[[4]]], "properties": {"name": "\ub300\ub355\uad6c", "base_year": "2018", "name_eng": "Daedeok-gu", "code": "25050"}}]}}, "arcs": [[[81673, 71083], [2676, 429], [1222, 3969], [3133, 302], [5738, -1309], [1052, -3299], [4506, -3342], [-6536, -101], [-4564, -3277], [-645, -10086], [-7051, -4989], [676, -4441], [-2231, -1808], [959, -4480], [-2485, -2865], [2432, -4343], [-4077, -6801], [2086, -7345], [-8004, -4813], [672, -2348], [-4941, -2600], [457, -1954], [-4629, -1897], [-5995, 4187], [568, 6211], [3102, 15], [3010, 3398], [-2416, 4467], [-2762, 547], [3994, 4974], [-3883, 6550], [9840, 848], [-14223, 15828], [2389, 138], [4554, 5192], [3121, -3161], [6215, 65], [433, 2927], [-4724, 6539], [1319, 5995], [10389, 12184], [1466, 220], [-801, -2189], [3716, -7497], [242, -40]], [[55117, 49163], [12460, -14281], [-9705, -549], [3748, -6849], [-3994, -4974], [2762, -547], [2416, -4467], [-3010, -3398], [-3102, -15], [648, -5093], [-2031, -1317], [-3765, 1722], [839, 1469], [-3625, 4727], [-3813, 507], [931, 8867], [-5685, 3124], [-1593, 4019], [4602, 3918], [1251, 7233], [5479, 5767], [307, 3485], [4662, -3301], [218, -47]], [[45441, 59301], [3911, -3088], [643, -7001], [-4513, -3582], [-2282, -9604], [-4602, -3918], [1371, -4629], [-3542, -1939], [1124, -14251], [-4681, -3426], [-4956, -7863], [-154, 5541], [-3359, 964], [-480, 3059], [-5519, 5110], [-544, -2447], [-2790, 391], [-3827, 4001], [-772, 5242], [9779, 6478], [3925, 7677], [3246, 1419], [2318, 5012], [-1224, 3920], [5827, 923], [-1109, 6420], [9389, 5702], [2821, -111]], [[48644, 96492], [1674, -2560], [-663, -7866], [-4074, -4188], [9710, -8658], [-2757, -11074], [-5756, -2788], [-5869, 51], [-7678, -5699], [993, -6664], [-5711, -679], [1002, -5328], [-8862, -9692], [-405, -3008], [-8641, -2569], [-8138, 3838], [-3469, 4403], [4215, 1480], [-26, 9963], [2669, 1313], [168, 3024], [3345, 1204], [-2731, 5057], [3344, 4416], [348, 12534], [4566, 2711], [6399, -867], [6748, 2488], [6725, 8686], [-670, 2344], [2384, 3622], [-1226, 4324], [7573, 3690], [3918, -2683], [895, -825]], [[76511, 85053], [4613, 1064], [921, -2159], [-14663, -14593], [-2040, -6955], [4724, -6539], [-299, -2755], [-6349, -237], [-3121, 3161], [-6520, -6271], [-3540, 2742], [-3533, 7108], [5830, 2527], [2926, 10566], [-9782, 9987], [3977, 3367], [10790, 127], [6038, -1945], [3849, 6278], [4358, 2205], [1305, -831], [-2254, -4921], [2256, -1894], [514, -32]]]}