{"type": "Topology", "transform": {"scale": [2.8196637582207132e-05, 1.517118718201857e-05], "translate": [125.08415719524065, 33.969795108229825]}, "objects": {"collection": {"type": "GeometryCollection", "geometries": [{"type": "MultiPolygon", "arcs": [[[0]], [[1]], [[2]], [[3]], [[4]], [[5]], [[6]], [[7]]], "properties": {"name": "\ubaa9\ud3ec\uc2dc", "base_year": "2018", "name_eng": "Mokpo-si", "code": "36010"}}, {"type": "MultiPolygon", "arcs": [[[8]], [[9]], [[10]], [[11]], [[12]], [[13]], [[14]], [[15]], [[16]], [[17]], [[18]], [[19]], [[20]], [[21]], [[22]], [[23]], [[24]], [[25]], [[26]], [[27]], [[28]], [[29]], [[30]], [[31]], [[32]], [[33]], [[34]], [[35]], [[36]], [[37]], [[38]], [[39]], [[40]], [[41]], [[42]], [[43]], [[44]], [[45]], [[46]], [[47]], [[48]], [[49]], [[50]], [[51]], [[52]], [[53]], [[54]], [[55]], [[56]], [[57]], [[58]], [[59]], [[60]], [[61]], [[62]], [[63]], [[64]], [[65]], [[66]], [[67]], [[68]], [[69]], [[70]], [[71]], [[72]], [[73]], [[74]], [[75]], [[76]], [[77]], [[78]], [[79]], [[80]], [[81]], [[82]], [[83]], [[84]], [[85]], [[86]], [[87]], [[88]], [[89]], [[90]], [[91]], [[92]], [[93]], [[94]], [[95]], [[96]], [[97]], [[98]], [[99]], [[100]], [[101]], [[102]], [[103]], [[104]], [[105]], [[106]], [[107]], [[108]], [[109]], [[110]], [[111]], [[112]], [[113]], [[114]], [[115]], [[116]]], "properties": {"name": "\uc5ec\uc218\uc2dc", "base_year": "2018", "name_eng": "Yeosu-si", "code": "36020"}}, {"type": "MultiPolygon", "arcs": [[[117]]], "properties": {"name": "\uc21c\ucc9c\uc2dc", "base_year": "2018", "name_eng": "Suncheon-si", "code": "36030"}}, {"type": "MultiPolygon", "arcs": [[[118]]], "properties": {"name": "\ub098\uc8fc\uc2dc", "base_year": "2018", "name_eng": "Naju-si", "code": "36040"}}, {"type": "MultiPolygon", "arcs": [[[119]], [[120]], [[121], [122]], [[123]]], "properties": {"name": "\uad11\uc591\uc2dc", "base_year": "2018", "name_eng": "Gwangyang-si", "code": "36060"}}, {"type": "MultiPolygon", "arcs": [[[124]]], "properties": {"name": "\ub2f4\uc591\uad70", "base_year": "2018", "name_eng": "Damyang-gun", "code": "36310"}}, {"type": "MultiPolygon", "arcs": [[[125]]], "properties": {"name": "\uace1\uc131\uad70", "base_year": "2018", "name_eng": "Gokseong-gun", "code": "36320"}}, {"type": "MultiPolygon", "arcs": [[[126]]], "properties": {"name": "\uad6c\ub840\uad70", "base_year": "2018", "name_eng": "Gurye-gun", "code": "36330"}}, {"type": "MultiPolygon", "arcs": [[[127]], [[128]], [[129]], [[130]], [[131]], [[132]], [[133]], [[134]], [[135]], [[136]], [[137]], [[138]], [[139]], [[140]], [[141]], [[142]], [[143]], [[144]], [[145]], [[146]], [[147]], [[148]], [[149]], [[150]], [[151]], [[152]], [[153]], [[154]], [[155]], [[156]], [[157]], [[158]], [[159]], [[160]], [[161]], [[162]], [[163]], [[164]], [[165]], [[166]], [[167]], [[168]], [[169]], [[170]], [[171]], [[172]], [[173]], [[174]], [[175]], [[176]], [[177]], [[178]], [[179]], [[180]], [[181]], [[182]], [[183]], [[184]], [[185]], [[186]], [[187]], [[188]], [[189]]], "properties": {"name": "\uace0\ud765\uad70", "base_year": "2018", "name_eng": "Goheung-gun", "code": "36350"}}, {"type": "MultiPolygon", "arcs": [[[190]], [[191]], [[192]], [[193]], [[194]], [[195]], [[196]], [[197]]], "properties": {"name": "\ubcf4\uc131\uad70", "base_year": "2018", "name_eng": "Boseong-gun", "code": "36360"}}, {"type": "MultiPolygon", "arcs": [[[198]]], "properties": {"name": "\ud654\uc21c\uad70", "base_year": "2018", "name_eng": "Hwasun-gun", "code": "36370"}}, {"type": "MultiPolygon", "arcs": [[[199]], [[200]], [[201]], [[202]], [[203]], [[204]]], "properties": {"name": "\uc7a5\ud765\uad70", "base_year": "2018", "name_eng": "Jangheung-gun", "code": "36380"}}, {"type": "MultiPolygon", "arcs": [[[205]], [[206]], [[207]], [[208]], [[209]]], "properties": {"name": "\uac15\uc9c4\uad70", "base_year": "2018", "name_eng": "Gangjin-gun", "code": "36390"}}, {"type": "MultiPolygon", "arcs": [[[210]], [[211]], [[212]], [[213]], [[214]], [[215]], [[216]], [[217]], [[218]], [[219]], [[220]], [[221]], [[222]], [[223]], [[224]], [[225]], [[226]], [[227]]], "properties": {"name": "\ud574\ub0a8\uad70", "base_year": "2018", "name_eng": "Haenam-gun", "code": "36400"}}, {"type": "MultiPolygon", "arcs": [[[228]], [[229]]], "properties": {"name": "\uc601\uc554\uad70", "base_year": "2018", "name_eng": "Yeongam-gun", "code": "36410"}}, {"type": "MultiPolygon", "arcs": [[[230]], [[231]], [[232]], [[233]], [[234]], [[235]], [[236]], [[237]], [[238]]], "properties": {"name": "\ubb34\uc548\uad70", "base_year": "2018", "name_eng": "Muan-gun", "code": "36420"}}, {"type": "MultiPolygon", "arcs": [[[239]]], "properties": {"name": "\ud568\ud3c9\uad70", "base_year": "2018", "name_eng": "Hampyeong-gun", "code": "36430"}}, {"type": "MultiPolygon", "arcs": [[[240]], [[241]], [[242]], [[243]], [[244]], [[245]], [[246]], [[247]], [[248]], [[249]], [[250]], [[251]], [[252]], [[253]], [[254]], [[255]], [[256]], [[257]], [[258]], [[259]], [[260]], [[261]], [[262]], [[263]]], "properties": {"name": "\uc601\uad11\uad70", "base_year": "2018", "name_eng": "Yeonggwang-gun", "code": "36440"}}, {"type": "MultiPolygon", "arcs": [[[264]]], "properties": {"name": "\uc7a5\uc131\uad70", "base_year": "2018", "name_eng": "Jangseong-gun", "code": "36450"}}, {"type": "MultiPolygon", "arcs": [[[265]], [[266]], [[267]], [[268]], [[269]], [[270]], [[271]], [[272]], [[273]], [[274]], [[275]], [[276]], [[277]], [[278]], [[279]], [[280]], [[281]], [[282]], [[283]], [[284]], [[285]], [[286]], [[287]], [[288]], [[289]], [[290]], [[291]], [[292]], [[293]], [[294]], [[295]], [[296]], [[297]], [[298]], [[299]], [[300]], [[301]], [[302]], [[303]], [[304]], [[305]], [[306]], [[307]], [[308]], [[309]], [[310]], [[311]], [[312]], [[313]], [[314]], [[315]], [[316]], [[317]], [[318]], [[319]], [[320]], [[321]], [[322]], [[323]], [[324]], [[325]], [[326]], [[327]], [[328]], [[329]], [[330]], [[331]], [[332]], [[333]], [[334]], [[335]], [[336]], [[337]], [[338]], [[339]], [[340]], [[341]], [[342]], [[343]], [[344]], [[345]], [[346]], [[347]], [[348]], [[349]], [[350]], [[351]], [[352]], [[353]], [[354]], [[355]], [[356]], [[357]], [[358]], [[359]], [[360]], [[361]], [[362]], [[363]], [[364]], [[365]], [[366]], [[367]], [[368]], [[369]], [[370]], [[371]], [[372]], [[373]], [[374]], [[375]], [[376]]], "properties": {"name": "\uc644\ub3c4\uad70", "base_year": "2018", "name_eng": "Wando-gun", "code": "36460"}}, {"type": "MultiPolygon", "arcs": [[[377]], [[378]], [[379]], [[380]], [[381]], [[382]], [[383]], [[384]], [[385]], [[386]], [[387]], [[388]], [[389]], [[390]], [[391]], [[392]], [[393]], [[394]], [[395]], [[396]], [[397]], [[398]], [[399]], [[400]], [[401]], [[402]], [[403]], [[404]], [[405]], [[406]], [[407]], [[408]], [[409]], [[410]], [[411]], [[412]], [[413]], [[414]], [[415]], [[416]], [[417]], [[418]], [[419]], [[420]], [[421]], [[422]], [[423]], [[424]], [[425]], [[426]], [[427]], [[428]], [[429]], [[430]], [[431]], [[432]], [[433]], [[434]], [[435]], [[436]], [[437]], [[438]], [[439]], [[440]], [[441]], [[442]], [[443]], [[444]], [[445]], [[446]], [[447]], [[448]], [[449]], [[450]], [[451]], [[452]], [[453]], [[454]], [[455]], [[456]], [[457]], [[458]], [[459]], [[460]], [[461]], [[462]], [[463]], [[464]], [[465]], [[466]], [[467]], [[468]], [[469]], [[470]], [[471]], [[472]], [[473]], [[474]], [[475]], [[476]], [[477]], [[478]], [[479]], [[480]]], "properties": {"name": "\uc9c4\ub3c4\uad70", "base_year": "2018", "name_eng": "Jindo-gun", "code": "36470"}}, {"type": "MultiPolygon", "arcs": [[[481]], [[482]], [[483]], [[484]], [[485]], [[486]], [[487]], [[488]], [[489]], [[490]], [[491]], [[492]], [[493]], [[494]], [[495]], [[496]], [[497]], [[498]], [[499]], [[500]], [[501]], [[502]], [[503]], [[504]], [[505]], [[506]], [[507]], [[508]], [[509]], [[510]], [[511]], [[512]], [[513]], [[514]], [[515]], [[516]], [[517]], [[518]], [[519]], [[520]], [[521]], [[522]], [[523]], [[524]], [[525]], [[526]], [[527]], [[528]], [[529]], [[530]], [[531]], [[532]], [[533]], [[534]], [[535]], [[536]], [[537]], [[538]], [[539]], [[540]], [[541]], [[542]], [[543]], [[544]], [[545]], [[546]], [[547]], [[548]], [[549]], [[550]], [[551]], [[552]], [[553]], [[554]], [[555]], [[556]], [[557]], [[558]], [[559]], [[560]], [[561]], [[562]], [[563]], [[564]], [[565]], [[566]], [[567]], [[568]], [[569]], [[570]], [[571]], [[572]], [[573]], [[574]], [[575]], [[576]], [[577]], [[578]], [[579]], [[580]], [[581]], [[582]], [[583]], [[584]], [[585]], [[586]], [[587]], [[588]], [[589]], [[590]], [[591]], [[592]], [[593]], [[594]], [[595]], [[596]], [[597]], [[598]], [[599]], [[600]], [[601]], [[602]], [[603]], [[604]], [[605]], [[606]], [[607]], [[608]], [[609]], [[610]], [[611]], [[612]], [[613]], [[614]], [[615]], [[616]], [[617]], [[618]], [[619]], [[620]], [[621]], [[622]], [[623]], [[624]], [[625]], [[626]], [[627]], [[628]], [[629]], [[630]], [[631]], [[632]], [[633]], [[634]], [[635]], [[636]], [[637]], [[638]], [[639]], [[640]], [[641]], [[642]], [[643]], [[644]], [[645]], [[646]], [[647]], [[648]], [[649]], [[650]], [[651]], [[652]], [[653]], [[654]], [[655]], [[656]], [[657]], [[658]], [[659]], [[660]], [[661]], [[662]], [[663]], [[664]], [[665]], [[666]], [[667]], [[668]], [[669]], [[670]], [[671]], [[672]], [[673]], [[674]], [[675]], [[676]], [[677]], [[678]], [[679]], [[680]], [[681]], [[682]], [[683]], [[684]], [[685]], [[686]], [[687]], [[688]], [[689]], [[690]], [[691]], [[692]], [[693]], [[694]], [[695]], [[696]], [[697]], [[698]], [[699]], [[700]], [[701]], [[702]], [[703]], [[704]], [[705]], [[706]], [[707]], [[708]], [[709]], [[710]], [[711]], [[712]], [[713]], [[714]], [[715]], [[716]], [[717]], [[718]], [[719]], [[720]], [[721]], [[722]], [[723]], [[724]], [[725]], [[726]], [[727]], [[728]], [[729]], [[730]], [[731]], [[732]], [[733]], [[734]], [[735]], [[736]], [[737]], [[738]], [[739]], [[740]], [[741]], [[742]], [[743]]], "properties": {"name": "\uc2e0\uc548\uad70", "base_year": "2018", "name_eng": "Sinan-gun", "code": "36480"}}]}}, "arcs": [[[43061, 53509], [119, -339], [-217, -25], [-256, 130], [347, 235], [7, -1]], [[45170, 53382], [633, -621], [-100, -723], [-503, -467], [64, -485], [-355, 379], [64, 986], [224, 15], [-208, 400], [206, -36], [-26, 555], [1, -3]], [[44131, 53533], [-332, -1485], [-300, 131], [-212, 567], [136, 815], [446, 392], [256, -414], [6, -6]], [[43761, 54126], [-3, 4], [3, -4]], [[44254, 54365], [22, -311], [-46, 296], [24, 15]], [[44526, 53993], [-23, -458], [-194, 358], [244, 506], [-16, -357], [-11, -49]], [[44089, 55805], [172, -1355], [-651, -225], [78, 982], [399, 603], [2, -5]], [[47319, 57636], [689, -558], [19, -950], [573, -252], [136, -1590], [-458, -134], [-158, 523], [-541, -504], [-513, 97], [106, -314], [-463, -347], [-478, -143], [140, 484], [-343, -592], [-472, 107], [-95, 562], [-568, 483], [544, 477], [-200, 95], [1015, 2066], [853, 466], [214, 24]], [[79159, 3918], [261, -314], [-505, -35], [189, 367], [55, -18]], [[89538, 3981], [18, 17], [-18, -17]], [[89507, 4206], [2, 1], [-2, -1]], [[89437, 4417], [3, 1], [-3, -1]], [[80736, 4860], [-1, 1], [1, -1]], [[81662, 5469], [27, 5], [-27, -5]], [[88642, 5770], [-15, -286], [14, 286], [1, 0]], [[77860, 5780], [0, 0], [0, 0]], [[88662, 5927], [-24, 54], [24, -54]], [[81695, 6064], [380, -318], [-436, -85], [13, 463], [43, -60]], [[78799, 6128], [617, -364], [359, -1509], [-668, 392], [-184, -500], [162, 792], [-383, 898], [97, 292], [0, -1]], [[78557, 5747], [-244, -543], [154, -1081], [292, -230], [4, -669], [690, -228], [-55, -615], [-206, 444], [-796, 106], [-207, 1239], [-278, 158], [48, 1018], [-247, 140], [386, 375], [303, -219], [-75, 530], [231, -425], [0, 0]], [[88691, 6192], [3, 4], [-3, -4]], [[86269, 9486], [-265, 140], [265, -140], [0, 0]], [[80577, 13255], [-183, 258], [128, 377], [57, -635], [-2, 0]], [[75960, 15977], [4, 19], [-4, -19]], [[75828, 16562], [5, 1], [-5, -1]], [[84450, 16966], [-183, 365], [191, -362], [-8, -3]], [[77422, 17202], [1, 0], [-1, 0]], [[77543, 17619], [1, 0], [-1, 0]], [[77433, 17759], [1, 0], [-1, 0]], [[84006, 18430], [93, -455], [-241, -160], [-135, 240], [265, 377], [18, -2]], [[77160, 18245], [95, -1297], [-455, -354], [294, -149], [22, -479], [-627, 464], [-540, -331], [288, 1496], [428, 195], [-107, 524], [555, 174], [47, -243]], [[83909, 18894], [1, 0], [-1, 0]], [[77206, 19016], [-226, 98], [96, 296], [131, -393], [-1, -1]], [[86971, 19640], [89, -245], [-278, -216], [-98, 441], [229, 72], [58, -52]], [[77897, 20169], [-386, -316], [386, 317], [0, -1]], [[77856, 20381], [0, 0], [0, 0]], [[77370, 21004], [8, 1], [-8, -1]], [[80612, 20838], [245, 510], [252, -392], [-791, -1311], [46, 1707], [248, -514], [0, 0]], [[81461, 21392], [-379, 61], [380, -60], [-1, -1]], [[82153, 20779], [-422, -326], [-93, 634], [178, 446], [284, -10], [66, -732], [-13, -12]], [[81257, 23835], [0, 0], [0, 0]], [[100000, 29515], [0, 0], [0, 0]], [[95786, 31760], [2, 0], [-2, 0]], [[96401, 31707], [530, 66], [-454, -1490], [160, -275], [-132, -1046], [-314, 514], [-277, -283], [5, 852], [437, 376], [-562, -83], [30, 311], [430, 616], [-113, 866], [436, 173], [-178, -594], [2, -3]], [[96002, 33304], [-7, 416], [8, -415], [-1, -1]], [[97258, 34753], [-482, -341], [444, -454], [-138, -591], [-400, -49], [-188, 511], [-35, -774], [-270, 132], [58, 1184], [207, -372], [266, 798], [538, -43], [0, -1]], [[96546, 35021], [41, 64], [-41, -64]], [[96561, 35650], [0, 0], [0, 0]], [[95242, 36956], [2, 0], [-2, 0]], [[95407, 37285], [1, 0], [-1, 0]], [[95242, 36956], [443, -1215], [-541, -113], [694, -168], [197, -734], [235, -40], [-310, -601], [-656, 32], [-311, 240], [368, 595], [-202, -252], [-480, 204], [11, 354], [-684, -103], [209, 482], [-539, 357], [222, 751], [-422, -273], [-836, 1038], [546, -57], [1019, 998], [615, -108], [328, -1380], [94, -7]], [[95090, 39065], [134, 305], [-126, -303], [-8, -2]], [[94596, 39406], [-147, -266], [137, 270], [10, -4]], [[94246, 39120], [-607, -178], [119, 567], [494, -372], [-6, -17]], [[94197, 39559], [10, 381], [18, -376], [-28, -5]], [[93748, 40056], [-504, -827], [-134, 606], [634, 276], [4, -55]], [[92114, 40238], [-1, 0], [1, 0]], [[92114, 40238], [0, 0], [0, 0]], [[94975, 40188], [-22, -351], [-205, 209], [227, 145], [0, -3]], [[91485, 40424], [257, -716], [469, -107], [242, 390], [479, -824], [-613, -208], [19, 684], [-275, -150], [-207, -875], [-172, 345], [-378, -544], [-595, 1131], [-110, -860], [-21, 1117], [844, 668], [61, -51]], [[87937, 40754], [-27, 19], [27, -19]], [[89326, 40898], [-3, 2], [3, -2]], [[87678, 40919], [-5, 15], [5, -15]], [[88112, 40956], [4, 1], [-4, -1]], [[93985, 40826], [340, -624], [-387, -299], [-738, 1134], [746, -63], [39, -148]], [[92429, 41046], [271, -141], [-461, -114], [-161, 360], [351, -104], [0, -1]], [[90163, 41108], [-19, -313], [-701, 52], [716, 332], [4, -71]], [[86914, 41388], [-9, 6], [9, -6]], [[86905, 41394], [-3, 5], [3, -5]], [[88503, 41462], [0, 3], [0, -3]], [[91274, 41775], [148, -71], [-284, -377], [167, -347], [-256, -282], [-191, 227], [226, 878], [190, -28]], [[89274, 41202], [-197, 243], [302, 418], [-90, -654], [-15, -7]], [[96243, 42055], [0, 0], [0, 0]], [[93277, 42296], [373, -292], [-702, -239], [39, 436], [288, 96], [2, -1]], [[88743, 42394], [24, 27], [-24, -27]], [[86914, 41388], [180, 62], [13, 639], [-497, -400], [-145, 853], [1399, 22], [128, -770], [-949, -492], [-129, 86]], [[90759, 42735], [425, -614], [-779, -96], [-300, 478], [96, 479], [291, 175], [264, -421], [3, -1]], [[86892, 43265], [-1, 4], [1, -4]], [[87005, 43480], [521, -130], [-404, -288], [-262, 303], [61, 384], [81, -267], [3, -2]], [[90862, 43652], [9, 6], [-9, -6]], [[93210, 43896], [0, 1], [0, -1]], [[86286, 43797], [-41, -601], [272, 51], [-88, -439], [-430, 915], [332, 528], [-45, -454], [0, 0]], [[88125, 43301], [-758, 761], [75, 279], [648, -504], [36, -536], [-1, 0]], [[96314, 44755], [-1, 0], [1, 0]], [[87474, 45329], [1, 0], [-1, 0]], [[90511, 45484], [81, -308], [-93, 312], [12, -4]], [[93970, 45581], [1, 1], [-1, -1]], [[93152, 46196], [-4, 0], [4, 0]], [[92214, 46508], [2, 3], [-2, -3]], [[92810, 46781], [0, 0], [0, 0]], [[94302, 46578], [-63, 405], [64, -405], [-1, 0]], [[96052, 47705], [-1, 0], [1, 0]], [[93185, 48274], [-376, 609], [377, -609], [-1, 0]], [[93118, 49321], [-1, 1], [1, -1]], [[93114, 49403], [165, 28], [-165, -28]], [[93640, 49409], [255, -62], [-208, -473], [589, -420], [-253, -383], [-544, 411], [-53, 878], [217, 51], [-3, -2]], [[95835, 48924], [89, -826], [-462, 182], [94, 641], [-177, -514], [-77, 426], [-269, -75], [240, -467], [-403, 95], [241, -633], [468, 180], [112, -498], [-215, -533], [239, -642], [628, -268], [-205, -456], [412, 12], [-458, -1129], [228, -893], [-277, 6], [-152, -1520], [708, -693], [-150, -580], [-497, -202], [-1466, 567], [-379, 1132], [-650, 211], [-270, 507], [457, 1062], [-451, 334], [1814, 2962], [-878, 2988], [630, -101], [1087, -1129], [-11, -146]], [[87968, 50295], [-81, 341], [83, -340], [-2, -1]], [[91243, 50763], [0, 0], [0, 0]], [[91795, 50903], [-75, 243], [76, -243], [-1, 0]], [[91472, 50802], [82, 384], [-81, -384], [-1, 0]], [[87992, 50721], [-262, 120], [143, 558], [121, -678], [-2, 0]], [[94601, 51219], [-25, 106], [25, -106]], [[95226, 51093], [-237, -27], [141, 513], [97, -477], [-1, -9]], [[86250, 51724], [-196, 463], [197, -462], [-1, -1]], [[85525, 52436], [261, -685], [-124, -206], [-357, 866], [219, 28], [1, -3]], [[87958, 52522], [229, -248], [-230, -72], [-193, 538], [192, -217], [2, -1]], [[87711, 53430], [0, 0], [0, 0]], [[87806, 54179], [-1, 0], [1, 0]], [[90881, 57582], [-1, 1], [1, -1]], [[93466, 58891], [0, 0], [0, 0]], [[93732, 59143], [109, 32], [-109, -32]], [[89914, 59063], [4, 1], [-4, -1]], [[89600, 59172], [23, 276], [-22, -276], [-1, 0]], [[89980, 60090], [324, -64], [-34, -426], [-591, 383], [299, 107], [2, 0]], [[89189, 60183], [-305, -369], [56, -425], [439, -1087], [282, 241], [-279, -286], [182, -257], [129, 309], [351, -655], [469, 133], [-24, -467], [-310, 78], [-3, -346], [333, -479], [902, 1090], [309, -492], [874, 1819], [129, -363], [1051, 169], [524, -724], [-116, 703], [854, 128], [436, -485], [-45, -1225], [-252, -405], [18, -557], [219, -59], [-264, -242], [67, -1027], [-355, -146], [-72, -904], [-414, -620], [436, -1666], [-322, -269], [303, -330], [-76, -288], [-774, 20], [-46, -635], [-1180, -549], [-1238, 1911], [-34, 445], [-795, -2148], [95, -1184], [-587, 379], [-43, 423], [-110, -669], [-289, -90], [500, -725], [-161, -569], [571, -251], [-784, -29], [559, -846], [-115, -1364], [454, 59], [-325, -318], [242, -103], [-254, -512], [351, -154], [49, -424], [-299, -80], [-70, 429], [-304, -200], [-359, 883], [-954, 583], [-488, -259], [210, -1141], [-566, 1590], [-391, 246], [-39, 696], [391, 411], [-464, 438], [85, 760], [237, 446], [775, -431], [-326, 665], [-281, -158], [-37, 492], [-357, -533], [131, 851], [-296, -50], [548, 731], [-96, 518], [531, -27], [281, 535], [-85, 366], [438, 217], [-304, 160], [165, 410], [-181, 676], [-452, -472], [-23, 942], [-412, 198], [404, 344], [-458, 888], [-40, 696], [-1216, 242], [955, 2949], [21, 579], [-538, 932], [105, 317], [388, 435], [1509, -449], [-158, 325], [454, 730], [461, -434], [-352, -423], [-155, -187]], [[93681, 60902], [697, -189], [193, -847], [-163, -312], [-698, 48], [-210, -408], [-801, 338], [84, 286], [-311, 395], [253, 596], [613, 448], [336, -346], [7, -9]], [[88465, 62555], [397, -128], [175, -1318], [-256, -612], [167, -321], [-1518, 445], [-388, -435], [102, -993], [337, -314], [-386, -1414], [-500, 234], [-284, 2209], [-179, -361], [-800, 80], [149, -737], [-301, -1416], [-673, 196], [-960, -545], [-26, 638], [-534, -928], [-720, 692], [-816, 14], [-497, 1642], [-992, 33], [-105, 1428], [-391, -482], [-650, 1352], [-517, -89], [-640, -765], [-400, 136], [-358, -527], [-890, 714], [164, 1494], [298, 230], [-590, 1238], [-91, 1021], [-622, 794], [190, 367], [-385, 956], [-335, -431], [11, -865], [-504, 676], [94, 1817], [361, 441], [-135, 2395], [302, 1010], [-239, 340], [-141, 1699], [313, 1007], [60, 1307], [948, -30], [20, -736], [451, -201], [339, -909], [162, 567], [486, -876], [50, -983], [633, 606], [104, -419], [353, 107], [294, -676], [783, -445], [475, 576], [40, 942], [270, 387], [1108, 172], [387, 1649], [837, 1348], [-31, 2749], [417, -84], [2128, -2284], [593, -1231], [-68, -391], [802, -119], [467, -877], [112, -471], [-318, -2590], [378, -1052], [736, -957], [20, -1314], [345, -929], [-642, -938], [275, -612], [-399, -445], [48, -736], [395, -445], [-40, -463], [725, -349], [13, -1470], [7, 5]], [[55785, 75372], [293, 40], [144, -612], [549, 489], [1542, -304], [151, 359], [1037, -1438], [336, -1375], [-645, -357], [126, -429], [339, 371], [231, -723], [795, 541], [343, -629], [483, 76], [136, 496], [771, 341], [409, 852], [1290, -26], [250, -1565], [-600, -1472], [12, -686], [-509, -780], [943, -1111], [-635, -1711], [190, -432], [-134, -691], [-421, -669], [352, -2688], [-220, -539], [-2325, -1495], [-1366, 2077], [-1476, -634], [-452, 1129], [143, 705], [-590, 1492], [-812, 387], [-502, -817], [511, -1117], [-116, -393], [318, -1089], [-260, -110], [19, -701], [-506, 754], [-1053, -311], [-98, 674], [211, -79], [9, 512], [-214, 1027], [-588, 92], [-264, 494], [-68, -438], [-326, 73], [72, -616], [-511, 287], [-242, -293], [193, -1270], [-290, -261], [-135, -1104], [-431, -366], [-1489, 3601], [388, 295], [387, -704], [237, 126], [-470, 1959], [600, 2212], [511, 357], [471, -996], [891, 1517], [-244, -13], [249, 1052], [-469, 192], [313, 842], [-249, 1778], [265, 2863], [337, 60], [660, -815], [818, 727], [317, 1114], [68, -104]], [[88895, 62546], [810, -1576], [-491, 255], [-213, -563], [-287, 1885], [181, -1]], [[92247, 62089], [-427, -485], [-339, 471], [315, 1229], [537, -455], [205, -429], [-128, -147], [-163, -184]], [[94117, 63958], [-7, -527], [974, -30], [684, -1064], [-9, -1911], [-765, 348], [-24, 671], [-704, 237], [644, -192], [25, 383], [-847, -131], [-1152, 448], [-26, 1065], [388, 206], [326, 960], [265, 315], [255, -662], [-27, -116]], [[95195, 62096], [-39, -1015], [514, -5], [23, 435], [-33, 628], [-464, 138], [-1, -181]], [[91067, 78438], [1303, -1623], [236, -1963], [737, -1445], [718, -650], [245, -834], [782, -483], [761, -2814], [-239, -1433], [-969, -1793], [532, -538], [29, -1321], [-843, 69], [-177, 925], [489, 585], [-71, 277], [-726, -467], [-1063, -1514], [-186, -853], [-835, 827], [-339, -1258], [292, -614], [-1124, -1273], [-530, 1213], [1135, 466], [-1193, -258], [-190, 705], [-654, 676], [-729, -497], [-13, 1470], [-412, 7], [-653, 1152], [-63, 834], [399, 445], [-275, 612], [628, 1093], [-331, 774], [-20, 1314], [-736, 957], [-399, 1413], [296, 2257], [902, -680], [159, 845], [711, 708], [718, -32], [3, 2039], [580, 2054], [247, 63], [858, -1435], [10, -2]], [[69190, 98528], [81, -2025], [530, -484], [-191, -1603], [-706, -154], [16, -342], [412, -958], [347, -182], [310, 348], [462, -1150], [-194, -571], [180, -1115], [-635, 42], [-328, -1212], [1904, -1323], [-197, -1313], [287, -973], [-641, -1283], [863, -3194], [441, -281], [-1145, -952], [-569, 293], [-203, -256], [871, -3578], [-615, -714], [-1833, 1487], [-382, -314], [45, 1973], [386, 236], [19, 381], [-760, 1040], [-1129, -506], [-338, 788], [246, 677], [-542, 861], [56, 538], [-682, 1119], [-48, 609], [-915, 490], [-565, -763], [-366, 91], [-887, 3061], [252, 440], [-4, 1306], [942, 334], [-424, 1078], [297, 1301], [406, 262], [684, 1386], [334, -475], [47, 1116], [-195, 409], [461, 199], [-112, -389], [191, -371], [1444, 362], [-167, 1821], [363, -67], [131, 664], [327, 203], [194, 1520], [507, -333], [724, 577], [13, -131]], [[74475, 89767], [129, -599], [719, -468], [435, 1255], [408, -51], [900, -1403], [1199, 60], [551, -580], [1694, 1172], [793, -727], [356, -724], [-221, -1177], [311, -261], [482, -2441], [-1273, -1087], [279, -602], [67, -1478], [1167, -349], [43, -2679], [-849, -1418], [-387, -1649], [-1108, -172], [-270, -387], [-40, -942], [-517, -583], [-741, 452], [-294, 676], [-353, -107], [-104, 419], [-633, -606], [-37, 947], [-499, 912], [-162, -567], [-339, 909], [-451, 201], [-174, 933], [-596, -60], [-22, 1657], [-300, 513], [438, 1463], [-535, 1802], [-1458, -1337], [-1357, 286], [-899, 3260], [641, 1283], [-273, 703], [113, 1415], [1797, 641], [546, 1236], [897, 607], [-69, -312], [-4, -36]], [[84762, 91906], [988, -379], [1428, -1969], [906, -658], [988, -3321], [513, -401], [181, -768], [-86, -579], [295, -1118], [-107, -2225], [230, -548], [-607, -1426], [-122, -2795], [-718, 32], [-711, -708], [-53, -614], [-278, -242], [-682, 616], [-584, 1395], [-802, 119], [68, 391], [-1110, 1820], [-1766, 1809], [-1322, 181], [-269, 961], [95, 655], [-240, 829], [336, -196], [898, 1056], [-482, 2441], [-311, 261], [147, 1317], [1642, 3668], [1449, 437], [86, -41]], [[79324, 22904], [-82, 457], [82, -457], [0, 0]], [[74930, 26658], [8, 6], [-8, -6]], [[77619, 26774], [0, 1], [0, -1]], [[77243, 28192], [-1, 0], [1, 0]], [[85547, 28208], [-145, 136], [146, -135], [-1, -1]], [[76634, 29292], [422, -477], [78, -753], [332, -252], [145, -679], [-781, 198], [-147, 595], [256, 128], [10, 497], [-642, 528], [325, 217], [2, -2]], [[75511, 29698], [-1, 0], [1, 0]], [[72341, 29705], [-14, 301], [15, -301], [-1, 0]], [[76004, 30246], [5, 1], [-5, -1]], [[79701, 30638], [2, 0], [-2, 0]], [[79620, 30548], [-332, -75], [19, 315], [312, -239], [1, -1]], [[78358, 30748], [34, 12], [-34, -12]], [[80956, 31107], [-1, 1], [1, -1]], [[75983, 30921], [0, 0], [0, 0]], [[71234, 31047], [1, 0], [-1, 0]], [[87102, 31061], [2, 1], [-2, -1]], [[78742, 31350], [390, -287], [-326, -712], [-316, 464], [361, 300], [-110, 236], [1, -1]], [[78230, 31058], [47, 497], [161, -52], [-205, -442], [-3, -3]], [[80806, 32059], [0, 1], [0, -1]], [[71115, 32520], [12, -773], [-15, 665], [-268, 128], [269, -20], [2, 0]], [[83900, 32108], [-223, 643], [240, -637], [-17, -6]], [[81172, 33028], [0, 0], [0, 0]], [[84916, 32583], [398, 121], [-244, -388], [381, -92], [158, 580], [262, -216], [-33, 583], [572, -1285], [609, -424], [20, -1047], [-255, -547], [-380, 249], [-1015, -986], [-216, 243], [249, 1076], [-344, 376], [-277, -311], [-442, 718], [696, -84], [103, 352], [-509, 337], [-756, -252], [309, 235], [-126, 1532], [749, -765], [91, -5]], [[76397, 33193], [1, 0], [-1, 0]], [[82306, 33276], [-280, 252], [129, 210], [253, -255], [-101, -207], [-1, 0]], [[83784, 33467], [-186, -563], [-171, 380], [259, 531], [118, -278], [-20, -70]], [[81946, 34525], [0, 0], [0, 0]], [[75655, 34632], [626, -1282], [-606, -2538], [-334, -516], [-1465, 380], [-340, -570], [-115, 308], [-358, -152], [-100, -555], [-917, 1237], [23, 560], [-545, -387], [196, 850], [-479, 1049], [431, -51], [420, 679], [-222, 334], [371, 326], [261, -796], [467, -355], [1315, 1198], [358, 198], [359, -395], [649, 484], [5, -6]], [[76279, 34564], [-10, 68], [10, -68]], [[73190, 34609], [5, 1], [-5, -1]], [[85690, 35106], [3, 0], [-3, 0]], [[73229, 35034], [2, 1], [-2, -1]], [[73687, 36132], [3, 1], [-3, -1]], [[72652, 35808], [-68, -452], [-607, -270], [-148, 471], [-422, 42], [455, 375], [43, 417], [378, -610], [212, 745], [279, -387], [-121, -325], [-1, -6]], [[74742, 36578], [7, 68], [-7, -68]], [[84483, 37825], [444, -493], [-718, -690], [431, -159], [175, -543], [-638, -83], [953, -602], [233, 231], [544, -1064], [-474, -532], [-157, 396], [-151, -390], [-525, 167], [-603, -524], [-415, 935], [624, 635], [-239, 286], [154, 272], [-788, 599], [687, 1567], [443, -8], [20, 0]], [[83739, 37471], [-167, 205], [280, 415], [141, -61], [-253, -559], [-1, 0]], [[83463, 38496], [-10, -1], [10, 1]], [[84234, 38690], [0, 1], [0, -1]], [[84516, 39122], [66, 452], [-65, -451], [-1, -1]], [[84214, 39125], [-81, 475], [83, -474], [-2, -1]], [[84754, 39760], [-1, 2], [1, -2]], [[82825, 39772], [328, -552], [-914, -153], [506, 675], [80, 30]], [[84015, 39882], [-1, 1], [1, -1]], [[83929, 39429], [79, -406], [-380, 571], [262, 219], [39, -384]], [[82736, 40375], [282, -97], [-51, -368], [-258, 435], [27, 30]], [[86125, 41299], [0, 0], [0, 0]], [[71345, 42364], [523, -1066], [-727, 71], [200, 988], [4, 7]], [[78781, 45988], [-19, 109], [-21, 209], [40, -318]], [[84899, 46189], [-175, -421], [-373, 383], [548, 38], [0, 0]], [[83938, 46706], [2, 2], [-2, -2]], [[84037, 47037], [10, 3], [-10, -3]], [[84177, 47020], [-98, 254], [249, 346], [-149, -599], [-2, -1]], [[83195, 48265], [523, -788], [-2, 395], [242, -42], [-289, -832], [-776, 1170], [192, 158], [110, -61]], [[83204, 48465], [-1, 6], [1, -6]], [[82674, 48540], [217, -329], [-362, 59], [127, 292], [18, -22]], [[82989, 48338], [99, 103], [-99, -103]], [[82726, 49061], [166, -128], [-247, -190], [60, 315], [21, 3]], [[83837, 49453], [-99, -675], [-329, -71], [228, 157], [-14, 641], [213, -32], [1, -20]], [[82072, 49505], [1, 1], [-1, -1]], [[79123, 49575], [-352, 75], [219, 305], [142, -340], [-9, -40]], [[78694, 49853], [3, 1], [-3, -1]], [[78781, 45988], [309, -203], [192, 361], [-38, 738], [483, 1662], [439, 238], [-66, 383], [-349, -58], [-213, 2439], [-819, -139], [-393, -1238], [-729, 709], [-362, -642], [-752, 1836], [-26, 698], [302, 1272], [647, -178], [868, 1562], [972, 7], [394, 852], [809, 109], [1206, -1835], [-59, -395], [305, -510], [-228, 8], [-50, -614], [269, 100], [331, -601], [-203, -675], [-599, -390], [-249, -613], [208, -948], [506, -544], [-78, -527], [583, -436], [-157, -232], [717, -660], [353, -739], [-174, -366], [406, 226], [336, -389], [-133, -628], [410, 422], [481, -236], [133, -683], [543, -339], [29, -468], [-470, 424], [-129, -504], [-345, 555], [-179, -256], [554, -682], [784, -219], [29, -1109], [396, -1462], [-419, -197], [-322, -1074], [-910, 464], [-138, 724], [-178, -260], [146, -222], [-422, -485], [-419, 765], [-479, -384], [-310, 482], [-555, -214], [129, -717], [343, 185], [-439, -1261], [938, -167], [-110, -414], [411, 339], [-169, -447], [424, -30], [-414, -413], [334, -333], [-277, -23], [-176, -543], [281, -573], [-322, -159], [302, -267], [-612, 497], [-334, -377], [18, -605], [-554, 240], [-457, -408], [538, -995], [-158, -341], [-305, 271], [-269, -483], [-425, 776], [-357, -954], [-302, 718], [33, -517], [-564, -268], [431, -586], [-168, -262], [-311, 440], [-221, -453], [702, -429], [21, -758], [-579, -260], [-548, 471], [-49, 345], [400, 82], [-207, 457], [-281, -296], [-48, 864], [-1139, 731], [520, 1031], [-1000, 1538], [-395, 52], [-1, -403], [216, -11], [-630, 198], [48, 417], [-458, 664], [-215, -633], [-209, 55], [115, -589], [-615, 1016], [-582, -80], [-238, -776], [-174, 445], [-744, -338], [-791, 470], [-58, 815], [-323, 459], [47, 796], [778, 924], [-99, 311], [397, 409], [161, 1052], [368, -623], [429, 227], [-133, 536], [185, 1615], [822, 1603], [1125, 218], [171, 1655], [377, 225], [-231, 634], [519, 1246], [1050, 434], [-51, -1249], [248, -191], [-319, -1446], [258, -515], [742, -11], [-8, 61]], [[83377, 53044], [2, 0], [-2, 0]], [[84809, 53569], [-16, 73], [16, -73]], [[82812, 53699], [274, 73], [130, -410], [-406, 339], [2, -2]], [[81950, 54096], [5, -11], [-5, 11]], [[84704, 54310], [-1, 0], [1, 0]], [[84367, 55065], [256, -1211], [-372, 312], [44, -527], [-228, 446], [-59, -757], [-470, 4], [334, 587], [-8, 695], [158, -419], [278, 88], [64, 783], [3, -1]], [[83611, 55422], [-16, 18], [16, -18]], [[81950, 54096], [-312, -8], [-227, 983], [-1326, 1468], [-519, -347], [-320, -757], [-972, -7], [-868, -1562], [-647, 178], [-276, -1970], [-405, -147], [-720, -1318], [-109, -1248], [-755, -1590], [-1467, -91], [-283, 559], [-391, -19], [-620, -1577], [-1422, -935], [-128, -781], [-601, -1083], [-146, 1267], [-418, 544], [-326, 1196], [-1491, 164], [-240, 1703], [1454, 1683], [245, 910], [-291, 1469], [432, 214], [-294, 919], [212, 2282], [339, 87], [71, 854], [970, 681], [176, 1066], [853, 662], [-345, 2122], [85, 1356], [1225, 1700], [-60, 383], [382, 669], [656, -292], [1112, 964], [468, -660], [-11, 865], [311, 429], [409, -954], [-190, -367], [622, -794], [91, -1021], [590, -1238], [-298, -230], [-164, -1494], [890, -714], [358, 527], [400, -136], [640, 765], [517, 89], [650, -1352], [391, 482], [105, -1428], [992, -33], [497, -1642], [816, -14], [429, -544], [74, -351], [-780, -248], [-440, 713], [-1067, 225], [1048, -839], [319, -801], [1210, 41], [-1101, -1218], [-9, -408], [0, -1]], [[74943, 80769], [123, -621], [-428, -1392], [300, -513], [24, -1660], [-346, -588], [86, -823], [-313, -1007], [141, -1699], [239, -340], [-302, -1010], [135, -2395], [-361, -441], [-92, -1124], [153, -233], [-235, -782], [-693, -543], [-959, 177], [-382, -669], [60, -383], [-573, -924], [-365, -89], [-287, -687], [-85, -1356], [345, -2122], [-946, -798], [-83, -930], [-601, -543], [-1253, 166], [-412, -368], [-635, 998], [-343, 4], [-254, -692], [-440, -25], [3, -804], [-314, -269], [-707, 800], [18, 573], [-543, 105], [125, 762], [-372, 994], [-783, 334], [-680, -594], [-1208, 150], [726, 882], [931, 423], [206, 526], [-352, 2688], [421, 669], [134, 691], [-190, 432], [635, 1711], [-943, 1111], [509, 780], [-12, 686], [600, 1472], [-179, 1685], [943, 785], [416, -1140], [717, -64], [365, 908], [927, 513], [-92, 723], [860, 1210], [-67, 622], [382, 314], [1833, -1487], [320, 268], [320, 656], [-753, 2307], [-72, 1272], [701, -248], [1284, 1162], [813, -281], [1399, 1346], [469, -1132], [-8, -129]], [[65517, 30291], [0, 0], [0, 0]], [[64060, 32057], [-5, -34], [5, 34]], [[66264, 31903], [1, 0], [-1, 0]], [[66786, 32287], [-70, -958], [-61, 929], [-185, 51], [196, 373], [121, -386], [-1, -9]], [[68483, 42792], [62, -582], [-174, 26], [-98, 509], [195, 60], [15, -13]], [[64060, 32057], [-704, -57], [576, -1437], [-72, -752], [-358, 903], [-235, 198], [-103, -318], [-716, 1141], [322, 1531], [-127, 1348], [-385, 1043], [337, 106], [326, 1022], [976, 1091], [-334, 459], [85, 1591], [-324, 506], [-57, 785], [-423, 349], [-242, 1179], [316, 351], [569, -251], [190, 407], [-288, 520], [113, 737], [-326, 1004], [86, 574], [-430, 639], [-225, 2899], [-853, 1393], [-402, 1566], [95, 589], [-617, 54], [-228, 1110], [509, 2244], [1325, 814], [562, 2056], [590, 401], [783, -334], [372, -994], [-125, -762], [543, -105], [-18, -573], [707, -800], [314, 269], [-3, 804], [440, 25], [254, 692], [343, -4], [513, -966], [534, 336], [1029, -180], [-220, -282], [4, -696], [-347, -121], [-204, -2248], [307, -787], [-445, -346], [293, -1444], [-170, -791], [-1544, -1939], [253, -1591], [1491, -164], [326, -1196], [418, -544], [146, -1267], [-1147, -663], [-1648, 19], [-367, 354], [360, -503], [958, 23], [1, -574], [528, -459], [-421, -240], [-162, -1397], [-484, -571], [674, -549], [313, 256], [-128, -971], [-182, 479], [-317, -35], [7, -1449], [-514, -1946], [-238, -83], [-129, -723], [184, 26], [-210, -117], [480, -581], [52, -1085], [-391, 417], [-155, -625], [-258, 15], [-423, 958], [-227, -423], [329, -1288], [-291, -637], [-1715, 595], [-1, -10]], [[61378, 31564], [1, 0], [-1, 0]], [[59101, 31742], [-13, -4], [13, 4]], [[60222, 36984], [-153, 489], [239, -213], [-85, -275], [-1, -1]], [[60649, 38061], [-25, -10], [-24, 6], [49, 4]], [[60649, 38061], [-146, 878], [157, 465], [-301, 648], [100, 587], [-395, 557], [155, 201], [-115, 1006], [-479, -3298], [-44, -1955], [178, -447], [-381, -47], [261, -1761], [-227, -532], [-736, -316], [570, -931], [-243, -4], [-460, -1090], [-648, 984], [-1240, 14], [273, 2626], [-317, 351], [211, 605], [-682, 892], [589, 445], [403, 1224], [-831, 1877], [1034, 2493], [-640, 147], [517, 1163], [-163, 503], [319, 281], [-82, 702], [222, 604], [-1117, 331], [-74, 1312], [304, 712], [-858, 922], [1630, 2267], [1569, -548], [542, 854], [177, 848], [515, 198], [93, -383], [575, -234], [488, 162], [402, -2356], [853, -1393], [225, -2899], [430, -639], [-86, -574], [326, -1004], [-113, -737], [288, -520], [-190, -407], [-569, 251], [-316, -351], [242, -1179], [423, -349], [57, -785], [324, -506], [-85, -1591], [334, -459], [-976, -1091], [-326, -1022], [-337, -106], [385, -1043], [134, -1696], [-390, -1382], [-183, 293], [-308, -325], [-871, 547], [113, 803], [-563, -50], [-139, -421], [-58, 965], [385, 287], [-195, 1931], [-191, 221], [366, 2281], [-94, -7]], [[54429, 24211], [-93, 226], [95, -225], [-2, -1]], [[49268, 24589], [165, 14], [-149, -780], [-219, 845], [203, -79]], [[49322, 26421], [1, 0], [-1, 0]], [[49168, 27212], [-3, 1], [3, -1]], [[55785, 29706], [2, -65], [-2, 65]], [[48857, 30009], [62, 315], [-51, -310], [-11, -5]], [[57383, 30758], [477, -93], [-473, 3], [-4, 90]], [[47994, 30630], [150, -153], [-245, -198], [94, 351], [1, 0]], [[57383, 30758], [-4, 75], [4, -75]], [[47829, 30954], [-165, -366], [164, 366], [1, 0]], [[47513, 31459], [146, -264], [-159, 263], [13, 1]], [[47288, 32391], [95, -643], [-241, 277], [164, 174], [-204, 570], [185, -378], [1, 0]], [[47497, 37271], [5, 2], [-5, -2]], [[47322, 38056], [0, 1], [0, -1]], [[44226, 39385], [-400, -522], [395, 560], [5, -38]], [[43085, 40288], [85, 486], [189, -158], [-262, -323], [-12, -5]], [[41029, 48171], [-24, 23], [24, -23]], [[57370, 30940], [-1009, -780], [115, -744], [-432, 719], [-259, -429], [-230, 183], [-237, -744], [132, -164], [-453, 168], [-240, -658], [-199, 285], [-228, -287], [210, -608], [-385, -439], [342, -502], [-16, -1275], [-650, -666], [263, -415], [-339, -495], [204, -1328], [-1657, 450], [-509, -1242], [-472, -88], [-103, -543], [-237, -46], [-166, 236], [80, 1117], [-245, 382], [518, 1008], [-161, 465], [-234, -154], [229, 159], [-83, 1271], [-631, 257], [-126, -513], [-278, 172], [-550, -756], [-373, 925], [408, -441], [180, 209], [-182, 410], [383, -19], [-479, 907], [268, 291], [-325, 130], [905, 57], [-355, 1510], [626, -207], [419, 587], [-304, 821], [197, 508], [-241, 416], [-334, -591], [-468, 159], [-86, -554], [-912, 1452], [301, 414], [146, -407], [310, 147], [-346, 445], [149, 764], [-581, 579], [376, 532], [-212, 324], [155, 416], [-293, 336], [526, 346], [-493, 1085], [-540, -56], [652, 627], [-608, 484], [-317, -269], [46, 956], [-733, 553], [94, -725], [-547, -27], [32, -510], [-591, -430], [-284, 434], [383, 769], [-210, 731], [-732, -112], [-289, 649], [-722, 220], [-731, -375], [-348, 647], [316, 681], [-477, 163], [-138, 689], [-134, -573], [-405, 225], [274, 626], [-270, 442], [-754, 35], [741, -15], [24, 651], [317, -72], [165, 574], [-148, 402], [-435, -339], [-619, 700], [290, 440], [-317, 387], [131, 326], [-279, 407], [180, 732], [-189, 243], [204, 297], [24, 1563], [276, -387], [186, 1031], [226, 34], [-223, 614], [381, 1970], [400, 343], [496, -588], [-106, -370], [354, 191], [598, -808], [-198, -186], [58, -976], [610, -686], [-24, -692], [279, -424], [497, 352], [670, 1780], [2770, -1132], [2766, -3351], [670, 598], [291, 742], [894, 317], [1448, -601], [491, 1067], [1793, -398], [150, -144], [-222, -604], [82, -702], [-273, -63], [117, -721], [-517, -1163], [640, -147], [-1034, -2493], [831, -1877], [-403, -1224], [-591, -571], [684, -766], [-211, -605], [317, -351], [-273, -2626], [1240, -14], [648, -984], [-391, -836], [-786, -193], [4, -53]], [[45809, 52340], [-21, 13], [21, -13]], [[56515, 64277], [762, -303], [590, -1492], [-143, -705], [474, -1152], [1454, 657], [1309, -2043], [295, 389], [617, -436], [977, 120], [-2, -958], [-453, -1012], [-1284, -761], [-509, -2244], [87, -847], [-910, 240], [-275, -947], [-656, -906], [-1399, 644], [-1643, -2139], [274, -783], [541, -311], [-304, -712], [-67, -1042], [-805, -164], [-333, -957], [-1167, 636], [-1213, -357], [-291, -742], [-670, -598], [-2875, 3402], [543, 1947], [-489, -132], [-269, -583], [-246, 351], [-5, 675], [-358, -386], [-500, 420], [-216, -483], [155, -583], [-818, 235], [100, 430], [-272, 147], [-270, -962], [28, 373], [-1011, 697], [309, 449], [-127, 158], [523, 94], [-9, 344], [-299, -253], [340, 971], [2405, 902], [-42, 637], [726, -147], [928, -1352], [567, 75], [308, 1655], [844, 1138], [369, 3319], [940, 2150], [-193, 1270], [242, 293], [511, -287], [-72, 616], [326, -73], [68, 438], [264, -494], [222, 225], [102, -433], [264, 116], [181, -806], [-89, -1328], [1053, 311], [506, -754], [-19, 701], [260, 110], [-318, 1089], [116, 393], [-511, 1117], [247, 742], [303, -9], [2, 0]], [[46589, 58442], [49, 31], [-49, -31]], [[46015, 58531], [-58, 386], [74, -364], [-16, -22]], [[46155, 60326], [1, 0], [-1, 0]], [[43928, 62823], [9, 3], [-9, -3]], [[43726, 68610], [-136, -584], [-48, 821], [232, -97], [-48, -140]], [[45759, 69524], [15, 67], [-15, -67]], [[46498, 70672], [-109, 233], [110, -232], [-1, -1]], [[44745, 78434], [36, -1385], [-610, -1949], [181, -1159], [651, 536], [-69, -835], [-308, -42], [105, -718], [740, 192], [-41, -882], [193, -214], [439, 1042], [-81, 293], [388, 248], [-256, -1258], [225, -137], [217, 750], [425, -891], [-650, -1276], [369, -80], [93, -985], [850, 28], [-343, 735], [68, 372], [850, 939], [290, 869], [942, -450], [-532, -1506], [103, -1130], [189, -227], [309, 359], [79, -432], [632, -354], [2, -631], [-351, -289], [330, -1013], [429, 301], [1035, -995], [-427, -1674], [470, -1959], [-237, -126], [-488, 711], [-307, -529], [1550, -3409], [-494, -3703], [-844, -1138], [-210, -1515], [-546, -258], [-1405, 1626], [38, 1002], [-179, 596], [-568, 244], [-80, 1066], [-1067, 796], [-389, 1308], [226, 728], [-518, -174], [159, 1449], [331, 44], [156, 720], [-581, 1109], [350, 463], [-243, 29], [-136, 743], [202, 1182], [-497, 417], [35, 1075], [-242, 750], [-236, -378], [109, -1212], [-386, -413], [496, -724], [-271, -927], [278, -130], [-251, -586], [43, -828], [-1341, -239], [-119, 938], [-693, -162], [-38, 396], [538, 610], [-829, 1176], [16, 861], [551, 926], [572, -1415], [981, 1098], [47, 613], [-636, 298], [-295, -266], [2051, 2038], [-301, 1612], [-1033, -653], [-112, 1162], [-641, 353], [472, 588], [-460, 1169], [-544, -90], [-179, -752], [182, -341], [-574, -610], [503, -456], [-652, -843], [210, 346], [-371, 854], [-322, 157], [-169, -496], [-563, -66], [-30, 780], [-581, 768], [131, 1318], [269, 312], [69, -519], [163, 125], [-89, 562], [-587, 464], [557, 2072], [494, 478], [212, -951], [1009, 132], [18, -670], [450, -4], [365, 926], [-174, 531], [703, 669], [0, 0]], [[44423, 78933], [-48, -284], [48, 284], [0, 0]], [[54997, 81758], [1319, -2496], [-633, -510], [-26, -776], [-302, -411], [296, -171], [81, -2187], [-332, -845], [-818, -727], [-660, 815], [-337, -60], [-265, -2863], [249, -1778], [-313, -842], [469, -192], [-249, -1052], [240, 0], [-887, -1504], [-471, 996], [-684, -895], [-1035, 995], [-429, -301], [-330, 1013], [351, 289], [-2, 631], [-632, 354], [-79, 432], [-355, -356], [-226, 646], [-20, 708], [546, 1481], [-1529, 1367], [768, 310], [272, 666], [-1539, 468], [-664, 1960], [-229, -156], [-276, 484], [-192, 1116], [-369, 18], [-40, 572], [727, 793], [280, -216], [276, 658], [502, -128], [467, -765], [588, 917], [900, 449], [835, -679], [2143, 332], [108, 655], [579, -140], [356, 1205], [-43, 985], [380, 405], [1228, -1663], [6, -7]], [[45146, 79064], [1, 0], [-1, 0]], [[44574, 79334], [48, 22], [-48, -22]], [[39956, 80241], [118, -206], [-291, -61], [135, 275], [38, -8]], [[40399, 80507], [-82, 249], [82, -249], [0, 0]], [[41259, 81325], [0, 0], [0, 0]], [[38027, 81842], [-359, -653], [-595, -95], [30, -498], [-303, -177], [91, 819], [1136, 606], [0, -2]], [[42973, 82236], [2, 18], [-2, -18]], [[36139, 84636], [-238, -726], [-246, 210], [487, 518], [-3, -2]], [[35673, 84956], [-274, -86], [285, 122], [-11, -36]], [[36705, 85060], [-58, -25], [58, 25]], [[39998, 86484], [-82, 260], [85, -258], [-3, -2]], [[39706, 87207], [-174, 128], [160, -20], [14, -108]], [[37642, 87389], [245, -351], [-81, -1229], [-288, -43], [26, 408], [-381, 352], [295, 1131], [157, -188], [27, -80]], [[42094, 89094], [0, 2], [0, -2]], [[42229, 89032], [97, 101], [-97, -101]], [[32238, 88914], [0, 0], [0, 0]], [[32531, 89736], [317, -204], [-278, 110], [-182, -388], [118, 499], [25, -17]], [[32142, 90186], [251, -41], [-284, -174], [-159, 129], [171, 156], [21, -70]], [[33289, 91858], [660, -1122], [-364, -773], [-607, -193], [187, 579], [-393, 291], [525, 166], [-527, 551], [-106, -431], [-331, 498], [892, -28], [64, 462], [0, 0]], [[33166, 92120], [0, 0], [0, 0]], [[34611, 92175], [-197, -27], [197, 27], [0, 0]], [[46628, 92674], [-208, -96], [208, 98], [0, -2]], [[34446, 92630], [-358, -495], [-113, 386], [470, 109], [1, 0]], [[47352, 96024], [2140, -6], [468, -1138], [-81, -929], [-468, -591], [710, -855], [-137, -1504], [682, 768], [275, -902], [-236, -1376], [655, -1367], [665, 457], [767, -232], [433, -617], [160, 1102], [-302, -17], [93, 780], [732, 433], [789, -943], [652, -104], [-471, -1140], [-712, -138], [210, -412], [-85, -1014], [-1069, -1375], [-54, -1218], [295, -945], [-393, -1908], [-535, 167], [-152, -682], [-994, -400], [-669, 355], [-588, -251], [-727, 643], [-900, -449], [-588, -917], [-467, 765], [-502, 128], [-187, -560], [-369, 118], [-778, -1055], [-397, 343], [-171, 1001], [644, 395], [-122, 528], [276, 910], [-1362, -1381], [137, 1517], [-241, -617], [-501, -47], [-225, 242], [32, 655], [-58, -493], [-522, 52], [-96, 811], [398, 1833], [723, -457], [-216, 1258], [883, 708], [-521, -377], [-271, 201], [165, 583], [349, 399], [1138, -114], [-200, 529], [433, 893], [15, 1435], [663, 2741], [225, -16], [30, -402], [614, 163], [249, -490], [512, -34], [172, -582], [-136, 603], [-558, 117], [-749, 1485], [-188, 930], [322, 624], [-291, -65], [141, 828], [456, 574], [-242, 328], [228, -282]], [[61708, 99997], [680, -563], [-135, -1053], [1086, -56], [1242, -1363], [-272, -400], [243, -333], [-86, -441], [513, -485], [38, -891], [292, -348], [-60, -1145], [-321, 504], [-684, -1386], [-406, -262], [-297, -1301], [424, -1078], [-942, -334], [4, -1306], [-252, -440], [900, -2832], [-1579, -1499], [-355, 202], [-39, -399], [-658, -495], [-1778, 1060], [305, 1297], [-127, 308], [-817, -384], [-663, -2616], [-567, -371], [-550, 503], [-393, -1614], [-874, 166], [-315, 916], [-1075, 1495], [-393, 381], [-319, -234], [-310, 486], [54, 1218], [890, 877], [264, 1512], [-210, 412], [1003, 550], [161, 1218], [314, 55], [472, 1545], [684, -478], [216, 475], [267, -89], [187, 992], [523, -10], [422, 784], [-58, 1169], [-254, 351], [1125, 1092], [-87, 1279], [-494, 873], [104, 235], [311, -90], [546, 1035], [1740, 115], [-3, 1015], [336, 179], [27, -3]], [[65270, 1261], [333, -347], [113, -722], [-767, -192], [-223, 852], [529, 411], [15, -2]], [[53506, 9506], [421, -1038], [-739, 33], [234, 407], [-177, 548], [204, 83], [57, -33]], [[52670, 10993], [109, -474], [-251, -7], [142, 481], [0, 0]], [[50129, 11474], [-1, 1], [1, -1]], [[53345, 11434], [7, 2], [-7, -2]], [[49881, 11466], [11, 5], [-11, -5]], [[59065, 12133], [0, 1], [0, -1]], [[53293, 12061], [12, 5], [-12, -5]], [[49403, 13312], [55, -522], [-64, 521], [9, 1]], [[48651, 13024], [-144, 377], [149, -372], [-5, -5]], [[53572, 13414], [2, 1], [-2, -1]], [[52347, 13578], [255, -231], [-304, -56], [47, 288], [2, -1]], [[51999, 13668], [181, -621], [520, 124], [90, -549], [382, 570], [940, -555], [390, 201], [-99, -894], [-530, 668], [-15, -977], [-464, 1057], [-69, -363], [-311, 41], [-95, -823], [-395, -84], [-49, -553], [-734, -638], [-1107, -236], [-262, 2479], [1228, 1463], [250, -160], [149, -150]], [[54586, 14163], [53, 18], [-53, -18]], [[70558, 14168], [1, 0], [-1, 0]], [[62628, 14598], [-223, 18], [222, -15], [1, -3]], [[70445, 14512], [5, 1], [-5, -1]], [[49704, 14589], [-256, -890], [-246, 861], [498, 34], [4, -5]], [[54475, 14772], [2, 1], [-2, -1]], [[54730, 15069], [-1, 0], [1, 0]], [[55688, 15066], [1076, -1106], [-1035, -771], [108, -441], [348, -100], [60, -934], [454, 64], [-93, -592], [-411, 245], [133, -805], [-319, -1253], [-472, 194], [-22, 1024], [-422, -527], [-337, 1632], [852, 1580], [-592, 560], [216, 297], [-293, 248], [343, -95], [116, 765], [283, 26], [7, -11]], [[50052, 15104], [-296, -103], [297, 106], [-1, -3]], [[73210, 15269], [-159, 184], [161, -182], [-2, -2]], [[62571, 15583], [-2, 0], [2, 0]], [[50608, 15138], [254, -45], [-282, -762], [-367, -12], [-301, -690], [-218, 277], [320, 268], [390, 1317], [201, -353], [3, 0]], [[51650, 15037], [65, 500], [164, -355], [-212, -138], [-17, -7]], [[74178, 15522], [-644, -220], [-242, 286], [980, 103], [-94, -169]], [[54985, 15755], [95, -300], [-217, 111], [122, 189], [0, 0]], [[59778, 14533], [-337, -866], [-371, 676], [72, 939], [420, 649], [217, -1395], [-1, -3]], [[54628, 15680], [0, 0], [0, 0]], [[68262, 16205], [0, 1], [0, -1]], [[64059, 16322], [711, -314], [49, -421], [-291, -281], [288, -490], [-121, -741], [714, 412], [-269, -270], [139, -685], [-245, -1109], [-328, -456], [-971, -107], [-374, 1057], [-206, 6], [-300, -1011], [-287, 811], [396, 513], [-301, -118], [-141, 359], [372, 229], [-164, 519], [303, 589], [-149, 313], [1168, 1196], [7, -1]], [[67590, 16227], [42, 17], [-42, -17]], [[50751, 15829], [-232, -54], [245, 523], [-13, -467], [0, -2]], [[74984, 16749], [89, -309], [-192, -149], [90, 461], [13, -3]], [[68295, 16785], [139, -77], [-216, -220], [-148, 238], [218, 57], [7, 2]], [[59925, 16622], [-158, 503], [327, -196], [-123, -290], [-46, -17]], [[46021, 17001], [-1, 1], [1, -1]], [[46848, 16780], [1, 1], [-1, -1]], [[52622, 17402], [164, -747], [234, 381], [349, -365], [228, 279], [701, -745], [343, -860], [-497, -408], [-283, 217], [482, -1088], [-550, -85], [-92, 589], [-412, 11], [34, -1205], [-937, 406], [35, 679], [-489, 5], [289, 375], [71, 521], [-187, 215], [409, 380], [-366, 4], [71, 412], [313, -11], [70, 358], [-216, 140], [15, 486], [-303, 34], [529, 39], [-5, -17]], [[47463, 17016], [-154, -317], [-11, 915], [131, -401], [34, -197]], [[52522, 18209], [11, -294], [-34, 311], [23, -17]], [[54375, 18449], [295, -781], [-1119, -273], [155, 812], [665, 248], [4, -6]], [[68619, 18581], [-42, -705], [-183, 99], [-143, 846], [344, -109], [24, -131]], [[48525, 19162], [106, 80], [-106, -80]], [[68148, 19380], [-29, 279], [29, -279], [0, 0]], [[47618, 19630], [-119, -250], [119, 251], [0, -1]], [[47576, 19893], [-13, 3], [13, -3]], [[48512, 19826], [2, 1], [-2, -1]], [[68186, 20451], [29, 13], [-29, -13]], [[73598, 20535], [3, 1], [-3, -1]], [[52571, 20568], [194, -39], [-71, -294], [-609, -208], [-439, 90], [28, 497], [890, -44], [7, -2]], [[64333, 20702], [-65, 358], [106, -296], [-41, -62]], [[63262, 20577], [-129, 540], [130, -540], [-1, 0]], [[49436, 20939], [-429, -724], [165, 755], [262, -30], [2, -1]], [[54084, 20536], [7, 794], [153, -101], [-159, -693], [-1, 0]], [[63168, 21670], [1, 0], [-1, 0]], [[62135, 21646], [2, 1], [-2, -1]], [[63036, 22004], [-1, 2], [1, -2]], [[72643, 21849], [-410, 82], [403, 11], [7, -93]], [[50515, 21557], [91, 433], [-91, -432], [0, -1]], [[53407, 21449], [47, -372], [-180, 319], [-383, -367], [676, 1051], [-161, -629], [1, -2]], [[67966, 22177], [2, 1], [-2, -1]], [[71071, 22336], [42, 46], [-42, -46]], [[70170, 22266], [-11, 361], [27, -355], [-16, -6]], [[71542, 22632], [50, -587], [-287, -20], [235, 610], [2, -3]], [[62246, 22582], [-6, 0], [6, 0]], [[72439, 22793], [278, -394], [-279, 394], [1, 0]], [[68366, 23181], [-1, 1], [1, -1]], [[50290, 22670], [49, 349], [-5, -318], [-44, -31]], [[71094, 23093], [-378, 439], [233, 241], [145, -680], [0, 0]], [[64611, 23619], [-27, 60], [27, -60]], [[70782, 24125], [-1, 1], [1, -1]], [[64591, 24307], [-1, 0], [1, 0]], [[69003, 24379], [-76, -54], [76, 54]], [[69003, 24379], [3, 2], [-3, -2]], [[64888, 24365], [-188, -77], [189, 97], [-1, -20]], [[67658, 24129], [402, 130], [461, -929], [-844, -788], [5, -421], [-712, -283], [-210, 682], [-231, -153], [-96, 1193], [778, 884], [322, -258], [125, -57]], [[60647, 25270], [-12, -1], [12, 1]], [[62246, 22582], [-372, 881], [-849, 34], [-386, -718], [-490, 836], [-1013, 448], [374, 232], [565, -400], [317, 909], [520, -821], [499, 184], [103, 738], [573, 729], [467, -950], [288, 462], [97, -492], [254, 381], [335, -132], [185, -743], [660, 386], [-156, -763], [-184, 257], [-327, -324], [205, -458], [-131, -777], [-380, -84], [106, 270], [-318, 571], [-142, -178], [166, -388], [-866, -976], [-98, 886], [-2, 0]], [[71507, 25537], [2, 0], [-2, 0]], [[70062, 25480], [-112, 331], [113, -330], [-1, -1]], [[58606, 25567], [-4, 266], [5, -266], [-1, 0]], [[69006, 24381], [89, 311], [-460, 588], [-234, 144], [-197, -408], [-763, 648], [752, -143], [28, 638], [333, 132], [-110, 567], [519, -319], [37, 555], [547, -832], [-7, -1131], [1105, 693], [883, -1551], [-254, -162], [-254, 501], [-679, 272], [-196, -437], [588, -216], [-51, -329], [-728, -142], [-24, -456], [-473, -440], [-17, -549], [-190, 1124], [499, 214], [98, 550], [-416, 277], [-312, -625], [-111, 526], [-2, 0]], [[68924, 27070], [-88, 265], [89, -265], [-1, 0]], [[62822, 27463], [16, 0], [-16, 0]], [[71270, 27824], [-93, -962], [-787, -406], [356, 736], [-224, 201], [747, 431], [1, 0]], [[69790, 27694], [-133, -324], [-512, 179], [418, 521], [222, -335], [5, -41]], [[67424, 28010], [2, 0], [-2, 0]], [[57109, 28256], [8, 75], [-8, -75]], [[54869, 28355], [470, -66], [-269, -760], [84, 394], [-420, 85], [-1, 420], [136, -73]], [[57109, 28256], [1232, -1217], [231, -2445], [655, -1790], [509, 72], [111, -372], [-356, -711], [572, -847], [-1046, 260], [-488, 867], [124, -1188], [-733, 687], [-799, -301], [-560, 770], [131, 168], [-469, 1086], [-576, 227], [5, 308], [-276, -210], [125, 380], [-274, 1834], [156, 370], [-241, 976], [341, 786], [798, 144], [-4, 331], [824, -261], [8, 76]], [[58688, 28272], [218, 63], [-185, -169], [86, -447], [-346, 735], [224, -181], [3, -1]], [[69317, 28728], [-27, -4], [27, 4]], [[69174, 28867], [62, -438], [-186, 146], [116, 319], [8, -27]], [[64870, 28865], [0, 1], [0, -1]], [[67728, 28896], [-62, 301], [63, -300], [-1, -1]], [[65930, 27892], [-290, -612], [452, -413], [6, -635], [-683, 168], [-163, -646], [-566, -138], [10, -336], [-679, 348], [-24, 442], [-881, 532], [293, 1343], [-362, 853], [94, 273], [341, -246], [-66, -398], [198, -109], [153, 501], [420, -732], [106, 544], [112, -416], [289, 291], [163, -712], [636, -55], [435, 801], [14, 667], [274, -597], [-282, -718], [0, 0]], [[72113, 29282], [0, 2], [0, -2]], [[66291, 29416], [-36, -378], [-93, 230], [129, 148]], [[63058, 29407], [-1, -1], [1, 1]], [[57770, 29432], [430, -246], [-9, -429], [-338, 481], [-527, -13], [443, 207], [1, 0]], [[57047, 29787], [-14, 15], [14, -15]], [[56840, 29873], [0, 1], [0, -1]], [[62982, 29639], [-143, 348], [143, -348], [0, 0]], [[70990, 29474], [-270, -153], [153, -539], [-171, 241], [31, 1079], [257, -627], [0, -1]], [[63469, 30179], [128, -924], [-293, 531], [164, 393], [1, 0]], [[62827, 30284], [-1, 0], [1, 0]], [[68221, 30928], [-1, 2], [1, -2]], [[62030, 30801], [41, -377], [379, -50], [-54, -657], [-690, -90], [571, -572], [355, 505], [-52, -772], [305, 105], [287, -1219], [-647, 33], [-603, -795], [-241, 588], [-157, -317], [-909, 9], [-457, -876], [-23, -1107], [-500, 501], [487, 1457], [-1051, -122], [662, 1268], [-149, 667], [832, 1510], [1035, 90], [621, 658], [-37, -371], [-5, -66]], [[68740, 31449], [1, 0], [-1, 0]], [[69483, 32303], [299, -578], [259, 140], [-151, 347], [359, -466], [387, -1829], [-343, -161], [235, -309], [-163, -325], [-77, 273], [-142, -925], [-26, 1592], [-436, 112], [87, -828], [-471, 429], [-141, 1853], [-422, 360], [745, 317], [1, -2]], [[30344, 12660], [285, -982], [-109, -412], [-300, 1049], [123, 346], [1, -1]], [[27608, 14955], [-278, -22], [278, 23], [0, -1]], [[27259, 16241], [423, -549], [-191, -139], [-440, 586], [202, 106], [6, -4]], [[27493, 16565], [-2, 3], [2, -3]], [[38229, 16584], [79, 13], [-79, -13]], [[37908, 16677], [-133, 271], [133, -270], [0, -1]], [[27004, 16416], [-179, 517], [259, -318], [-80, -199]], [[32153, 17004], [1, 1], [-1, -1]], [[35222, 17215], [-128, 356], [161, -281], [-33, -75]], [[31136, 17757], [0, 0], [0, 0]], [[29875, 17747], [-1, 0], [1, 0]], [[35088, 18228], [0, 1], [0, -1]], [[30019, 18120], [0, 0], [0, 0]], [[30026, 18128], [0, 0], [0, 0]], [[44267, 18379], [-1, 19], [1, -19]], [[30310, 18260], [48, -553], [284, 469], [266, -272], [-712, -826], [-350, 564], [440, 618], [24, 0]], [[30198, 18251], [0, 0], [0, 0]], [[29380, 17871], [-106, 405], [157, -346], [-51, -59]], [[35578, 18402], [-20, -341], [-408, 153], [414, 230], [14, -42]], [[29835, 18168], [-21, 386], [22, -386], [-1, 0]], [[34577, 18412], [344, -612], [-294, -114], [-90, -872], [-533, 475], [-201, -692], [-113, 635], [-363, -6], [56, 474], [822, 111], [29, 956], [342, -355], [1, 0]], [[29780, 18770], [0, 1], [0, -1]], [[38771, 17558], [-229, 237], [407, 1519], [165, -543], [-341, -1212], [-2, -1]], [[34233, 18877], [-1, 360], [205, -243], [-203, -116], [-1, -1]], [[38652, 19417], [-16, 18], [16, -18]], [[29797, 19244], [-198, -853], [-68, 351], [-284, -516], [-409, -22], [223, 725], [735, 316], [1, -1]], [[32854, 19401], [-2, 1], [2, -1]], [[37604, 19545], [378, -564], [-383, 567], [5, -3]], [[37007, 19561], [0, 0], [0, 0]], [[36075, 19582], [276, 55], [23, -437], [-300, 382], [1, 0]], [[34462, 19746], [7, 6], [-7, -6]], [[32160, 20390], [197, -387], [-117, -592], [577, 57], [-379, -333], [148, -539], [-537, 740], [62, 481], [-260, -441], [-134, 239], [-10, 557], [449, 218], [4, 0]], [[44781, 20869], [-5, -1], [5, 1]], [[32389, 21132], [-198, -184], [197, 186], [1, -2]], [[30653, 21829], [8, 6], [-8, -6]], [[31723, 21911], [212, -381], [-422, 100], [-28, 406], [236, -121], [2, -4]], [[32951, 22229], [0, 1], [0, -1]], [[32116, 22492], [72, 42], [-72, -42]], [[30641, 22168], [-11, 13], [11, -13]], [[31187, 22781], [33, -334], [-478, -5], [445, 339], [0, 0]], [[33075, 22818], [75, -404], [-289, 111], [-191, -392], [19, 472], [-299, 74], [668, 210], [17, -71]], [[33983, 22850], [407, -811], [1226, 461], [-84, -812], [328, -1544], [-618, 613], [-369, -726], [-208, 1044], [-322, -158], [220, -591], [-127, -260], [-230, 631], [-903, 114], [45, 649], [-305, -242], [122, 581], [462, 248], [-285, 556], [243, -175], [143, 173], [-183, 282], [359, 95], [79, -128]], [[31563, 23185], [213, -455], [-447, -334], [31, 741], [203, 50], [0, -2]], [[42916, 23463], [251, -344], [-275, 344], [24, 0]], [[33355, 23147], [1, 0], [-1, 0]], [[38562, 23323], [0, 0], [0, 0]], [[36893, 23449], [-45, 281], [53, -281], [-8, 0]], [[38005, 23525], [-193, 245], [229, -238], [-36, -7]], [[31766, 23703], [-115, -387], [115, 387], [0, 0]], [[43069, 23935], [190, -322], [-263, 48], [72, 279], [1, -5]], [[32234, 24184], [0, 0], [0, 0]], [[32405, 24474], [0, 2], [0, -2]], [[33428, 24589], [947, -731], [205, -810], [-753, 198], [307, 89], [-346, 435], [-106, -386], [-365, 396], [-163, -552], [-787, 164], [-9, 919], [582, -316], [-32, 355], [337, -131], [182, 370], [1, 0]], [[31526, 24789], [-46, -17], [46, 17]], [[40038, 24786], [34, 29], [-34, -29]], [[36484, 24573], [-203, -307], [144, 724], [59, -417]], [[32028, 25290], [36, -342], [-206, 230], [146, 137], [24, -25]], [[30988, 25095], [-18, -366], [-407, -39], [214, 616], [211, -210], [0, -1]], [[36849, 25364], [0, 0], [0, 0]], [[33006, 25741], [408, -1112], [-423, 51], [-36, 292], [288, 121], [-240, 653], [3, -5]], [[32906, 25716], [33, 5], [-33, -5]], [[36907, 26150], [-21, 14], [21, -14]], [[34023, 26647], [-63, 281], [68, -278], [-5, -3]], [[30542, 26925], [-157, -948], [-267, 486], [209, 541], [216, -77], [-1, -2]], [[31453, 26977], [-59, -812], [-296, -159], [45, 730], [304, 14], [-229, 341], [235, -113], [0, -1]], [[33831, 27223], [-1, 1], [1, -1]], [[44754, 27520], [0, 0], [0, 0]], [[32674, 26912], [0, 1], [0, -1]], [[44106, 27325], [64, 302], [-43, -299], [-21, -3]], [[33031, 27432], [-4, 2], [4, -2]], [[44039, 27912], [-2, 0], [2, 0]], [[43606, 27986], [10, 4], [-10, -4]], [[43402, 28091], [0, 0], [0, 0]], [[44916, 28356], [-1, 1], [1, -1]], [[33917, 27925], [-221, 470], [229, -462], [-8, -8]], [[32824, 28640], [165, -281], [-225, -109], [60, 390], [0, 0]], [[34287, 28167], [32, -291], [-388, 422], [-27, 515], [374, -618], [9, -28]], [[44977, 28544], [196, 623], [-194, -623], [-2, 0]], [[45673, 28917], [-246, 108], [27, 465], [265, -520], [-46, -53]], [[32674, 29977], [16, 4], [-16, -4]], [[31880, 30178], [14, -25], [-14, 25]], [[31880, 30178], [-1, 2], [1, -2]], [[35431, 30291], [-55, -112], [55, 112]], [[35639, 30790], [0, 0], [0, 0]], [[34801, 30910], [-119, 272], [123, -263], [-4, -9]], [[32535, 31803], [1, 0], [-1, 0]], [[31957, 31961], [19, 10], [-19, -10]], [[33424, 32074], [1, 0], [-1, 0]], [[35743, 32437], [442, -471], [-412, 104], [-30, 368], [0, -1]], [[32013, 32514], [-1, 0], [1, 0]], [[38451, 34032], [0, 0], [0, 0]], [[35370, 33938], [53, 557], [170, -204], [-220, -352], [-3, -1]], [[36400, 34418], [-293, -70], [161, 226], [132, -156]], [[34559, 34513], [259, -168], [-251, -500], [413, -131], [-624, -582], [-356, -877], [-255, 159], [237, 535], [-367, 911], [277, -222], [336, 1036], [312, -89], [19, -72]], [[38267, 35322], [70, 361], [145, -73], [-214, -288], [-1, 0]], [[35620, 35897], [3, 1], [-3, -1]], [[35937, 36096], [1, 0], [-1, 0]], [[36213, 36730], [-33, 356], [98, -308], [-65, -48]], [[45035, 37301], [0, 0], [0, 0]], [[38691, 37154], [37, 353], [-37, -352], [0, -1]], [[40493, 38311], [6, 3], [-6, -3]], [[43715, 38616], [8, 4], [-8, -4]], [[39952, 38596], [35, 6], [-35, -6]], [[41425, 40499], [934, -18], [21, -390], [869, -465], [217, -539], [-314, -393], [487, -872], [378, -217], [66, 450], [420, 294], [-74, -542], [283, -61], [315, -660], [-93, -322], [382, -175], [741, -1291], [-344, -592], [422, -1028], [-902, 143], [-38, -530], [486, -276], [-490, -901], [258, -904], [-831, -1843], [-239, -57], [74, -777], [-296, -553], [-323, 710], [269, 56], [-265, 1226], [-325, -567], [113, -1044], [-399, 937], [122, -810], [-491, 455], [160, -753], [-271, -227], [264, -220], [197, 312], [69, -435], [-276, -280], [483, -150], [-287, -807], [-347, 275], [-11, -524], [-234, -107], [-172, 758], [126, 802], [273, 197], [-542, -50], [6, 363], [-400, 82], [-210, -678], [273, -601], [-752, 99], [-240, -587], [-321, 263], [-372, -485], [-621, 261], [-131, -224], [376, 18], [179, -503], [-946, -248], [-265, -502], [44, 683], [-302, -439], [-580, 269], [167, 561], [-515, 43], [-39, -492], [-245, -85], [-324, 193], [254, 421], [-234, -55], [258, 232], [-113, 329], [316, 726], [-588, -439], [-422, 184], [-898, 2455], [297, 239], [-179, 265], [282, 310], [-157, 318], [765, 897], [377, -391], [-414, 1071], [1979, 1654], [52, 705], [596, 1246], [137, -235], [-220, -960], [587, -32], [105, 387], [-338, 554], [888, 423], [-410, 690], [465, 211], [27, 741], [365, -314], [530, 1745], [-232, 390], [-164, -266], [176, 1037], [-224, 211], [406, 346], [84, -321], [0, 0]], [[547, 8294], [836, -550], [-90, -865], [835, -1433], [-798, -318], [-382, 1148], [-907, 642], [331, -44], [132, 1465], [43, -45]], [[296, 8417], [0, 0], [0, 0]], [[348, 9560], [10, 10], [-10, -10]], [[23, 9837], [-23, -3], [23, 3]], [[14386, 15561], [0, 2], [0, -2]], [[13765, 15692], [364, -300], [-427, 251], [-148, -293], [60, 727], [200, -67], [-56, -310], [7, -8]], [[7530, 27771], [71, 327], [454, -396], [-116, -538], [-265, 319], [-135, -458], [-450, 1587], [301, -821], [140, -20]], [[7037, 30449], [248, -469], [-176, -421], [-279, 725], [184, 153], [23, 12]], [[7019, 30597], [-175, 122], [477, 1038], [157, -681], [-458, -478], [-1, -1]], [[7660, 32250], [-197, 25], [138, 219], [66, -239], [-7, -5]], [[7765, 32562], [-81, 351], [81, -351], [0, 0]], [[21400, 36501], [-146, -107], [144, 120], [2, -13]], [[32996, 36873], [0, 0], [0, 0]], [[34003, 37789], [12, 1], [-12, -1]], [[33014, 39330], [1, 1], [-1, -1]], [[28469, 39408], [124, -314], [-310, -52], [135, 298], [51, 68]], [[29389, 39431], [-13, 15], [13, -15]], [[37914, 39080], [-262, 170], [96, 376], [278, -286], [-110, -257], [-2, -3]], [[39519, 39624], [17, 7], [-17, -7]], [[37785, 40279], [-103, -357], [-354, 195], [455, 167], [2, -5]], [[39433, 40367], [148, -50], [-149, -490], [-240, 137], [241, 406], [0, -3]], [[39149, 40943], [2, 1], [-2, -1]], [[32447, 40870], [6, 1], [-6, -1]], [[32675, 40708], [22, 353], [-22, -353], [0, 0]], [[32083, 40960], [27, 11], [-27, -11]], [[28096, 41260], [-231, 315], [232, -314], [-1, -1]], [[31630, 41688], [344, -56], [-375, -448], [117, -972], [-412, 7], [206, 1025], [-563, -21], [684, 465], [-1, 0]], [[32174, 41822], [6, 2], [-6, -2]], [[32679, 42024], [36, -492], [-318, -149], [282, 642], [0, -1]], [[36526, 42527], [-160, -235], [156, 237], [4, -2]], [[27888, 41715], [-46, 688], [48, -686], [-2, -2]], [[39001, 42265], [8, 475], [-4, -472], [-4, -3]], [[38811, 42582], [4, 4], [-4, -4]], [[28200, 42183], [267, -17], [166, -767], [-512, 891], [79, -107]], [[38390, 42761], [3, 2], [-3, -2]], [[36822, 43089], [57, -352], [-515, 56], [-20, 293], [476, 7], [2, -4]], [[28187, 42883], [-7, 28], [7, -28]], [[27717, 42852], [2, 1], [-2, -1]], [[39782, 43031], [331, 212], [14, -535], [-604, 203], [-97, 407], [355, -286], [1, -1]], [[32292, 43375], [-1, 1], [1, -1]], [[34544, 43417], [583, -191], [467, -1138], [531, -160], [-152, -594], [459, -545], [-691, -1308], [359, -889], [-669, 52], [102, -659], [-835, -391], [-231, -635], [-1005, 242], [61, 635], [543, -409], [38, 572], [538, 160], [-264, 540], [-916, -283], [112, 565], [452, 269], [722, -391], [819, 1655], [-440, -20], [-527, 1848], [-441, -135], [82, 1180], [300, 36], [3, -6]], [[34938, 43544], [-1, 0], [1, 0]], [[32292, 43375], [315, 160], [198, -1247], [-441, -340], [-53, 541], [-228, -430], [-4, 582], [357, 97], [-142, 636], [-2, 1]], [[27366, 43503], [-86, -700], [177, -34], [97, -948], [-682, -470], [-546, 278], [-281, -529], [-254, 215], [-13, 405], [607, 385], [-506, 126], [74, 303], [-438, 513], [644, -579], [1169, 1081], [38, -46]], [[34879, 43665], [20, 19], [-20, -19]], [[33099, 43882], [781, -351], [-221, -1258], [437, -608], [333, 169], [322, -1551], [-288, -840], [-787, 273], [-514, -541], [100, 670], [-266, 737], [433, 446], [-253, 535], [-302, -259], [201, 1427], [-241, 851], [262, 275], [3, 25]], [[39758, 43859], [1, 0], [-1, 0]], [[30461, 43781], [-156, -104], [155, 123], [1, -19]], [[35841, 43848], [-49, 255], [50, -255], [-1, 0]], [[35329, 43803], [-201, 59], [201, -58], [0, -1]], [[35566, 43761], [-225, 449], [220, -449], [5, 0]], [[35716, 44354], [0, 0], [0, 0]], [[33088, 44426], [47, -324], [-401, -288], [-161, 468], [479, 165], [36, -21]], [[31373, 43990], [379, -790], [-116, -409], [-399, 643], [-315, -342], [-342, 738], [472, 666], [320, -503], [1, -3]], [[33467, 44607], [-1, 1], [1, -1]], [[32888, 44670], [0, 1], [0, -1]], [[30888, 45057], [-80, 47], [80, -47]], [[28615, 44846], [-214, 101], [154, 223], [185, -285], [-125, -39]], [[32937, 45490], [0, 0], [0, 0]], [[39119, 45556], [1, 0], [-1, 0]], [[13513, 45240], [439, -439], [-426, -757], [-340, 390], [327, 806], [0, 0]], [[27143, 45591], [1, 0], [-1, 0]], [[34145, 46095], [185, -1058], [-148, -500], [-202, 384], [162, 1175], [3, -1]], [[33195, 46080], [0, 0], [0, 0]], [[38168, 46090], [952, -1099], [-65, -964], [527, 310], [52, -417], [-735, -375], [-252, -561], [-398, 409], [-1183, -973], [-261, 144], [256, 329], [-255, 573], [363, 821], [-799, 460], [631, 228], [97, 536], [138, -158], [557, 933], [374, -196], [1, 0]], [[33704, 46331], [-1, 4], [1, -4]], [[37907, 46596], [-10, -27], [10, 27]], [[27086, 46363], [68, 14], [-68, -14]], [[38034, 47080], [0, 0], [0, 0]], [[32985, 47245], [0, 1], [0, -1]], [[35332, 47407], [-416, -1189], [-146, 847], [566, 360], [-4, -18]], [[38664, 47498], [19, 2], [-19, -2]], [[12986, 47018], [0, 0], [0, 0]], [[38625, 47750], [-4, 2], [4, -2]], [[37540, 48063], [75, -774], [-270, 254], [165, 472], [30, 48]], [[38794, 48058], [0, 1], [0, -1]], [[37540, 48063], [103, 164], [-103, -164]], [[12959, 47604], [-2, 6], [2, -6]], [[3327, 47362], [0, 0], [0, 0]], [[13058, 47695], [1, 0], [-1, 0]], [[10792, 47941], [272, -357], [-928, -1660], [-234, 215], [-80, 398], [684, 367], [399, 723], [-124, 336], [11, -22]], [[39399, 48334], [265, -173], [-348, -215], [135, -786], [-843, -401], [-440, 754], [608, -167], [530, 1395], [88, -406], [5, -1]], [[12093, 47911], [237, -44], [-90, -731], [415, -90], [111, 730], [269, -342], [89, 399], [350, -536], [-217, -423], [-133, 341], [-367, -322], [-208, -1316], [-546, -61], [182, -937], [-577, -191], [-21, -1245], [-363, 70], [-567, 1182], [516, 334], [-443, 585], [376, 304], [8, 824], [413, 544], [102, 939], [431, -13], [33, -1]], [[12433, 48026], [0, 0], [0, 0]], [[12656, 48085], [0, 1], [0, -1]], [[35560, 48717], [-1, 3], [1, -3]], [[37597, 48630], [3, 1], [-3, -1]], [[12649, 48208], [0, 0], [0, 0]], [[12656, 48211], [0, 0], [0, 0]], [[36449, 48944], [16, -535], [-413, -477], [-226, 608], [569, 416], [54, -12]], [[36871, 48974], [464, -398], [-324, -231], [-231, 317], [83, 313], [8, -1]], [[34813, 48979], [47, -314], [-48, 315], [1, -1]], [[13597, 47929], [-190, 503], [190, -503], [0, 0]], [[32551, 48898], [-5, 1], [5, -1]], [[29161, 48916], [-9, 41], [9, -41]], [[35128, 49285], [0, 0], [0, 0]], [[28730, 49376], [-3, 2], [3, -2]], [[32728, 49658], [-1, 0], [1, 0]], [[11426, 49066], [21, 372], [-21, -372], [0, 0]], [[4485, 48628], [-144, -1466], [-472, -87], [-253, -1164], [-277, 930], [187, 513], [301, -116], [310, 1589], [279, 389], [66, -489], [3, -99]], [[39217, 49848], [-117, 348], [134, -339], [-17, -9]], [[32500, 49828], [-104, 321], [105, -320], [-1, -1]], [[32238, 50169], [56, -319], [-61, 320], [5, -1]], [[34036, 50337], [-1, 0], [1, 0]], [[33758, 50588], [-14, 23], [14, -23]], [[31417, 49816], [318, -640], [106, 412], [307, -185], [320, -1069], [508, -134], [-231, -1065], [-702, -418], [-1, -332], [-319, -108], [-6, -612], [-472, -412], [-406, 150], [39, 918], [-551, -465], [-227, 907], [-435, -512], [-230, 1683], [65, 934], [1087, 230], [521, 1495], [307, -776], [2, -1]], [[28332, 50567], [0, 0], [0, 0]], [[12827, 49949], [6, 3], [-6, -3]], [[31981, 50540], [27, 6], [-27, -6]], [[30803, 50729], [1, 0], [-1, 0]], [[30443, 50886], [1, 5], [-1, -5]], [[38648, 51281], [2, 2], [-2, -2]], [[30353, 51270], [0, 4], [0, -4]], [[30353, 51270], [-1, 0], [1, 0]], [[30310, 51372], [0, 1], [0, -1]], [[30355, 51290], [1, 10], [-1, -10]], [[13320, 50774], [613, -808], [-477, -29], [87, -786], [-268, -6], [69, 301], [-350, 296], [123, 420], [357, 31], [-322, 518], [181, 111], [-13, -48]], [[13019, 50630], [-296, -85], [184, -282], [-355, 144], [-19, 480], [480, -229], [6, -28]], [[35233, 52038], [-43, 15], [43, -15]], [[35122, 52119], [-28, 80], [28, -80]], [[12258, 51834], [291, -470], [-165, -93], [-157, 589], [31, -26]], [[33173, 52464], [333, -457], [-368, -811], [222, -90], [225, -1153], [-440, -258], [-241, 1446], [363, 509], [-132, 876], [38, -62]], [[34415, 52298], [-145, -378], [373, -127], [-35, -1021], [-428, 1140], [-312, -117], [643, 1027], [-94, -520], [-2, -4]], [[38625, 52772], [2, 0], [-2, 0]], [[37643, 48227], [150, 837], [-445, 949], [-463, -274], [-226, -635], [-268, 470], [-446, -76], [-523, -289], [-87, -669], [-202, 177], [230, 745], [-360, 1413], [382, 597], [-180, 863], [-425, 356], [617, -378], [229, 752], [566, -549], [714, 293], [677, -1255], [452, 402], [605, -309], [-223, -411], [300, -347], [248, -1196], [-226, -485], [53, -653], [-120, -369], [-1005, 73], [-24, -32]], [[28692, 52716], [1, 1], [-1, -1]], [[12449, 52085], [-26, 407], [155, -297], [-129, -110]], [[12709, 52081], [-27, 447], [28, -447], [-1, 0]], [[38450, 52955], [1, 1], [-1, -1]], [[36858, 52901], [-194, 308], [196, -306], [-2, -2]], [[39244, 53301], [-9, -6], [9, 6]], [[35210, 53128], [-1, 1], [1, -1]], [[35390, 53148], [1, 0], [-1, 0]], [[33885, 53549], [-31, -548], [-349, 186], [379, 366], [1, -4]], [[33508, 53590], [2, 1], [-2, -1]], [[39609, 53912], [1, 0], [-1, 0]], [[29053, 53763], [0, 0], [0, 0]], [[24968, 53840], [68, 113], [-68, -113]], [[29480, 54220], [-177, -337], [-31, 521], [225, -170], [-17, -14]], [[39735, 54575], [0, 0], [0, 0]], [[30986, 54559], [0, 1], [0, -1]], [[35549, 55074], [2, 1], [-2, -1]], [[44831, 55391], [-1, 1], [1, -1]], [[32248, 55181], [251, -1154], [-548, -983], [488, -63], [-18, -785], [-493, -44], [-260, -468], [-313, 325], [-257, -765], [-125, 583], [184, 404], [-298, 308], [66, -880], [-263, 261], [-417, -596], [-221, 372], [676, -1350], [-371, -137], [-109, -745], [-663, -219], [-876, 716], [95, 252], [-325, 558], [336, 539], [-177, 709], [250, 94], [-298, 409], [458, 331], [-86, 568], [1331, -214], [556, 462], [-44, 327], [440, -103], [324, 966], [707, 322], [0, 0]], [[38320, 55158], [13, 51], [-13, -51]], [[44573, 55431], [-265, 236], [275, -178], [-10, -58]], [[33690, 55526], [-2, 4], [2, -4]], [[35363, 55494], [3, 2], [-3, -2]], [[38297, 55913], [3, 1], [-3, -1]], [[31462, 56059], [-58, -577], [57, 579], [1, -2]], [[38110, 56159], [-225, -1343], [580, -249], [127, -236], [-171, -304], [270, -289], [-113, -523], [-94, 696], [-301, 172], [-124, -573], [222, -140], [52, -890], [-374, -288], [-652, 90], [-307, 1153], [-761, -164], [-860, 714], [2338, 575], [-37, 973], [222, -99], [214, 727], [-6, -2]], [[30875, 55620], [31, 608], [14, -504], [-45, -104]], [[37471, 57014], [-2, 0], [2, 0]], [[34717, 56660], [-153, 298], [155, -297], [-2, -1]], [[37471, 57014], [4, 1], [-4, -1]], [[43460, 57514], [-221, -82], [221, 83], [0, -1]], [[43534, 57465], [-9, 32], [9, -32]], [[34517, 57750], [-102, -209], [98, 212], [4, -3]], [[42924, 58016], [-51, -145], [51, 145]], [[40250, 57856], [-82, 281], [223, -150], [-139, -130], [-2, -1]], [[38045, 58381], [14, 4], [-14, -4]], [[45613, 58847], [34, 71], [-34, -71]], [[36139, 58956], [6, 1], [-6, -1]], [[45705, 59711], [-485, -746], [44, 616], [436, 130], [5, 0]], [[45782, 59852], [0, 0], [0, 0]], [[44868, 59633], [-37, 609], [37, -609], [0, 0]], [[36590, 60126], [782, -451], [177, 408], [414, -792], [85, -576], [-860, -44], [624, -1137], [-376, -466], [69, -556], [-760, 457], [-200, -526], [295, -896], [-156, -807], [-868, -206], [82, 586], [-275, 712], [-613, -231], [292, -989], [-135, -268], [-389, 976], [-622, 422], [-150, 683], [180, 146], [651, -982], [478, 383], [-719, 1894], [815, 759], [1155, -558], [177, 462], [-347, 461], [-67, 957], [258, 180], [3, -1]], [[42348, 60017], [-49, 310], [53, -304], [-4, -6]], [[38373, 60331], [60, -660], [-60, 660], [0, 0]], [[36628, 60308], [100, 22], [-100, -22]], [[36407, 60324], [-189, 26], [76, 264], [115, -290], [-2, 0]], [[38422, 60570], [4, 1], [-4, -1]], [[40269, 60745], [6, 4], [-6, -4]], [[38475, 61272], [0, 0], [0, 0]], [[39596, 61192], [1, 1], [-1, -1]], [[35817, 61289], [-5, 1], [5, -1]], [[41781, 61477], [1, 0], [-1, 0]], [[38805, 61521], [400, -555], [-459, -878], [57, 1437], [2, -4]], [[36139, 61307], [2, 1], [-2, -1]], [[44940, 61363], [-214, 565], [380, -164], [-158, -394], [-8, -7]], [[42237, 62278], [-1, 0], [1, 0]], [[32618, 61907], [-56, 254], [192, -158], [-136, -96]], [[39509, 62657], [-129, -327], [134, 322], [-5, 5]], [[42924, 58016], [-636, 378], [-486, -1052], [-1308, 650], [251, 996], [949, -427], [364, 966], [332, -625], [59, 1560], [409, -378], [392, 419], [-303, 909], [-517, 554], [660, 786], [496, -919], [808, 87], [516, -690], [-39, -758], [-148, 479], [-292, -67], [-58, -438], [-318, 318], [115, -807], [-449, 229], [-134, -343], [446, -321], [-400, -411], [366, -349], [1141, 158], [421, -549], [94, -800], [-218, -444], [210, 147], [59, -405], [-257, -72], [59, -483], [-449, -599], [-583, 84], [-406, 533], [651, 630], [-47, 535], [-242, -177], [-281, 768], [-458, -314], [-130, 458], [-607, -126], [-32, -90]], [[39509, 62657], [-53, 53], [53, -53]], [[38460, 62566], [23, 44], [-23, -44]], [[42725, 62605], [91, 192], [-91, -192]], [[33188, 62637], [-102, 335], [103, -335], [-1, 0]], [[37883, 63138], [-1, 1], [1, -1]], [[42294, 63329], [-50, -262], [50, 262], [0, 0]], [[42297, 63389], [0, 0], [0, 0]], [[33112, 63383], [-17, 10], [17, -10]], [[40034, 63518], [1, 1], [-1, -1]], [[42120, 63856], [-2, 2], [2, -2]], [[41307, 64005], [-141, -357], [318, -136], [47, -1305], [-329, 234], [-410, -504], [-514, 634], [269, 1210], [395, -302], [252, 255], [113, 271]], [[34718, 63475], [441, 60], [27, -813], [538, 3], [-271, -649], [525, -118], [-531, -934], [545, -405], [-132, -852], [-584, 307], [197, -1117], [-563, -5], [15, -378], [-671, -228], [-226, -695], [-405, 924], [-426, 218], [172, 693], [-603, -863], [-345, 403], [-748, -67], [184, 195], [-93, 379], [-448, 124], [800, 100], [849, 2342], [647, -184], [99, 693], [194, -49], [28, -530], [484, 88], [244, 603], [-181, 1141], [236, -384], [2, -2]], [[41307, 64005], [13, 30], [-13, -30]], [[42230, 64367], [0, 4], [0, -4]], [[41339, 64083], [63, 609], [152, -412], [-201, -161], [-14, -36]], [[40602, 64875], [4, 2], [-4, -2]], [[41046, 64954], [254, -171], [-38, -362], [-517, -17], [-93, 353], [326, 336], [68, -139]], [[38237, 65357], [219, -1074], [-428, -429], [162, 1393], [47, 110]], [[38237, 65357], [43, 105], [-32, -80], [-11, -25]], [[42205, 65890], [506, -441], [400, -1579], [-142, -329], [-485, 71], [181, 486], [-554, 966], [-322, -314], [-162, 661], [566, 507], [12, -28]], [[39101, 66360], [1, 0], [-1, 0]], [[40556, 66732], [-48, 130], [48, -130]], [[39456, 62710], [-171, 644], [184, -232], [-58, 464], [211, 279], [-451, 502], [575, 56], [78, 600], [-409, 531], [573, 1043], [-249, 61], [72, 280], [378, -83], [-96, -1899], [-250, 108], [-91, -624], [178, -387], [-302, -318], [229, -584], [-311, 131], [-93, -566], [3, -6]], [[39250, 67476], [3, 1], [-3, -1]], [[35620, 67647], [1, 0], [-1, 0]], [[35936, 67782], [0, 0], [0, 0]], [[40768, 68046], [-137, -360], [-111, 293], [250, 71], [-2, -4]], [[41404, 68309], [449, -226], [251, -1622], [-788, -339], [-168, 187], [217, 439], [3, 1570], [36, -9]], [[39626, 68386], [-215, -60], [153, 296], [62, -236]], [[36095, 68561], [-40, 326], [84, -295], [-44, -31]], [[36209, 69019], [1, 0], [-1, 0]], [[36358, 68987], [34, 300], [-33, -299], [-1, -1]], [[38280, 65462], [120, 361], [-164, 209], [-643, -185], [-10, -816], [-717, -606], [453, 1265], [-60, 1645], [370, -178], [-435, 853], [-953, -325], [-280, 360], [82, 368], [284, -139], [683, 1382], [1341, -396], [-130, -670], [573, -915], [67, -1423], [-464, -498], [-117, -292]], [[36324, 69493], [16, 9], [-16, -9]], [[31520, 69847], [4, 1], [-4, -1]], [[40320, 70111], [-115, 290], [116, -290], [-1, 0]], [[36959, 70367], [225, 138], [-225, -138]], [[39838, 71350], [66, -777], [-181, -4], [-358, 1037], [287, 164], [146, -362], [40, -58]], [[37626, 71823], [1248, -492], [197, -632], [527, -222], [-183, -1897], [-190, -183], [112, 645], [-380, 656], [-442, -180], [-106, 617], [-655, -20], [-504, 559], [81, 349], [-271, 269], [545, 475], [21, 56]], [[30111, 71520], [-142, 194], [165, -119], [-23, -75]], [[37952, 71994], [-106, 146], [106, -146]], [[36815, 72186], [-1, 1], [1, -1]], [[30612, 72063], [-116, -436], [-38, 479], [149, -41], [5, -2]], [[37232, 72290], [0, 0], [0, 0]], [[29734, 72298], [0, 0], [0, 0]], [[29734, 72298], [106, -370], [-105, 370], [-1, 0]], [[37976, 72483], [41, 342], [-41, -342], [0, 0]], [[37188, 72539], [-80, 272], [89, -269], [-9, -3]], [[34453, 72862], [-1, -3], [-21, -42], [22, 45]], [[29481, 72763], [-1, 0], [1, 0]], [[37781, 72716], [-137, 349], [143, -344], [-6, -5]], [[38063, 73012], [1, 0], [-1, 0]], [[29551, 73470], [209, -184], [-226, -211], [14, 411], [3, -16]], [[37212, 74064], [376, -16], [98, -586], [-573, -67], [86, 601], [13, 68]], [[37212, 74064], [0, 1], [3, 15], [-3, -16]], [[33713, 74113], [-2, 1], [2, -1]], [[31943, 74151], [-50, 114], [50, -114]], [[33878, 74410], [5, 5], [-5, -5]], [[33248, 74518], [282, -743], [-90, -839], [-526, 681], [-74, 679], [291, 140], [-91, 346], [209, -215], [-1, -49]], [[32056, 74845], [25, -283], [-367, 99], [341, 186], [1, -2]], [[39714, 74905], [1572, -598], [-131, -1318], [556, -705], [135, -1574], [357, -280], [-664, -1691], [-290, 61], [-158, 922], [-66, -541], [-408, -110], [118, 2326], [-361, 323], [-478, -286], [-365, 621], [-578, -340], [-507, 956], [-279, -197], [180, 911], [-295, 429], [77, 604], [1252, 761], [333, -274]], [[34757, 74998], [-234, 414], [285, -382], [-51, -32]], [[34237, 75147], [-261, 164], [208, 242], [48, -401], [5, -5]], [[40225, 75691], [-5, -72], [5, 72]], [[39342, 75654], [17, 16], [-17, -16]], [[39788, 75869], [53, -627], [-276, 244], [219, 380], [4, 3]], [[39788, 75869], [12, 8], [-12, -8]], [[40225, 75691], [37, 572], [-37, -572]], [[39824, 76008], [-247, 347], [267, -272], [-20, -75]], [[40262, 76263], [15, 89], [-15, -89]], [[37800, 76358], [2, 4], [-2, -4]], [[38526, 76369], [19, 5], [-19, -5]], [[35301, 77021], [0, 1], [0, -1]], [[28335, 77006], [264, -43], [-226, -165], [105, -203], [-190, 447], [47, -36]], [[29222, 76531], [-183, 741], [183, -740], [0, -1]], [[34453, 72862], [-476, 620], [491, 737], [-251, 459], [1127, 316], [1102, 1715], [79, 640], [1025, -170], [147, 362], [594, -25], [-1476, -988], [-207, -2251], [254, -1000], [-759, 429], [716, -699], [-475, -512], [256, -686], [-350, 1], [-177, -741], [-194, 2], [-770, 756], [113, 669], [-512, -7], [-137, -234], [195, -651], [-231, 30], [-27, 469], [-696, 139], [36, 320], [579, -195], [65, 579], [-41, -84]], [[39612, 77645], [44, -544], [-688, -615], [7, 814], [611, 336], [26, 9]], [[29375, 81772], [-59, -335], [-194, 293], [252, 43], [1, -1]], [[29062, 81933], [-1, 2], [1, -2]]]}