{"type": "FeatureCollection", "features": [{"type": "Feature", "geometry": {"type": "MultiPolygon", "coordinates": [[[[127.17205661412434, 36.7308156314868], [127.17205582109656, 36.7306982007578], [127.17194952791748, 36.73072200709039], [127.17194694062084, 36.73072258051202], [127.17191900378576, 36.730691674705476], [127.17306319355617, 36.72919781047359], [127.1735806875208, 36.72868961788707], [127.17412880225372, 36.72857393192704], [127.17424406094425, 36.728569822971885], [127.17699547431037, 36.72855509555882], [127.17856976799848, 36.72880000758436], [127.17996745710451, 36.72906713325345], [127.1845745371927, 36.7296892236399], [127.18729971421382, 36.72798695542844], [127.18892735084293, 36.72771716945383], [127.1891490178366, 36.72773399416035], [127.1892211053977, 36.72774374441106], [127.18940868932253, 36.72777441832879], [127.18942356844332, 36.727776932620245], [127.18949362235293, 36.728104886503736], [127.19073854778894, 36.72854783565691], [127.1923676502194, 36.72858775788163], [127.19567230703488, 36.72835798121886], [127.19855832163364, 36.72728597436076], [127.2006940506729, 36.726548298626945], [127.20230076631833, 36.72626568594821], [127.20312237557023, 36.72614912478065], [127.20370329818005, 36.72529911880597], [127.20366859967994, 36.72373855011516], [127.20382272734115, 36.723018532765316], [127.20435604326337, 36.72163271709956], [127.20480792203927, 36.72087612952544], [127.20628935264774, 36.720691965857114], [127.2078825159246, 36.71958140013068], [127.20797116705599, 36.719509723542856], [127.20793603484726, 36.71918904230661], [127.20785027452919, 36.71903620639283], [127.20997778513721, 36.71848261157735], [127.21230513446793, 36.71810764972215], [127.21484820092661, 36.71707387247254], [127.215282750026, 36.71661268182682], [127.21607410313788, 36.71609789335125], [127.21813967578255, 36.71558812204539], [127.2185316501367, 36.71554292062477], [127.21896908656882, 36.71549706620002], [127.2190921800058, 36.715486983372074], [127.21924220142331, 36.71547488601165], [127.22120759528296, 36.71559995779502], [127.22362997161767, 36.715719932499155], [127.2238064492224, 36.71554445100244], [127.2240160661894, 36.71533595532793], [127.22420998431372, 36.71472057988399], [127.22395160278033, 36.71451323750526], [127.22378599383207, 36.71439527918734], [127.22354510858368, 36.71406428938509], [127.22343040027393, 36.71382880337204], [127.22333873036649, 36.71296756001476], [127.22351373348339, 36.71215764278571], [127.223514418644, 36.71215454237159], [127.22363716704226, 36.71165982447542], [127.22425759362693, 36.7109771956072], [127.22447136149891, 36.71081965772772], [127.22494938624965, 36.710488448214626], [127.22511658589245, 36.71037268269963], [127.22862378274277, 36.70819574968673], [127.22974729173998, 36.70782696418903], [127.23000893534422, 36.707779711568236], [127.23034340716569, 36.707820471219556], [127.23053689770212, 36.707908237943556], [127.230782215798, 36.708019558361066], [127.23080433699585, 36.708048243137455], [127.23109188808561, 36.70842249431343], [127.2312615413133, 36.70854606796036], [127.23167872617597, 36.708821791345365], [127.23224075650269, 36.709050771733104], [127.23343001221781, 36.708973835066246], [127.23373724834263, 36.708913542618376], [127.23406684367302, 36.70884108961985], [127.23425593788068, 36.708799322403586], [127.2364045089098, 36.707451877678565], [127.23651614576326, 36.70724440019396], [127.23687169918617, 36.706512666184324], [127.23699043099532, 36.705882207344494], [127.23700710884998, 36.705732930333255], [127.23702135979346, 36.70530289847731], [127.23702302595532, 36.70515956242963], [127.23702352220138, 36.70509310424412], [127.23702467721641, 36.70495651828408], [127.23703607756751, 36.70468024999954], [127.23704731596474, 36.70440877273689], [127.23990063238283, 36.702230827199635], [127.24161452610447, 36.70130880552335], [127.2438718429594, 36.69794672562277], [127.24556857107214, 36.696011758406755], [127.24571086348729, 36.69589150568379], [127.24802451449123, 36.6950683053196], [127.24843129472981, 36.69541421767313], [127.25121750166602, 36.69701295753063], [127.25129016807439, 36.69699366157611], [127.25140983971589, 36.69696187086248], [127.25217272321693, 36.69675582092822], [127.252920176575, 36.69610825980108], [127.25304325309764, 36.69594298685042], [127.25409677406249, 36.694956562600446], [127.25759996387691, 36.69271176086604], [127.26413987105607, 36.69224696000644], [127.26522964354922, 36.69220428545911], [127.2670081086291, 36.69272720785296], [127.2697425205028, 36.693725823053406], [127.27000854761819, 36.69399868287237], [127.27029007091174, 36.69431622716063], [127.27031675039972, 36.694346295453755], [127.27036511958357, 36.69438026754621], [127.27083510626072, 36.694584204228796], [127.2734768934835, 36.69526586726256], [127.27358291671213, 36.695186217889244], [127.27374003167289, 36.69506814587071], [127.27391964386166, 36.69493313504499], [127.27406681435487, 36.694821005241465], [127.27577282385312, 36.69351862851271], [127.2757938679435, 36.693486193854476], [127.2757944139728, 36.693292736547924], [127.27580673068123, 36.69326736393261], [127.27581384713295, 36.693252983279464], [127.2762784208853, 36.69247639068932], [127.27664752538583, 36.691894595423825], [127.27770874474308, 36.69134921414165], [127.28135671616356, 36.690408311804426], [127.2842488106513, 36.69047104273922], [127.2845858132509, 36.690496995534154], [127.28526315269713, 36.690606044203065], [127.28529006759217, 36.69067145243485], [127.28566863749587, 36.690666673263024], [127.28695192786829, 36.690422266946555], [127.28746479494325, 36.69020457980433], [127.28860129597348, 36.689641248089984], [127.28885954597614, 36.6895017628533], [127.28950427782024, 36.688555805066095], [127.28952952194128, 36.68825655367845], [127.28953760321606, 36.68819096934094], [127.29213707228543, 36.687089702740195], [127.29666145865221, 36.68577021017347], [127.29762233993141, 36.68577097809331], [127.29865083816651, 36.68584575128301], [127.2995671901471, 36.685930968053064], [127.30182909728605, 36.685736507403675], [127.3023250483404, 36.68564294583044], [127.30305778680663, 36.68546248104365], [127.30414733988792, 36.68502559536225], [127.30762518152785, 36.68202247198122], [127.3075300475736, 36.678316019238636], [127.30679270220539, 36.67656485364345], [127.30623302585857, 36.67547148629925], [127.30598724659119, 36.67248987063382], [127.30609186247143, 36.67224860272175], [127.30609054564302, 36.67223819917111], [127.30597540693182, 36.67133071648061], [127.30573362843846, 36.670257223805834], [127.30509046856865, 36.667569851847766], [127.30464492729668, 36.667419257840486], [127.3038947477101, 36.66706431917359], [127.30295777544725, 36.66638840974332], [127.30231903444185, 36.665746461565234], [127.3012384140764, 36.66405769596682], [127.29974560551935, 36.66218998199707], [127.29675232831036, 36.660782341310856], [127.2929392918332, 36.65983513518022], [127.28915995392087, 36.659322273563184], [127.28868824133166, 36.65889821551076], [127.28614944776193, 36.65167230643029], [127.28440248289039, 36.64999247099695], [127.28406227287272, 36.64941340459945], [127.28161958936755, 36.64514288763233], [127.28220632588491, 36.643203731455316], [127.28277801441482, 36.64229380515939], [127.28005813988253, 36.640885324993825], [127.27988656997293, 36.64080330196201], [127.27951574479015, 36.640696887019644], [127.27899885060198, 36.641054461262875], [127.27858920629998, 36.64134110641912], [127.27858452091435, 36.64134438185919], [127.27710618544769, 36.64184675550949], [127.27700910482645, 36.64186660866534], [127.27648991225608, 36.641332898766294], [127.27565045646033, 36.639803673468904], [127.27583858984822, 36.639428244523266], [127.27736026667154, 36.63659050211592], [127.27902427693729, 36.63384676929973], [127.27916434036874, 36.63368401315911], [127.2793210499505, 36.63355560766258], [127.27935109610931, 36.633540821070085], [127.27939744894566, 36.63351802331403], [127.27947814316614, 36.63350318171237], [127.27961099464787, 36.633670823758465], [127.27996936402313, 36.63397185762387], [127.28082573659528, 36.634389291108796], [127.2811356377405, 36.63444663346424], [127.28166132179608, 36.63452253401356], [127.28228182064976, 36.634600940424875], [127.2834139231974, 36.63449544992208], [127.28494365933315, 36.634113469462726], [127.28600921840759, 36.634711372988214], [127.28699715803556, 36.635875363584624], [127.28704519721474, 36.635927629882744], [127.28706608801731, 36.63595035428315], [127.28722987367723, 36.636126853404534], [127.28868174717222, 36.63678709717045], [127.28921189632759, 36.6368942867058], [127.28947570222999, 36.636934172897604], [127.2899934595522, 36.63694032709275], [127.29026287242036, 36.63694266688905], [127.29056078106728, 36.63689190394688], [127.29078370404702, 36.63681095541369], [127.29104941319366, 36.636686810583264], [127.29117790583565, 36.636617354705685], [127.29140803855033, 36.636437381035435], [127.29171951212867, 36.6361367702462], [127.29203475147281, 36.63583253216629], [127.29215894539455, 36.635640196430295], [127.29223212479577, 36.635419540334226], [127.2922614149157, 36.63518905887883], [127.29220849849118, 36.634928294318044], [127.29220512787523, 36.63491176670875], [127.29182915596807, 36.63367355176581], [127.29171689762411, 36.63342559085612], [127.29152006479126, 36.63302723116749], [127.29136672840794, 36.63283296960973], [127.29124970514839, 36.63271826999722], [127.29110923767858, 36.63255923681201], [127.29088424480582, 36.63203531029929], [127.29087364403605, 36.63200775095487], [127.2908300953532, 36.631810717210904], [127.29076906194472, 36.63150618435641], [127.29070017292375, 36.63106791766365], [127.29069894210878, 36.63096592280217], [127.29070582278645, 36.630616979697706], [127.29071089149238, 36.63054018192794], [127.29073798217367, 36.630136672399665], [127.29106711411909, 36.6282155032931], [127.29117432075297, 36.62762686895548], [127.29123032603074, 36.62737376700954], [127.29141120441555, 36.62657033260123], [127.29146323324018, 36.62642349122117], [127.29151498356758, 36.626279484538465], [127.29170308414983, 36.625769336637624], [127.29175946239766, 36.625622983208906], [127.29201159163786, 36.6250368061067], [127.29212623284042, 36.624900978197545], [127.2921825741817, 36.62483699527839], [127.29223867068465, 36.6248087806514], [127.29235958111971, 36.62474797350837], [127.29251275378311, 36.62467324740028], [127.29281595887248, 36.6246086074986], [127.29321424527924, 36.624528739691506], [127.29393679067954, 36.6243854722661], [127.29449473932681, 36.62443478955193], [127.2946588846642, 36.62445102095318], [127.2950122535146, 36.624522900066346], [127.29519858458264, 36.62456137009015], [127.29549415998831, 36.62456635641072], [127.29582740136016, 36.62457186450779], [127.29613577741645, 36.6244272657132], [127.29630254719268, 36.624240210550845], [127.29634310613285, 36.623813957661014], [127.29635911103836, 36.6233877565201], [127.29626124207265, 36.62248242511254], [127.29620053099559, 36.62200756321868], [127.29596091607199, 36.621419826685305], [127.29581656494307, 36.6209712207569], [127.29575940384103, 36.62053841412412], [127.295772486448, 36.62018353622776], [127.29591299001383, 36.61969992077884], [127.29611109661445, 36.61936323807955], [127.29640912323532, 36.618975006782165], [127.29832436754835, 36.61873220850973], [127.29888307687065, 36.61866137363415], [127.29933083669064, 36.618280122687], [127.29951417967038, 36.61805832799774], [127.29960716206065, 36.61794416706659], [127.29978773745867, 36.617650288799496], [127.30006160881939, 36.617193747890866], [127.30011539454757, 36.61700384078322], [127.30017576538526, 36.61679066616505], [127.30026521809329, 36.616455401479776], [127.30016220282525, 36.61533797850306], [127.30009245592649, 36.61478883277416], [127.3000512884843, 36.61436012302272], [127.30010493009108, 36.61408101666685], [127.30014182300724, 36.61389725548033], [127.30035114837649, 36.61348677114733], [127.3004950996308, 36.613235093433374], [127.30063694846768, 36.612992212461144], [127.30071184506099, 36.61291208799425], [127.30117243611859, 36.612832128031584], [127.30165573221328, 36.61282250306758], [127.3017921857869, 36.612814616605085], [127.30180732803471, 36.61281374028979], [127.3019300540708, 36.61224436744992], [127.30196972688152, 36.611821105045856], [127.30200012392457, 36.611442301809404], [127.30158956567396, 36.60929574011663], [127.30077483907208, 36.6077267393789], [127.3032539266799, 36.60565668856186], [127.3032732608391, 36.60564117498989], [127.30360868861524, 36.605372050396866], [127.30409575025591, 36.60499032064351], [127.30453027252865, 36.60468533677903], [127.30494873888867, 36.60436505539971], [127.30545114700864, 36.603755897177656], [127.30549232067544, 36.603698895722154], [127.30572171302461, 36.60337830914048], [127.30618464856153, 36.60256305142182], [127.30619523390197, 36.60253836568197], [127.30629392310198, 36.60230812207959], [127.30636681637799, 36.602137719644354], [127.30640948560401, 36.60203777363375], [127.30646320769921, 36.6017871856458], [127.30653405448143, 36.601384197657026], [127.30660158650572, 36.60093821609125], [127.30663189035924, 36.60061767848387], [127.30662054878755, 36.60035418976118], [127.30655037327651, 36.59983729783576], [127.30647939718081, 36.59964490840038], [127.30612524737012, 36.598714321355565], [127.30557001533232, 36.59763441393159], [127.30543640361704, 36.59738778097306], [127.30512342364426, 36.59686767145392], [127.3049473826369, 36.59664143084626], [127.30492228435216, 36.59657166304041], [127.30480256904815, 36.59623888373607], [127.30470358399548, 36.595812396392176], [127.30463540677253, 36.59536229949492], [127.30459115831225, 36.594346600895534], [127.30460244059049, 36.59395966090535], [127.30467852976471, 36.59359344448578], [127.30479829109761, 36.59314977295014], [127.3049622426445, 36.59263646934016], [127.30499064759812, 36.59254767626842], [127.30500046037135, 36.59228799985278], [127.30497925763115, 36.59201015336433], [127.30493741896953, 36.59170516307724], [127.30484332280562, 36.59138980556197], [127.30458340195214, 36.5909824698512], [127.30436121730413, 36.590654868581744], [127.30410441441593, 36.590378196335685], [127.30376455328448, 36.59004744083057], [127.30353105115425, 36.58983283365032], [127.30216721986156, 36.58879230871083], [127.30179344900144, 36.58854550238224], [127.30143013544048, 36.58834307530447], [127.30049544551227, 36.58793635252243], [127.3000006535346, 36.587747212685365], [127.29998377997771, 36.58774076476235], [127.29986471465584, 36.5876966102779], [127.29984573859308, 36.58767275887634], [127.29959739709992, 36.587302733969636], [127.29944904746856, 36.58688266392583], [127.29945904866747, 36.586575595085314], [127.29956170957672, 36.586327012101876], [127.29982091924566, 36.58595324770594], [127.30341546190935, 36.583658983612004], [127.30387043867594, 36.58339668932915], [127.30404820522239, 36.58333756440835], [127.30509342701374, 36.58311539471423], [127.30521236185463, 36.5830933075303], [127.30576774502484, 36.58299570364235], [127.30614128041432, 36.58298148465277], [127.30619480454024, 36.582979447740854], [127.3085064889549, 36.58290189414939], [127.3127373881894, 36.58285379524099], [127.31288592733563, 36.5828589047358], [127.31320590375992, 36.582872098861756], [127.31621292240615, 36.583304004294334], [127.31897440333263, 36.58371789272471], [127.32076445850659, 36.583764070100315], [127.32144027362644, 36.58377798218586], [127.32206277974612, 36.58149430437877], [127.32545492695941, 36.57771237573971], [127.32658586834262, 36.576524321421516], [127.3273436466498, 36.57603790123586], [127.32788265165384, 36.57583715977058], [127.32804566323419, 36.57577659022119], [127.3294238978889, 36.57531337046496], [127.33096833417623, 36.57505382876411], [127.33124478917256, 36.5749232739185], [127.33182076575247, 36.574522474856344], [127.33576446621315, 36.571063990103795], [127.33655021122966, 36.56998606958514], [127.33620739773096, 36.569520496179415], [127.33606720111236, 36.56933078501521], [127.33575233617795, 36.56890475453946], [127.3354642159405, 36.568581937643586], [127.33533404299516, 36.56843608423889], [127.3351545515931, 36.5680961355615], [127.3370167805685, 36.56283938796708], [127.33781059027167, 36.562431288426765], [127.33808518566265, 36.562343274158216], [127.33823837165784, 36.562349049804034], [127.3389135378985, 36.562724502777236], [127.34101253937472, 36.56364444443365], [127.34262470705421, 36.56414847278331], [127.34444211432049, 36.564358558116105], [127.34712792997946, 36.56445339635735], [127.34899496676704, 36.56381338970491], [127.34947609520475, 36.5635216569718], [127.35026510173041, 36.56289046769281], [127.35100137828228, 36.562211666173525], [127.3519478998918, 36.56214304776421], [127.35245596383423, 36.56215679992385], [127.35311936709978, 36.56222768788028], [127.35625988587982, 36.561684532190924], [127.35665771549606, 36.56169488265831], [127.35764505666063, 36.56181133789757], [127.36008636512027, 36.562208479106125], [127.36048424327592, 36.56227690467542], [127.360502611081, 36.56229669084329], [127.36071827418225, 36.562546332722164], [127.36077084344029, 36.56270782727174], [127.36084020788098, 36.56288513582849], [127.36085410528077, 36.56291393000549], [127.36094132648668, 36.56307853724723], [127.36147682378883, 36.56384270766512], [127.36159432004317, 36.56395815065535], [127.36189070179002, 36.56415451292639], [127.36230548266425, 36.564375059890594], [127.36248814807264, 36.564446871210066], [127.36251743971964, 36.5644535067362], [127.36507831136703, 36.564248466850216], [127.37089022579437, 36.56651289203457], [127.37594443829377, 36.5675498232839], [127.37624383949245, 36.56762083791796], [127.37706336682294, 36.56788481614967], [127.37712515500328, 36.567873340544196], [127.37716028250179, 36.56788811459553], [127.37754879493305, 36.56782892999153], [127.3770288938899, 36.56396000830584], [127.37793506424102, 36.562999738307596], [127.37798415441556, 36.56293633315683], [127.3779691044885, 36.56289447873221], [127.37649145433632, 36.56094371103836], [127.37558872715552, 36.56042951994944], [127.37500479968821, 36.560214121069734], [127.37316786225712, 36.5601516827188], [127.37303371709096, 36.56010466507837], [127.37270483696989, 36.559958803622564], [127.3726747853999, 36.55993293608542], [127.37254698336757, 36.55972424260349], [127.37321247211848, 36.558380547515725], [127.37350803538843, 36.557810287087385], [127.37359329962365, 36.55771570819432], [127.37375092218747, 36.557637011140216], [127.37439671764946, 36.557670625317314], [127.37448440261653, 36.557684245704976], [127.37462510579337, 36.55770661414298], [127.37486640557204, 36.5577521143865], [127.37555718881694, 36.557858409514424], [127.37558735509997, 36.5578393109626], [127.3756329932044, 36.55779263874448], [127.37564603968994, 36.55777929558669], [127.37776374121873, 36.5555867509915], [127.37809665899775, 36.55516677003197], [127.37862387835143, 36.55421371761443], [127.37899874486685, 36.553355963707055], [127.37923071380119, 36.552586188288004], [127.3789255397502, 36.55252937394834], [127.37871227544682, 36.552189318455696], [127.37842932765635, 36.55110109828943], [127.37847998331767, 36.55022818652968], [127.3785249198122, 36.54980619367422], [127.37885812450406, 36.5495861619405], [127.37917972070305, 36.54938747249335], [127.38099388447529, 36.548934260998465], [127.38169259378499, 36.548876047923784], [127.38251451499598, 36.54837011040255], [127.3831860340099, 36.54786464016611], [127.38387364347737, 36.545476142778824], [127.38399901377366, 36.5445024538348], [127.38392926441946, 36.54380777483307], [127.3839097182981, 36.54376198785973], [127.38374750422852, 36.54339003196595], [127.38354851076345, 36.543135077791426], [127.3835059584968, 36.5428555819856], [127.38356683194748, 36.54219891525056], [127.38375678453494, 36.54176137140859], [127.38388437651975, 36.541532740634004], [127.38438296453462, 36.54121947179894], [127.38898145183087, 36.54038648430803], [127.38962986611708, 36.54030337173446], [127.3923342295601, 36.54001380799767], [127.39317251119657, 36.54003389388452], [127.39513685243645, 36.54010517636841], [127.39650330652512, 36.540154817340664], [127.3978219169675, 36.54021289933037], [127.39853270959617, 36.540550453669454], [127.39897134716797, 36.5409847113234], [127.39918614916229, 36.54116443107175], [127.40008191812512, 36.541718551181674], [127.40019353929331, 36.54178371940591], [127.4015150422617, 36.541493198705524], [127.40182466994949, 36.54124048065285], [127.40501266324998, 36.537311007177806], [127.40524350162946, 36.53660709297755], [127.40524841728825, 36.53639450749468], [127.40537990390396, 36.53422116094983], [127.40562164942627, 36.53139623074123], [127.40797548632152, 36.527810732878756], [127.40839493405754, 36.52720510466815], [127.40869101616887, 36.525288608915254], [127.40869370695701, 36.52519454873026], [127.40871375926422, 36.52395473596154], [127.40860112993984, 36.52369118376823], [127.40765524540076, 36.52307801820519], [127.40680071040613, 36.52316760604345], [127.40618006194845, 36.52379845763732], [127.40432845977361, 36.52392573039947], [127.4019203610529, 36.52376327066696], [127.40149316725963, 36.52365381008238], [127.3978894063842, 36.521346229257404], [127.39781382693441, 36.521260293402925], [127.39775669326377, 36.52118240040386], [127.39767387577682, 36.521049440626044], [127.39763502186219, 36.52057828259302], [127.40036336999032, 36.5190243624857], [127.40138622392858, 36.518480567200164], [127.40306308715553, 36.517623642773536], [127.4037537082728, 36.51737866333821], [127.40413931948842, 36.516876923229724], [127.4041625936514, 36.516773015168866], [127.40422183745281, 36.51543845653114], [127.40468284705443, 36.51267659035221], [127.40468907697819, 36.51264897646694], [127.40490026167713, 36.512075405383605], [127.40494795084632, 36.51194612803122], [127.40648703261127, 36.51130970702588], [127.40880791082847, 36.509947279627156], [127.40904397210032, 36.50974842831417], [127.40906631795, 36.507425121769195], [127.40878517346492, 36.506316907847335], [127.40836440179164, 36.50516919678086], [127.40810083079455, 36.504449341205984], [127.40780799655958, 36.5033036591659], [127.40870125154545, 36.49946766608809], [127.41033382617161, 36.498345132261534], [127.41063338401437, 36.498055918980015], [127.41080358060464, 36.497752279549125], [127.41057469707481, 36.49634340360772], [127.41056225499473, 36.496278409176426], [127.40982635192546, 36.49532080788734], [127.40941393745936, 36.495206931100036], [127.40536815855833, 36.494238400671115], [127.40029554818189, 36.493444051781914], [127.39981534315724, 36.49334983742183], [127.3969998233117, 36.492347242051515], [127.39612424328064, 36.491724773399156], [127.39612055427725, 36.49172147062538], [127.395893638354, 36.49186904275205], [127.39575998700317, 36.49195602368444], [127.39501480876586, 36.49245214372383], [127.39382841310834, 36.49324352238702], [127.39342026831747, 36.49351576716885], [127.3933492115724, 36.49356332012831], [127.39268978180829, 36.49420370733391], [127.39225091867188, 36.494632949761474], [127.3919764529229, 36.494900367148205], [127.38692959621093, 36.498638273701346], [127.38678252162889, 36.498715292497764], [127.3858769485887, 36.49918950294574], [127.38538373011478, 36.49944480896559], [127.38385508693773, 36.500230631154096], [127.38033654925505, 36.49953929821319], [127.38028186552354, 36.49947001305216], [127.38013454492986, 36.49928333917229], [127.37991604072674, 36.498982466652436], [127.37940300963272, 36.49827005427003], [127.37939065028819, 36.49825183560913], [127.37912286152422, 36.497857045638845], [127.37898494250624, 36.49765268661325], [127.37875953599595, 36.49732363965209], [127.37759378050335, 36.495623034074704], [127.37759113794657, 36.49561926211286], [127.3775906942651, 36.49561880999667], [127.3742689867193, 36.492587481177466], [127.37421417147885, 36.49253752250206], [127.37320880914143, 36.49176820246748], [127.37270107324512, 36.491379758737075], [127.37195113622127, 36.49088053495948], [127.37168094633127, 36.49070374698659], [127.371432832527, 36.49054140289532], [127.37081963770187, 36.490157771432926], [127.36891171990294, 36.48956431258017], [127.3691541940639, 36.4885833744228], [127.36847551173918, 36.4883095858205], [127.36843175945172, 36.48829400259392], [127.3682678314716, 36.488248073197255], [127.36824619256453, 36.48824261674655], [127.36818725428795, 36.4882336211965], [127.36813736849665, 36.48822844724799], [127.3679185525825, 36.48828893793088], [127.36455845216605, 36.48927612275321], [127.36346009337265, 36.489613636826284], [127.36337171814938, 36.489650064342115], [127.36333620848772, 36.48966470131882], [127.360151255551, 36.48852714699282], [127.35905130452997, 36.48523261251966], [127.35885685993505, 36.482564861869996], [127.36058933349744, 36.478595571122135], [127.36176187202709, 36.476986071326195], [127.36220788504956, 36.47647932165058], [127.3628260003056, 36.47594244912891], [127.36385073462047, 36.475245485907024], [127.36388388937803, 36.475221034786635], [127.36395183470808, 36.47503259501733], [127.36398463854012, 36.474934847931344], [127.363987338342, 36.47492680131894], [127.36398725599302, 36.47490046326142], [127.36398643346371, 36.474816684790255], [127.36387112616714, 36.474425583063216], [127.36385215810112, 36.47436144337583], [127.36215760076047, 36.471064356738324], [127.36001799601146, 36.469010191010334], [127.35957423413342, 36.466454767985816], [127.3585583952707, 36.46505951145212], [127.35652482109137, 36.46332842371381], [127.35671184457733, 36.45894487189308], [127.3567863911399, 36.458742965827376], [127.35679445896854, 36.45872111264116], [127.35734634472236, 36.45829859346821], [127.35775439656305, 36.45811154264343], [127.35837717267609, 36.45666389568561], [127.35861987719561, 36.455900906613664], [127.35862136892771, 36.45589556774784], [127.35579857733259, 36.45027303873915], [127.35341635299065, 36.4478718723003], [127.35323269088367, 36.44778622705179], [127.3529220756915, 36.44764918423975], [127.35260148419495, 36.44761732736293], [127.35194571294016, 36.447794437389135], [127.35139110869017, 36.44794714287794], [127.34974373819803, 36.44798611453749], [127.34738757020523, 36.44640232685666], [127.34657085645642, 36.445800880701924], [127.34489451419151, 36.44441451012476], [127.34427974147776, 36.4432911209776], [127.34318956959555, 36.440245483468225], [127.3403368192143, 36.43572933121948], [127.34047744194997, 36.433317217491194], [127.3405937568499, 36.43222842433887], [127.34085728594515, 36.43138239959412], [127.34100540381861, 36.430969121800636], [127.34047235397166, 36.430509561685454], [127.33981833822361, 36.42996987587002], [127.33757265669547, 36.42834878933278], [127.33753120268233, 36.42833565625891], [127.33550267939667, 36.42757959112299], [127.332727741076, 36.426504495124206], [127.33235215921803, 36.42574606290969], [127.3323198312613, 36.42568279238462], [127.33225164590894, 36.425549492092514], [127.33026220890467, 36.424050898612066], [127.33025807284912, 36.42404816921264], [127.3298162964393, 36.42375658804147], [127.32979473044743, 36.42374249344561], [127.32914910232103, 36.42332148758891], [127.32629846246526, 36.422094584445226], [127.32337984880964, 36.42273481629805], [127.32199037311604, 36.42341441454223], [127.31914148957922, 36.421474021695744], [127.3180887675845, 36.42098832196966], [127.31675811932794, 36.42053392420856], [127.31644699519633, 36.42046041164439], [127.31644362279994, 36.420461951682], [127.31637136856105, 36.420494970899426], [127.31637106944875, 36.42105505827154], [127.31637106124909, 36.421070859365955], [127.31624850450494, 36.42123774497419], [127.31601776090113, 36.42155194500101], [127.31480680101386, 36.42250180036591], [127.31412106375308, 36.42292218441557], [127.31161982692804, 36.4240780383444], [127.31094891905747, 36.424689282880756], [127.30994099086516, 36.42478154724448], [127.30637984199521, 36.424829840781776], [127.3050355050667, 36.42479468797257], [127.30350161661569, 36.424675803309256], [127.30282634936182, 36.42428606452677], [127.3026143295963, 36.42415423707085], [127.30191641899664, 36.423088688564924], [127.29933963768758, 36.42287954608418], [127.29821283680279, 36.42313311702486], [127.29641799550316, 36.42320839608267], [127.29424987865711, 36.42222404629204], [127.29458383335263, 36.421379784005765], [127.29499529898254, 36.42103942284711], [127.29517858490695, 36.42085507085432], [127.29531167757607, 36.4197703897615], [127.29108586912233, 36.41615197751927], [127.29075997469293, 36.41608026810654], [127.286818361247, 36.41530919224082], [127.2857337061612, 36.415148992807886], [127.28572462542631, 36.41515108699538], [127.28520297275286, 36.41527123609057], [127.28489462813724, 36.41523643464404], [127.28459639138792, 36.41520051921485], [127.28336488962292, 36.41499984219394], [127.28212371202417, 36.414612029510145], [127.28210044248388, 36.414999378937715], [127.2811215038194, 36.415348125947986], [127.28105822500427, 36.41535299720818], [127.27986166133388, 36.41539620020189], [127.27845644623493, 36.414664713738766], [127.27746784599394, 36.41414233043424], [127.27736606641089, 36.41407655442606], [127.27725867927798, 36.41400865648834], [127.27717460118286, 36.41397378532209], [127.27695297751985, 36.41389241869999], [127.27679458482415, 36.41386287531466], [127.27656965115496, 36.41386104017101], [127.27638926622852, 36.41387089072053], [127.27632238683235, 36.41387572298103], [127.27625197873951, 36.41388196669898], [127.27611265411093, 36.413894345918536], [127.27568913597469, 36.413948720256585], [127.27548553109645, 36.413997886615455], [127.27542194874351, 36.41401430742556], [127.27456618131394, 36.414264060420244], [127.2743020171733, 36.41435311399778], [127.27300024108168, 36.41484313147242], [127.27274889394, 36.414976515244355], [127.27112676505581, 36.41576191124336], [127.26820158613, 36.41672278233098], [127.26732062607543, 36.4169606251644], [127.26685179152241, 36.41706323060102], [127.26635490795728, 36.41714425800967], [127.2657409004722, 36.417195018288666], [127.26549270461378, 36.41717477772154], [127.26335189111742, 36.41684346509068], [127.26281895710258, 36.416734701154795], [127.26261276390868, 36.41668149787956], [127.26241315084694, 36.416625024872594], [127.26082496283463, 36.416010207399076], [127.25980792291412, 36.41551857431665], [127.25957672736817, 36.415337625592954], [127.25887094745175, 36.414610909507054], [127.2587236989803, 36.41439551707303], [127.2586455070719, 36.41424307180034], [127.25859657062833, 36.414022313618375], [127.25857608706197, 36.41369051293848], [127.25864736023605, 36.41330011979179], [127.25896747618042, 36.41208971891115], [127.25908190288419, 36.41178662738926], [127.25924388195052, 36.41137655510517], [127.25941930790478, 36.411014324107654], [127.25956348762782, 36.410354352802955], [127.25940570395274, 36.409779128350145], [127.25930667175709, 36.40942247366355], [127.25911630581668, 36.40910799218215], [127.25812684521794, 36.40834807031904], [127.25809623466341, 36.408325300571086], [127.2579080530177, 36.40823236272406], [127.25753922038507, 36.40809498663463], [127.25732367099044, 36.40802944029351], [127.25721000067935, 36.408002297670166], [127.25079570621944, 36.40675840144778], [127.2505788729233, 36.40684275305163], [127.24995408112699, 36.407402091157074], [127.2497081532395, 36.40775117141981], [127.24949497286757, 36.40818994998393], [127.24944716837484, 36.40830250491478], [127.24655545605599, 36.412194938170494], [127.24434707723913, 36.414644213527964], [127.24304449874474, 36.41740064526619], [127.24225929562324, 36.418615572198014], [127.2399365473, 36.41839292513174], [127.23626024046771, 36.418656526688935], [127.23562591051515, 36.418808005142694], [127.23192535019304, 36.41990948452983], [127.23184807630243, 36.420244404494696], [127.23181988822785, 36.420553848376805], [127.23170856662944, 36.421945121910774], [127.23078689906302, 36.42239696216965], [127.22877983899996, 36.4227962657542], [127.22860688983091, 36.42272260924568], [127.22844676803888, 36.422570221503584], [127.22794919988998, 36.422011626568526], [127.22753453350909, 36.421522738227544], [127.22693294085427, 36.42122130128317], [127.2256431670397, 36.42229476791169], [127.22544332396308, 36.42314055982539], [127.22502012368827, 36.4252695794095], [127.22511464058124, 36.42665016292762], [127.22454134153259, 36.42717471853432], [127.22245081473825, 36.4285458648435], [127.2196021534166, 36.43075710614304], [127.21869576773346, 36.431865935447874], [127.21811397362572, 36.43285029257035], [127.2180945045304, 36.43296744225283], [127.2180566602172, 36.43331537789986], [127.21770734081352, 36.433737499649084], [127.2153260999018, 36.43438946252107], [127.2142301550302, 36.434619954462626], [127.21317331659473, 36.43482221516931], [127.21267823636738, 36.43560993784106], [127.21150062002506, 36.435676836350915], [127.20900957670472, 36.43592929052388], [127.20779185311714, 36.43605981593237], [127.20712118615849, 36.436145734979384], [127.206089438977, 36.43649389630065], [127.20505381358991, 36.43689387135777], [127.20270448332577, 36.43785899448758], [127.20155060955554, 36.438370368606535], [127.20048990314122, 36.43886411959386], [127.19950766464, 36.43944925412238], [127.19893451127095, 36.4398838170172], [127.2009568946673, 36.441101883796094], [127.20104874195076, 36.44117615601247], [127.20106911272828, 36.44120031017258], [127.20110991538479, 36.44124957064465], [127.20136211702156, 36.44205053072324], [127.2018169228572, 36.44631688180159], [127.2013424593025, 36.449115970043955], [127.20069077352628, 36.450049812930885], [127.20064918280605, 36.45009562499826], [127.20045732896142, 36.45030695108948], [127.19954569225808, 36.45069161245431], [127.19851644816978, 36.45174822077804], [127.19839946665957, 36.452206679394045], [127.20078479896662, 36.453583131740814], [127.20321191653856, 36.456089236487266], [127.20473351368781, 36.45929023903453], [127.20412650856912, 36.46251832129607], [127.20327671042358, 36.46497773488581], [127.20231549488298, 36.46578294232721], [127.20108590598623, 36.46680295050951], [127.19982078867326, 36.46623526849041], [127.19945109728957, 36.46583250522577], [127.19864162416572, 36.465616251988216], [127.1979078473257, 36.46596749002379], [127.19474762730097, 36.468759559652135], [127.19388411062737, 36.4701177618933], [127.19201740165173, 36.4746665138942], [127.19048196440072, 36.47947099580063], [127.19416293119446, 36.48433354455868], [127.19482169340012, 36.4843860515097], [127.19485408994535, 36.484556643768], [127.19486353793395, 36.484743715669126], [127.19486891999617, 36.48604733160632], [127.19484539995508, 36.488591071273355], [127.19475086645346, 36.489252515756306], [127.19467549918095, 36.48959359838972], [127.18831460982813, 36.49262206130942], [127.18781110676784, 36.49273786181395], [127.18544634344714, 36.49320894328994], [127.18457472177116, 36.493307444325616], [127.18393448838897, 36.49334745509101], [127.18335877668417, 36.493382991760896], [127.18281538018248, 36.49332077365576], [127.18133448559895, 36.4929471088366], [127.18043029381488, 36.492555881149165], [127.1802606577566, 36.492359559734986], [127.18003781171946, 36.492076408329496], [127.17837426401732, 36.49233867804682], [127.1770538352768, 36.4926039731921], [127.17478676289115, 36.49515602268727], [127.1734294625102, 36.497137049646696], [127.17338216128935, 36.49721295844935], [127.17324009014693, 36.49744108184714], [127.17346587079469, 36.499206669498996], [127.17569543464282, 36.500556286185486], [127.17757211866957, 36.5024120557198], [127.17596583358097, 36.50541348686666], [127.17418633380078, 36.50644114477949], [127.1705186265872, 36.508543587873824], [127.17027964886891, 36.50872307518288], [127.16998970319673, 36.50903791393799], [127.17016229647648, 36.51155438855655], [127.17026327519828, 36.511747696918036], [127.1739903618854, 36.51550587639477], [127.1757114095966, 36.51660741674944], [127.17725241251227, 36.517490111577786], [127.17796321903518, 36.51788459429326], [127.17840335013678, 36.51804660695581], [127.17964163641587, 36.51888293065761], [127.18207214734558, 36.520766720981754], [127.18234872958308, 36.52143808063452], [127.17784363864659, 36.52717779533191], [127.1767286172464, 36.52801451382438], [127.17646218722241, 36.52818168058463], [127.17573343903678, 36.52888198259262], [127.17522219506178, 36.529994264938026], [127.1752706274071, 36.53074537000178], [127.17541009606227, 36.5315797815558], [127.17492215288631, 36.53298014338599], [127.1745962167079, 36.533096016267656], [127.17367344085531, 36.53326258572824], [127.17301836328349, 36.533456890594316], [127.17256004345948, 36.53574310490362], [127.1726684515553, 36.536143615753694], [127.1739633159978, 36.537895224703114], [127.17434325181112, 36.538254808183325], [127.17423661617914, 36.53921842272355], [127.17416055898998, 36.53986812242591], [127.17379658443645, 36.54075206887637], [127.17424055587941, 36.54218951776188], [127.1749748268329, 36.54277389827866], [127.1786730000286, 36.54535805040642], [127.17926076288121, 36.54547033248611], [127.18010385365149, 36.54554248021134], [127.18079512249997, 36.5455947277844], [127.181174485577, 36.54559939195827], [127.18131340522348, 36.54551135692091], [127.18213362775144, 36.54498421757406], [127.18258442911196, 36.54459546653734], [127.1827929571145, 36.54410609951993], [127.18380541819855, 36.543748422169415], [127.18503524900683, 36.54366270415455], [127.18580529684384, 36.54415800025376], [127.18615025800482, 36.54460472247127], [127.18636036070717, 36.54510092802511], [127.18693465360808, 36.54573256598747], [127.18700796291148, 36.54579769404648], [127.19182686252663, 36.54602539060855], [127.19183204976896, 36.546046017897886], [127.19176700557354, 36.54682053728061], [127.19168175299058, 36.547001577685094], [127.19145847228015, 36.547265995726384], [127.19126247771436, 36.547412779510246], [127.19066374265395, 36.54783870122425], [127.18860161641001, 36.549520766096805], [127.18730453018789, 36.55102160982001], [127.18675519612823, 36.55294167353716], [127.1894673717347, 36.556956503933506], [127.19052545166693, 36.55952855390601], [127.19274992809673, 36.56345521701863], [127.19336805287271, 36.56442041756985], [127.19344912262109, 36.564498100510534], [127.19378772472169, 36.564812512387384], [127.19489705515996, 36.56498320494333], [127.19578310100505, 36.565001896313944], [127.19628023120195, 36.56492462371546], [127.19677958037742, 36.564641632055675], [127.19748726032162, 36.564546752318535], [127.1992007321955, 36.5649445613874], [127.19938851456848, 36.56501807136772], [127.20310001540213, 36.56744371515264], [127.20348887792252, 36.56991350381668], [127.20350349250629, 36.571248130383495], [127.20373159360138, 36.572654953378], [127.2043743150278, 36.5734188474326], [127.2053226516281, 36.57421776535567], [127.2058591749779, 36.57460447165178], [127.20639448900302, 36.574789754891185], [127.20686195067515, 36.57528973992866], [127.20739480397066, 36.57625796790984], [127.20775132483307, 36.57795949419198], [127.20747213907113, 36.57830723967252], [127.20756279812099, 36.57849976544319], [127.20713732366356, 36.579343905697606], [127.20614323196617, 36.58032363548272], [127.20566499998054, 36.58076939207356], [127.20364971808819, 36.58161482293777], [127.20039928821133, 36.582567612440634], [127.19975757412229, 36.58259656240555], [127.19972334383692, 36.582592393277345], [127.19930699579274, 36.58254042868429], [127.19924360241015, 36.582396353755264], [127.19919010096099, 36.58222888541383], [127.19895016130012, 36.58200117850516], [127.19866944761895, 36.581800580809485], [127.19701311237228, 36.581093942114364], [127.19660173504793, 36.581002249676956], [127.19446675744399, 36.58065540743254], [127.1944037295693, 36.5806538242005], [127.19403917385988, 36.580645402084414], [127.19349749119687, 36.58073131658518], [127.19295597055644, 36.58081722633346], [127.1894610090854, 36.58637549182341], [127.18944329278229, 36.586412691219714], [127.18925540956882, 36.58683905460074], [127.19062415075975, 36.591877065558805], [127.19100241790537, 36.592620181425225], [127.1913112714089, 36.593463099924826], [127.1913360605494, 36.59353092904551], [127.19135085302534, 36.593937538838524], [127.19001166986605, 36.59462255395457], [127.18987125907948, 36.59461630098623], [127.18957403555763, 36.59460297023454], [127.1895666959614, 36.5946021379647], [127.18922783409387, 36.5945590268005], [127.18796997380159, 36.59407635118618], [127.18772234055089, 36.59391792287965], [127.18705166848589, 36.593488392687476], [127.18708666182685, 36.59293216027471], [127.18726559529355, 36.59284008452076], [127.18739555041662, 36.59256982009086], [127.1873361251705, 36.59232435769249], [127.1845118774056, 36.59116992056698], [127.18445616328243, 36.59116212024266], [127.18432198248206, 36.59120287790112], [127.18392343070153, 36.59145608464424], [127.18290224596211, 36.5924652322394], [127.18208716858445, 36.593293257573535], [127.18194725892299, 36.59514502534008], [127.18168373751755, 36.595510104722734], [127.17839047302493, 36.596891239153095], [127.17828081365539, 36.59689196459757], [127.17807668779498, 36.59689311455268], [127.17402455526548, 36.59591539970973], [127.17306949216328, 36.59556617862789], [127.173052890058, 36.595560570831225], [127.17272367072566, 36.59545122222308], [127.1726848758969, 36.595517737451395], [127.17263995488679, 36.59604834521191], [127.17262928834096, 36.5964380920688], [127.17260836581274, 36.59668791776936], [127.17257945341794, 36.5967989112526], [127.17253580927456, 36.59688598351883], [127.17248423753652, 36.5969406935755], [127.16785617692256, 36.60112061672222], [127.16607555893918, 36.60255055155074], [127.16206433939037, 36.60461285866884], [127.16188893557118, 36.60466885717005], [127.1601990861452, 36.605065370979716], [127.15789658600848, 36.60632943636615], [127.15588377588986, 36.606011050476205], [127.1558837390755, 36.60601103143844], [127.15547820436821, 36.60670289718897], [127.15498484163373, 36.612080772522525], [127.15505057241124, 36.61290634650209], [127.15509191653656, 36.61305695036709], [127.15559114828949, 36.614051494136596], [127.15577928641919, 36.614334265761336], [127.15598508796764, 36.615146425332064], [127.1556163171279, 36.6159922828817], [127.15495229427249, 36.61654451638272], [127.15308253921704, 36.61754125580847], [127.1522718704547, 36.61787485619664], [127.15154713699727, 36.61794898853497], [127.1506195193385, 36.618333701995745], [127.1500533237485, 36.619008005681756], [127.15042976746176, 36.619749552513646], [127.15090232964333, 36.620151374275224], [127.152834291581, 36.621891786859024], [127.1534410836968, 36.62277018015799], [127.15432140343452, 36.6238906818197], [127.15488581071236, 36.62415945262789], [127.15498931986278, 36.62420859721016], [127.15547735623768, 36.62419867755735], [127.15657992049191, 36.623923808663015], [127.159197708169, 36.62393586305003], [127.16009690158097, 36.62407011842149], [127.16010981958897, 36.62407207185136], [127.16043118135768, 36.624386194700335], [127.16049734939939, 36.62445088164694], [127.16048653117201, 36.6247122231896], [127.16036746582758, 36.62628062987124], [127.1600498988706, 36.62636948068776], [127.15948654856986, 36.62603371121737], [127.15764269419381, 36.62678858610227], [127.15705244503178, 36.627232598554436], [127.15690793123036, 36.627644495615286], [127.15616985149873, 36.62999571436454], [127.15611552346188, 36.63069867093311], [127.15628908308148, 36.631699823212884], [127.1565399019706, 36.63185213098223], [127.15661406409677, 36.63189709131891], [127.15710400675489, 36.632638190984494], [127.15751641155119, 36.63373027152364], [127.15808208566852, 36.63536339640742], [127.15802281918859, 36.63577545862911], [127.15801744242192, 36.635792361526605], [127.15801326330231, 36.63580504075799], [127.15653500452648, 36.63978208194014], [127.15635724428024, 36.639920572321145], [127.15382145103283, 36.64305301789418], [127.15336376284228, 36.6437193124217], [127.15316643902662, 36.645205583607485], [127.15399383316334, 36.649661734115476], [127.15469684641516, 36.65285588958968], [127.1556633243104, 36.653188059728684], [127.15636365859237, 36.65359801044205], [127.16056873096022, 36.656119004835865], [127.16048209848745, 36.65733226157618], [127.15904226046685, 36.661350947384385], [127.15626937674612, 36.66333002262327], [127.15485840608312, 36.664274649749515], [127.15563396223574, 36.66747461874343], [127.15611685749104, 36.66903771878854], [127.15855654016374, 36.67302735867866], [127.16179832660535, 36.67543184985874], [127.16257069973125, 36.67599344643454], [127.16344711335078, 36.67623021413078], [127.16412364073703, 36.6784975911619], [127.16393278079678, 36.679507953480005], [127.16356855872037, 36.68112793401869], [127.16295008932312, 36.68305802439839], [127.16226981987471, 36.68487358026082], [127.16188642618441, 36.685707921210025], [127.16080205137962, 36.68784391027329], [127.1612846548629, 36.68991105841575], [127.16128973736521, 36.689920621408696], [127.16144490448121, 36.69021863045527], [127.161382776977, 36.690440053349164], [127.16115195516286, 36.691182381150284], [127.16065720045466, 36.692293392336744], [127.16034968376789, 36.69272662027538], [127.15832497050481, 36.69508461084911], [127.15805410969232, 36.69532461079863], [127.15711394498626, 36.69565728448553], [127.15710132121716, 36.69561891880875], [127.15710131237782, 36.69561889264023], [127.15712323792071, 36.69480008228986], [127.15662825556248, 36.69114105364948], [127.15659381881603, 36.69105549353356], [127.15657294182704, 36.691020883897856], [127.1562234567887, 36.690764234885876], [127.1522092045995, 36.69016759990073], [127.14916525136988, 36.69026687879382], [127.14547730955321, 36.689298178711574], [127.143827771869, 36.688997723851195], [127.14174893624921, 36.689983826835466], [127.14155416691194, 36.69075028535677], [127.14218950365496, 36.69132794761625], [127.14248586160188, 36.691428970253945], [127.1428670696069, 36.691656619526704], [127.14287954449586, 36.691695739013106], [127.142906449869, 36.6917807594058], [127.1409033309035, 36.69688514872965], [127.14068678923591, 36.697323296325074], [127.13929768661497, 36.69823617368678], [127.13797225146931, 36.70135586114246], [127.13614355754711, 36.70503957789285], [127.1353653947492, 36.705933969291024], [127.1345909343007, 36.70665714826061], [127.13437853236717, 36.706791985306054], [127.134209819549, 36.7068149813029], [127.1337775104031, 36.70679462912977], [127.1335993207179, 36.70669175539896], [127.13330637857032, 36.70636176554185], [127.13203072026775, 36.70615957278106], [127.12999592215424, 36.706759346071976], [127.12799025208228, 36.707971807266546], [127.12799017769288, 36.70797190980302], [127.12794838702206, 36.708032676109305], [127.12781003875078, 36.708233884417076], [127.12777266822556, 36.70837331786547], [127.12773391108661, 36.70851979204281], [127.1277299100989, 36.70863665754717], [127.12776572972369, 36.70883204943493], [127.12787533702084, 36.708916696873715], [127.127875430756, 36.7089167620734], [127.12918920398674, 36.7100008591229], [127.1295585604551, 36.71022461460591], [127.13045742573422, 36.71011974252316], [127.13058841480407, 36.71012522351001], [127.13086543820233, 36.71013703943215], [127.1316452576966, 36.71027079360205], [127.13622838932203, 36.713265573272295], [127.14052055434458, 36.71599102669326], [127.14506139501242, 36.71750346243045], [127.14511371018374, 36.717520289497585], [127.14824581316182, 36.71988668357789], [127.14882776167012, 36.72056096591387], [127.14881989720703, 36.72101801318224], [127.1487521089435, 36.72123745889004], [127.1486992006985, 36.72128595565389], [127.14854660532615, 36.72142582153267], [127.14818508193773, 36.72271429682966], [127.14946717728463, 36.72510968624688], [127.149934131262, 36.72597810473323], [127.15066686736888, 36.726216615604145], [127.15205128500078, 36.7268075836441], [127.15474517720632, 36.72788830543205], [127.15513304632012, 36.72766281053342], [127.15534116434534, 36.72756143978417], [127.15564523242864, 36.72741912163626], [127.15584393499329, 36.72733185075066], [127.15591823981033, 36.72731373398708], [127.15629850965477, 36.7272307273239], [127.15636407669221, 36.72721740526162], [127.15646536151299, 36.72722403684381], [127.15752563845741, 36.72745609525746], [127.15927267693641, 36.731381819529865], [127.15964389553366, 36.73284394495652], [127.1613528242497, 36.73312945465963], [127.16464307674538, 36.733808433041446], [127.16469453829767, 36.73382187394906], [127.16858487830531, 36.733135289883535], [127.17121921125634, 36.73222565925548], [127.17133325948096, 36.73214608514435], [127.17146351629498, 36.732037204395745], [127.17186391536292, 36.73163760764825], [127.17200958592792, 36.731143474610626], [127.17205661412434, 36.7308156314868]]]]}, "properties": {"name": "\uc138\uc885\uc2dc", "base_year": "2018", "name_eng": "Sejongsi", "code": "29010"}}]}